"buyer_name","address","city","zipcode","kode_resi"
"Evi Wikarsa","Jl Dewi Sartika 357 C","Jakarta Pusat","15415","92702022-11-302022-12-01103125"
"Eiffel Tedja","Jl Kwitang Raya 8 Ged Senatama","Jakarta Pusat","16366","94012022-11-282022-12-018914"
"Hioe Isenta","Jl Pekayon 4","Jakarta Barat","16966","93892022-11-302022-12-01109172"
"Elvira Pudjiwati","Jl Raya Pasar Minggu Bl B/12","Jakarta Pusat","16563","90462022-11-292022-12-019574"
"Bob Yanuar","Jl RS Fatmawati 15 Golden Plaza Bl I/1-2","Jakarta Pusat","16250","93352022-11-302022-12-015277"
"Fabian Gelael","Jl Prof Surya Sumantri 16","Kota Bandung","16319","91292022-11-292022-12-01108279"
"Effendy Husin","Jl Ampera Raya Kav I/5 Ged Satmarindo Lt 2","Jakarta Pusat","16277","93532022-11-292022-12-0187305"
"Andre Sukendra Atmadja","Jl Laksda M Nazir 11 U","Jakarta Selatan","16483","90472022-11-292022-12-012292"
"Bobby Andhika","Jl Panti Asuhan 2","Jakarta Pusat","15502","88262022-11-302022-12-0154302"
"Beng Phiau","Jl Baskara Sari 92","Kota Pasuruan","17038","90512022-11-292022-12-0134226"
"Darmadi Karjanto Putro","Jl Pinangsia III/15","Jakarta Pusat","17167","91052022-11-302022-12-0168255"
"Andi Achmad Dara","Jl Sumagung III Kav Bulak K/5","Jakarta Utara","16681","90012022-11-292022-12-0114227"
"Ance Anggraeny","Jl Garuda Dlm I Bl B/47","Kota Bandung","16576","91022022-11-292022-12-011184"
"Andi Achmad Dara","Jl Sumagung III Kav Bulak K/5","Jakarta Utara","16681","96222022-11-302022-12-0114117"
"Execorp Limited","Jl Raden Saleh Ruko Metro Permata Bl A-2/33","Jakarta Pusat","15758","95992022-11-282022-12-01107178"
"Darwin Leo","Jl Cikini Raya 8","Jakarta Pusat","16509","91642022-11-292022-12-0175246"
"Christiana Halim","Jl Mampang Prapatan Raya 18","Jakarta Pusat","17224","88712022-11-292022-12-0163151"
"Irwan Hermanto","Jl Albaido I 29-30","Jakarta Barat","15246","95592022-11-302022-12-01113226"
"Elsa Djauhari","Jl Ngagel Tirtosari 19","Kota Pasuruan","16072","95432022-11-282022-12-0192157"
"Emily Waty Setiawan","Jl Lautze 87","Jakarta Pusat","17176","95392022-11-282022-12-019941"
"Darwin Leo","Jl Cikini Raya 8","Jakarta Pusat","16509","95322022-11-282022-12-017513"
"Evie Raviana","Jl Tmn Duta Mas Bl B-4/2","Jakarta Pusat","15274","88082022-11-282022-12-01105235"
"Andi Gunawan Wibowo","Jl H Dilun Raya 113 Kel Ulujami Kec Pesanggrahan","Jakarta Utara","16276","89092022-11-302022-12-0115207"
"Christiana Niowni","Jl Peta 62","Kota Bandung","17147","94472022-11-282022-12-0164134"
"Fabian Gelael","Jl Prof Surya Sumantri 16","Kota Bandung","16319","94342022-11-282022-12-01108141"
"Darminto Hartono","Jl Setiabudi 186","Kota Bandung","17151","90292022-11-302022-12-017242"
"Ben Morice","Jl Kembang Indah Utama Bl J-2 A/16-17","Jakarta Selatan","15951","90942022-11-292022-12-0133124"
"Amaluddin Djambak","Jl Raya Kosambi 8","Jakarta Barat","15683","92002022-11-282022-12-01830"
"Andi Achmad Dara","Jl Sumagung III Kav Bulak K/5","Jakarta Utara","16681","92302022-11-282022-12-011461"
"Daswi Rayawang","Jl Sunan Giri 1 RT 012/15","Jakarta Pusat","17037","89762022-11-292022-12-0279229"
"Muhammad Agus","Jl Balai Rakyat 3 RT 001/01","Jakarta Selatan","16710","90232022-11-302022-12-02125204"
"Belinda Natalia Tanoko","Jl Kutisari Raya 12","Kota Pasuruan","16899","88572022-11-292022-12-0231228"
"Andang Bachtiar","Jl Kedoya Akasia V Bl B/6 RT 006/04","Jakarta Utara","15394","110472022-12-012022-12-0212300"
"Andiko Ardi Purnomo","Jl Cipinang Cempedak II 14","Jakarta Selatan","16266","91872022-11-292022-12-0218186"
"Bernie Prajoga","Jl Casa 2","Kota Bandung","16858","93282022-11-292022-12-0244310"
"Christian Parlaungan Mulyanto","Jl Cipaku I 43","Jakarta Pusat","16393","93512022-11-302022-12-0260180"
"Muhammad Aksa Mahmud","Jl Raya Semarang-Purwodadi Km 17 Semarang","Kota Solo","15494","93782022-11-292022-12-02126286"
"Jenny Elisabeth RG","Jl P Tubagus Angke 11 K-L","Jakarta Barat","15906","94132022-11-302022-12-02115187"
"Darmo Suwito Barwin","Jl Jelambar Ilir 2","Jakarta Pusat","15353","95902022-11-302022-12-0273123"
"Darmo Suwito Barwin","Jl Jelambar Ilir 2","Jakarta Pusat","15353","96072022-11-292022-12-027320"
"Beng Phiau","Jl Baskara Sari 92","Kota Pasuruan","17038","96092022-11-302022-12-0234123"
"Execorp Limited","Jl Raden Saleh Ruko Metro Permata Bl A-2/33","Jakarta Pusat","15758","87762022-11-292022-12-0210744"
"Edy Kusnadi","Jl Depsos Raya 42 B RT 008/01","Jakarta Selatan","17100","103572022-12-012022-12-028343"
"Ananda Soewono","Jl Gorontalo 9","Jakarta Utara","16147","96602022-12-012022-12-0210125"
"Efrem Wardhana","Jl Salemba Raya Psr Kenari AKS 12","Jakarta Pusat","16239","103672022-12-012022-12-0288129"
"ELVIN TJANDRA","Jl Tebet Tmr Dalam 7-I/5","Jakarta Pusat","16610","102642022-12-012022-12-029367"
"Anak Agung Gde Agung","Jl Sisingamangaraja Km 5.5/10","Sumatera Utara","16555","108702022-12-012022-12-02929"
"Mugijanto Sugijono","Jl Dahlia Bl E/6 Kompl Tmn Modern","Jakarta Selatan","15432","104292022-12-012022-12-02124226"
"BENNY IRSJAD","Jl Dr Setiabudhi 315","Jakarta Selatan","15258","90772022-11-302022-12-023873"
"Emi Sukiati Lasimon","Jl Letjen Haryono MT Kav 62 Wisma Korindo","Jakarta Pusat","16450","101842022-12-012022-12-0296291"
"Isenta Hioe","Jl Mandiri 9","Jakarta Barat","17224","90992022-11-302022-12-0211442"
"Bobby Andhika","Jl Panti Asuhan 2","Jakarta Pusat","15502","87952022-11-302022-12-0254273"
"Andre Johannes Mamuaya","Jl Arjuna III/15","Jakarta Selatan","15636","98572022-12-012022-12-0220126"
"Darwin Silalahi","Jl Banyumanik Raya 77","Kota Solo","17056","106812022-12-012022-12-027695"
"Isenta Hioe","Jl Mandiri 9","Jakarta Barat","17224","89192022-11-292022-12-02114224"
"Beata Ida Hartono","Jl Tj Batu 21 J/11","Kota Pasuruan","16975","107322022-12-012022-12-0228276"
"Muhammad Alatas","Jl Psr Blauran Baru C/3","Kota Pasuruan","16687","102412022-12-012022-12-03127284"
"Johan Tandean","Jl Raya Kebayoran Lama Permata Kebayoran Plaza Bl A/12","Jakarta Barat","15719","102392022-12-022022-12-03120225"
"Bayu Prawitasari","Jl Rajawali 24","Sumatera Utara","16282","100302022-12-022022-12-0326317"
"Johan Arifkaja Adi Lesmana","Jl Kertanegara 4","Jakarta Barat","16588","99142022-12-022022-12-0311714"
"Darmo Suwito Barwin","Jl Jelambar Ilir 2","Jakarta Pusat","15353","91322022-11-302022-12-037341"
"Edy Kusnadi","Jl Depsos Raya 42 B RT 008/01","Jakarta Selatan","17100","102382022-12-022022-12-0383304"
"Benny Tjokrosapoetro","Jl Cideng Tmr 38","Jakarta Selatan","15744","98952022-12-012022-12-034174"
"Daswi Rayawang","Jl Sunan Giri 1 RT 012/15","Jakarta Pusat","17037","90572022-11-302022-12-0379316"
"BHAYANG SURYADIMADJA","Jl Gondangdia Lama 24","Jakarta Pusat","16116","99162022-12-022022-12-034671"
"Darwin Leo","Jl Cikini Raya 8","Jakarta Pusat","16509","98222022-12-012022-12-037518"
"Eka Sinto Kasih Tjia","Jl Sri Tanjung Pd Wage Indah F/17-19","Kota Pasuruan","15430","109302022-12-012022-12-0390308"
"Alwi Alatas","Jl Tanjung 2","Kota Solo","17087","88022022-11-302022-12-034203"
"Johan T. Gilbert","Jl Pluit Mas Raya VI A Bl G/9","Jakarta Barat","16577","89482022-11-302022-12-03119129"
"Christian Leuchtenberg","Jl Puri Agung Mal Puri Indah Unit IU/1 C","Jakarta Pusat","17209","108052022-12-022022-12-035811"
"Bayu Virgan Triyatno","Jl Kota Denpasarkpapan 29-31","Jakarta Selatan","15536","105022022-12-022022-12-032718"
"Beng Phiau","Jl Baskara Sari 92","Kota Pasuruan","17038","102202022-12-022022-12-0334141"
"Bernie Prajoga","Jl Casa 2","Kota Bandung","16858","107532022-12-022022-12-0344207"
"Alvin Gozali","Jl Kopo Ruko Kopo Permai Bl 6 AR/17","Kota Bandung","16263","93002022-11-302022-12-033310"
"Hiramsyah Sambudhy Thaib","Jl Tmn Apsari 9 C","Kota Pasuruan","15419","92992022-11-302022-12-0311123"
"Darmoseputro","Jl Asia Afrika Plaza Senayan","Jakarta Pusat","15472","103872022-12-022022-12-0374226"
"Jenny Elisabeth RG","Jl P Tubagus Angke 11 K-L","Jakarta Barat","15906","97812022-12-022022-12-03115129"
"Ance Anggraeny","Jl Garuda Dlm I Bl B/47","Kota Bandung","16576","103182022-12-012022-12-0311113"
"Danny Tjiu","Jl Tebet Brt I/2","Jakarta Pusat","16429","95152022-11-302022-12-036564"
"Elvira Pudjiwati","Jl Raya Pasar Minggu Bl B/12","Jakarta Pusat","16563","99982022-12-022022-12-0395194"
"Bernadette Ruth Irawati","Jl Rempoa Raya 45","Jakarta Selatan","16145","97852022-12-022022-12-0343146"
"Darminto Hartono","Jl Setiabudi 186","Kota Bandung","17151","100002022-12-012022-12-037262"
"Fabian Gelael","Jl Prof Surya Sumantri 16","Kota Bandung","16319","110402022-12-012022-12-031088"
"Muhammad Alatas","Jl Psr Blauran Baru C/3","Kota Pasuruan","16687","108562022-12-022022-12-0312762"
"Edy Kusnadi","Jl Depsos Raya 42 B RT 008/01","Jakarta Selatan","17100","108972022-12-022022-12-0383290"
"Darwin Soegiatto","Jl Industri XXIV 988-989","Kota Solo","15213","102452022-12-012022-12-0377227"
"Evi Yulisma Harahap","Jl Kerinci 19","Jakarta Pusat","16526","102072022-12-022022-12-0310453"
"Hioe Isenta","Jl Pekayon 4","Jakarta Barat","16966","96182022-11-302022-12-0310956"
"Johan Arifkaja Adi Lesmana","Jl Kertanegara 4","Jakarta Barat","16588","108082022-12-022022-12-03117246"
"Fabian Gelael","Jl Prof Surya Sumantri 16","Kota Bandung","16319","101652022-12-022022-12-0310854"
"Andang Bachtiar","Jl Kedoya Akasia V Bl B/6 RT 006/04","Jakarta Utara","15394","102942022-12-012022-12-0312289"
"Evert Jimmy Lengkong","Jl Jend Urip Sumohardjo 31 E","Jakarta Pusat","17061","103152022-12-012022-12-03101284"
"Bimo Pramudyo Soekarno","Jl Mutiara I 10","Jakarta Pusat","16667","106102022-12-022022-12-0447274"
"Alvin Gozali","Jl Kopo Ruko Kopo Permai Bl 6 AR/17","Kota Bandung","16263","109762022-12-032022-12-043140"
"Mugijanto Sugijono","Jl Dahlia Bl E/6 Kompl Tmn Modern","Jakarta Selatan","15432","100552022-12-012022-12-04124170"
"Muhammad Alatas","Jl Psr Blauran Baru C/3","Kota Pasuruan","16687","100172022-12-012022-12-04127215"
"BELLYANAWATY BUDIMAN","Jl Pangkalan","Jakarta Selatan","15508","107002022-12-032022-12-0432294"
"Hioe Isenta and Ivy Lianawati","Jl Raya Alternatif Cibubur 23","Jakarta Pusat","17067","97262022-12-022022-12-04110224"
"Andiko Ardi Purnomo","Jl Cipinang Cempedak II 14","Jakarta Selatan","16266","108102022-12-032022-12-0418284"
"Hioe Isenta","Jl Pekayon 4","Jakarta Barat","16966","99022022-12-022022-12-04109207"
"Johan T. Gilbert","Jl Pluit Mas Raya VI A Bl G/9","Jakarta Barat","16577","100232022-12-022022-12-04119232"
"Ananda Soewono","Jl Gorontalo 9","Jakarta Utara","16147","108682022-12-032022-12-041056"
"Ance Anggraeny","Jl Garuda Dlm I Bl B/47","Kota Bandung","16576","107122022-12-022022-12-0411227"
"Amalia Aristiningsih","Jl Gn Sahari 51/12 A","Jakarta Barat","16325","102422022-12-032022-12-04762"
"Fabian Gelael","Jl Prof Surya Sumantri 16","Kota Bandung","16319","110292022-12-032022-12-0410825"
"Darmo Suwito Barwin","Jl Jelambar Ilir 2","Jakarta Pusat","15353","108162022-12-022022-12-0473251"
"Bintoro Wong","Jl Talang Ujung 40 D","Jakarta Pusat","15341","107392022-12-012022-12-0450305"
"David Alexander Yuwono","Jl Dr Cipto 48 A","Kota Solo","15318","97292022-12-022022-12-048013"
"Bob Yanuar","Jl Percetakan Negara II 24","Jakarta Pusat","16675","98002022-12-022022-12-045383"
"Efrem Wardhana","Jl Salemba Raya Psr Kenari AKS 12","Jakarta Pusat","16239","98822022-12-012022-12-048827"
"Bob Yanuar","Jl Percetakan Negara II 24","Jakarta Pusat","16675","106132022-12-032022-12-045310"
"Bayu Irianto","Jl Soka 24","Kota Bandung","16999","100292022-12-032022-12-0425220"
"Muhammad Alatas","Jl Psr Blauran Baru C/3","Kota Pasuruan","16687","98752022-12-022022-12-04127242"
"Darmadi Karjanto Putro","Jl Pinangsia III/15","Jakarta Pusat","17167","96992022-12-012022-12-0468305"
"Muhammad Alatas","Jl Psr Blauran Baru C/3","Kota Pasuruan","16687","109132022-12-012022-12-04127174"
"Emily Stephana Djauhari","Jl Tabanas 22 Kompl Bank","Jakarta Pusat","17000","107982022-12-032022-12-0498270"
"Christiana Niowni","Jl Peta 62","Kota Bandung","17147","100642022-12-022022-12-0464297"
"Amalia","Jl Paseban 3 C","Jakarta Barat","16456","100152022-12-032022-12-046301"
"Amalia Aristiningsih","Jl Gn Sahari 51/12 A","Jakarta Barat","16325","109902022-12-012022-12-047317"
"Elvira Pudjiwati","Jl Raya Pasar Minggu Bl B/12","Jakarta Pusat","16563","109362022-12-022022-12-049556"
"Elvira Pudjiwati","Jl Raya Pasar Minggu Bl B/12","Jakarta Pusat","16563","100062022-12-022022-12-0495186"
"Daswi Rayawang","Jl Sunan Giri 1 RT 012/15","Jakarta Pusat","17037","105522022-12-012022-12-0479318"
"BENNY IRSJAD","Jl Dr Setiabudhi 315","Jakarta Selatan","15258","100392022-12-022022-12-0438230"
"Bayu Virgan Triyatno","Jl Kota Denpasarkpapan 29-31","Jakarta Selatan","15536","97642022-12-022022-12-0427247"
"Christian Parlaungan Mulyanto","Jl Cipaku I 43","Jakarta Pusat","16393","110872022-12-012022-12-0460289"
"Darwin Silalahi","Jl Banyumanik Raya 77","Kota Solo","17056","105762022-12-022022-12-0476127"
"BENNY IRSJAD","Jl Dr Setiabudhi 315","Jakarta Selatan","15258","102852022-12-022022-12-0438144"
"BHAYANG SURYADIMADJA","Jl Gondangdia Lama 24","Jakarta Pusat","16116","110392022-12-012022-12-0446186"
"Bayu Virgan Triyatno","Jl Kota Denpasarkpapan 29-31","Jakarta Selatan","15536","100472022-12-022022-12-0427189"
"Bengt Carl Gustav Thornberg","Jl Arteri Mangga Dua Raya Pus Perdag Psr Pagi Mangga Dua Bl B/132","Jakarta Selatan","16702","105082022-12-022022-12-043579"
"Andi Achmad Dara","Jl Sumagung III Kav Bulak K/5","Jakarta Utara","16681","102232022-12-042022-12-0514304"
"Beata Ida Hartono","Jl Tj Batu 21 J/11","Kota Pasuruan","16975","107992022-12-022022-12-052862"
"Basuiki Puspoputro","Jl Kb Jati C-14/54","Kota Bandung","17064","99612022-12-032022-12-05243"
"Andi Pravidia Saliman","Jl Angkasa Bl B-7/8","Jakarta Utara","15829","107262022-12-032022-12-0516312"
"Darmansjah Darsono","Jl Bantir 10 50651","Kota Solo","15323","107332022-12-042022-12-056923"
"Andiko Ardi Purnomo","Jl Cipinang Cempedak II 14","Jakarta Selatan","16266","99772022-12-042022-12-05188"
"Christian Parlaungan Mulyanto","Jl Cipaku I 43","Jakarta Pusat","16393","103642022-12-022022-12-0560284"
"Alvin Gozali","Jl Kopo Ruko Kopo Permai Bl 6 AR/17","Kota Bandung","16263","103862022-12-032022-12-053142"
"Andi Zainal A. Dulung","Jl Pagesangan IV 41","Kota Pasuruan","16529","102442022-12-042022-12-0517124"
"Benny Tenges","Jl Gn Rahayu 1 A","Kota Bandung","16993","96802022-12-022022-12-0540118"
"Hioe Isenta","Jl Pekayon 4","Jakarta Barat","16966","102282022-12-042022-12-05109262"
"Alwijaya Aw","Jl Laks L RE Martadinata 279","Jakarta Barat","16844","108002022-12-032022-12-0558"
"BELLYANAWATY BUDIMAN","Jl Pangkalan","Jakarta Selatan","15508","104402022-12-022022-12-05323"
"Muhammad Alatas","Jl Psr Blauran Baru C/3","Kota Pasuruan","16687","104422022-12-042022-12-05127306"
"Beatrice El","Jl Tambak Anakan 9","Kota Pasuruan","17022","97062022-12-042022-12-0529214"
"Christian Leuchtenberg","Jl Puri Agung Mal Puri Indah Unit IU/1 C","Jakarta Pusat","17209","101762022-12-022022-12-055819"
"Evie Raviana","Jl Tmn Duta Mas Bl B-4/2","Jakarta Pusat","15274","105182022-12-022022-12-05105305"
"Bobby Andhika","Jl Panti Asuhan 2","Jakarta Pusat","15502","97322022-12-022022-12-0554251"
"Isenta Hioe","Jl Mandiri 9","Jakarta Barat","17224","105542022-12-042022-12-05114288"
"Elvina Jonas Jahja","Jl Kayu Putih 7 A 8 Pulo Gadung","Jakarta Pusat","17050","101292022-12-022022-12-0594207"
"Muhammad Alatas","Jl Psr Blauran Baru C/3","Kota Pasuruan","16687","105562022-12-032022-12-05127207"
"David Kristian","Jl Gedeh 30-A","Sumatera Utara","15313","105572022-12-042022-12-0581290"
"Effendy Husin","Jl Ampera Raya Kav I/5 Ged Satmarindo Lt 2","Jakarta Pusat","16277","105592022-12-032022-12-058736"
"Beata Ida Hartono","Jl Tj Batu 21 J/11","Kota Pasuruan","16975","105632022-12-042022-12-052834"
"Bing Gondosubroto","Jl Prof Dr Latumeten 23","Jakarta Pusat","16339","110992022-12-032022-12-054999"
"Evie Raviana","Jl Tmn Duta Mas Bl B-4/2","Jakarta Pusat","15274","105712022-12-042022-12-0510514"
"Bayu Virgan Triyatno","Jl Kota Denpasarkpapan 29-31","Jakarta Selatan","15536","105942022-12-042022-12-0527302"
"Darmoseputro","Jl Asia Afrika Plaza Senayan","Jakarta Pusat","15472","102902022-12-042022-12-057452"
"Johan Soedibjo","Jl Probolinggo 5","Jakarta Barat","17273","97792022-12-032022-12-05118211"
"Bengt Carl Gustav Thornberg","Jl Arteri Mangga Dua Raya Pus Perdag Psr Pagi Mangga Dua Bl B/132","Jakarta Selatan","16702","100902022-12-032022-12-0535246"
"Daswi Rayawang","Jl Sunan Giri 1 RT 012/15","Jakarta Pusat","17037","97972022-12-032022-12-0579229"
"Ananda Soewono","Jl Gorontalo 9","Jakarta Utara","16147","110282022-12-042022-12-0510155"
"Andre Johannes Mamuaya","Jl Arjuna III/15","Jakarta Selatan","15636","110262022-12-032022-12-0520289"
"Christian Dieter Scholz","Jl Tmn Sari Raya 5 D","Jakarta Pusat","16817","98102022-12-042022-12-0557284"
"Bernadette Ruth Irawati","Jl Rempoa Raya 45","Jakarta Selatan","16145","106352022-12-032022-12-054355"
"Benny Tjokrosapoetro","Jl Cideng Tmr 38","Jakarta Selatan","15744","98172022-12-032022-12-0541219"
"Darminto","Jl Sukanagara 21","Kota Bandung","16297","100592022-12-032022-12-0571124"
"JENNY WIDJAJA","Jl Hayam Wuruk 120","Jakarta Barat","15841","106472022-12-032022-12-05116114"
"Bayu Prawitasari","Jl Rajawali 24","Sumatera Utara","16282","100482022-12-032022-12-0526227"
"Mugijanto Sugijono","Jl Dahlia Bl E/6 Kompl Tmn Modern","Jakarta Selatan","15432","100462022-12-022022-12-051249"
"Bob Yanuar","Jl Percetakan Negara II 24","Jakarta Pusat","16675","106782022-12-032022-12-0553251"
"Bob Yanuar","Jl RS Fatmawati 15 Golden Plaza Bl I/1-2","Jakarta Pusat","16250","109552022-12-042022-12-055227"
"Ewik Hendri","Jl Jawa V Bl C/24","Jakarta Pusat","16677","106862022-12-022022-12-05106238"
"Andi Pravidia Saliman","Jl Angkasa Bl B-7/8","Jakarta Utara","15829","103352022-12-022022-12-05165"
"Christanto Santoso","JL. Kesehatan No. 3","Kota Sorong","17104","109092022-12-022022-12-05566"
"Christian Sugiarto","Jl Cikini Raya 90 Hias Rias Plaza","Jakarta Pusat","15190","103212022-12-042022-12-0562195"
"Andre Sukendra Atmadja","Jl Laksda M Nazir 11 U","Jakarta Selatan","16483","98932022-12-022022-12-0522224"
"Emi Sukiati Lasimon","Jl Letjen Haryono MT Kav 62 Wisma Korindo","Jakarta Pusat","16450","108532022-12-042022-12-059687"
"Christian Dieter Scholz","Jl Tmn Sari Raya 5 D","Jakarta Pusat","16817","100122022-12-032022-12-0557162"
"Benjamin Wong Siong Yuit","Jl Kenyeri","Kota Denpasar","15743","108392022-12-032022-12-0537119"
"Bimo Pramudyo Soekarno","Jl Mutiara I 10","Jakarta Pusat","16667","108352022-12-042022-12-0547226"
"Andiko Ardi Purnomo","Jl Cipinang Cempedak II 14","Jakarta Selatan","16266","108302022-12-032022-12-0518186"
"Beng Phiau","Jl Baskara Sari 92","Kota Pasuruan","17038","99332022-12-042022-12-0534283"
"Christian Parlaungan Mulyanto","Jl Cipaku I 43","Jakarta Pusat","16393","107242022-12-032022-12-0560178"
"Bismarka Kurniawan","Jl Batu 1","Jakarta Pusat","16516","103662022-12-042022-12-0651120"
"Ananda Soewono","Jl Gorontalo 9","Jakarta Utara","16147","110972022-12-032022-12-0610190"
"Evie Raviana","Jl Tmn Duta Mas Bl B-4/2","Jakarta Pusat","15274","103452022-12-042022-12-06105149"
"Basuiki Puspoputro","Jl Kb Jati C-14/54","Kota Bandung","17064","110242022-12-052022-12-0624265"
"Andang Bachtiar","Jl Kedoya Akasia V Bl B/6 RT 006/04","Jakarta Utara","15394","106262022-12-032022-12-0612290"
"Emil Abeng","Jl Kutisari Raya 12","Kota Pasuruan","16049","107572022-12-032022-12-0697304"
"BENNY IRSJAD","Jl Dr Setiabudhi 315","Jakarta Selatan","15258","106402022-12-042022-12-063894"
"Benny Tenges","Jl Gn Rahayu 1 A","Kota Bandung","16993","100662022-12-042022-12-0640107"
"Christiana Halim","Jl Mampang Prapatan Raya 18","Jakarta Pusat","17224","99672022-12-032022-12-0663193"
"Darminto Hartono","Jl Setiabudi 186","Kota Bandung","17151","98202022-12-052022-12-0672123"
"Ance Anggraeny","Jl Garuda Dlm I Bl B/47","Kota Bandung","16576","106422022-12-052022-12-0611297"
"Darwin Leo","Jl Cikini Raya 8","Jakarta Pusat","16509","99932022-12-042022-12-0675213"
"Edy Kosasih","Jl Pd Kelapa Raya Bl BI-4 B-C RT 005/04 Pondok Kelapa","Jakarta Selatan","16647","106502022-12-032022-12-0682155"
"Belinda Natalia Tanoko","Jl Kutisari Raya 12","Kota Pasuruan","16899","101452022-12-052022-12-0631169"
"Emily Stephana Djauhari","Jl Tabanas 22 Kompl Bank","Jakarta Pusat","17000","105372022-12-032022-12-0698302"
"David Alexander Yuwono","Jl Dr Cipto 48 A","Kota Solo","15318","109872022-12-052022-12-0680310"
"Bobby Iman Satrio","Jl Kom L Yos Sudarso 27","Jakarta Pusat","15391","98402022-12-032022-12-0655174"
"Bob Yanuar","Jl Percetakan Negara II 24","Jakarta Pusat","16675","98412022-12-032022-12-065363"
"Muhammad Agus","Jl Balai Rakyat 3 RT 001/01","Jakarta Selatan","16710","97192022-12-032022-12-06125178"
"Andi Zainal A. Dulung","Jl Pagesangan IV 41","Kota Pasuruan","16529","108202022-12-032022-12-0617147"
"Andre S Prijono","12550 Workshop ","Jakarta Selatan","15339","106802022-12-042022-12-0621166"
"Emi Sukiati Lasimon","Jl Letjen Haryono MT Kav 62 Wisma Korindo","Jakarta Pusat","16450","98592022-12-052022-12-069665"
"Muhammad Agus","Jl Balai Rakyat 3 RT 001/01","Jakarta Selatan","16710","106882022-12-052022-12-06125120"
"Darwin Silalahi","Jl Banyumanik Raya 77","Kota Solo","17056","109292022-12-052022-12-0676284"
"Benny Tenges","Jl Gn Rahayu 1 A","Kota Bandung","16993","99622022-12-042022-12-0640123"
"Andre Sukendra Atmadja","Jl Laksda M Nazir 11 U","Jakarta Selatan","16483","104812022-12-032022-12-0622303"
"Andre Sukendra Atmadja","Jl Laksda M Nazir 11 U","Jakarta Selatan","16483","104722022-12-032022-12-0622103"
"Emil Abeng","Jl Kutisari Raya 12","Kota Pasuruan","16049","98732022-12-052022-12-069743"
"Darwin Soegiatto","Jl Industri XXIV 988-989","Kota Solo","15213","106942022-12-052022-12-0677316"
"Christian Nainggolan","Jl Raya Ciracas 4","Jakarta Pusat","15285","96932022-12-042022-12-0659124"
"Darwin Sutanto","Jl Cilincing Raya 43 A","Jakarta Pusat","17010","100262022-12-052022-12-067813"
"Betty Ang","Jl Kakap III 25","Jakarta Selatan","17260","102152022-12-042022-12-0645284"
"Beng Phiau","Jl Baskara Sari 92","Kota Pasuruan","17038","108842022-12-042022-12-0634123"
"Edy Kosasih","Jl Pd Kelapa Raya Bl BI-4 B-C RT 005/04 Pondok Kelapa","Jakarta Selatan","16647","102362022-12-032022-12-0682253"
"Beata Ida Hartono","Jl Tj Batu 21 J/11","Kota Pasuruan","16975","102472022-12-032022-12-0628123"
"Anak Agung Gde Agung","Jl Sisingamangaraja Km 5.5/10","Sumatera Utara","16555","98992022-12-032022-12-069196"
"Muddai Madang","Jl Nibung Raya 129","Sumatera Utara","16421","102592022-12-042022-12-06123293"
"Darminto","Jl Sukanagara 21","Kota Bandung","16297","102982022-12-052022-12-067199"
"Johanes Herkiamto","Jl Raya Kalimalang 1","Jakarta Selatan","16882","100192022-12-032022-12-06122137"
"Execorp Limited","Jl Raden Saleh Ruko Metro Permata Bl A-2/33","Jakarta Pusat","15758","108072022-12-042022-12-06107269"
"Benny Tenges","Jl Gn Rahayu 1 A","Kota Bandung","16993","105662022-12-042022-12-0640224"
"Amalia Aristiningsih","Jl Gn Sahari 51/12 A","Jakarta Barat","16325","107012022-12-032022-12-067187"
"Edy Suwarno","Jl Ciputat Raya 16","Jakarta Selatan","16820","110782022-12-042022-12-0685251"
"Benjamin Subrata","Jl Empu Sendok 30","Jakarta Selatan","16045","97682022-12-052022-12-06365"
"Elvira Pudjiwati","Jl Raya Pasar Minggu Bl B/12","Jakarta Pusat","16563","110702022-12-042022-12-0695294"
"Evert Jimmy Lengkong","Jl Jend Urip Sumohardjo 31 E","Jakarta Pusat","17061","101002022-12-042022-12-0610112"
"BEATRICE EL","Jl Kb Jeruk 10","Jakarta Selatan","17233","110672022-12-052022-12-0630289"
"Andi Pravidia Saliman","Jl Angkasa Bl B-7/8","Jakarta Utara","15829","105902022-12-032022-12-0616208"
"Johana Poedjokerto","Jl KH Zainul Arifin 35","Jakarta Selatan","15151","99472022-12-052022-12-06121189"
"Darwin Leo","Jl Cikini Raya 8","Jakarta Pusat","16509","106022022-12-042022-12-0675219"
"JENNY WIDJAJA","Jl Hayam Wuruk 120","Jakarta Barat","15841","105682022-12-052022-12-06116270"
"Johan Tandean","Jl Raya Kebayoran Lama Permata Kebayoran Plaza Bl A/12","Jakarta Barat","15719","97892022-12-032022-12-06120306"
"Christian Sugiarto","Jl Cikini Raya 90 Hias Rias Plaza","Jakarta Pusat","15190","100882022-12-032022-12-0662234"
"Benjamin Subrata","Jl Empu Sendok 30","Jakarta Selatan","16045","97932022-12-032022-12-0636285"
"Johana Poedjokerto","Jl KH Zainul Arifin 35","Jakarta Selatan","15151","108362022-12-032022-12-06121251"
"Andhika Anindyaguna Hermanto","Jl Iskandarsyah II 2 Pasaraya Blok M","Jakarta Utara","15174","101792022-12-062022-12-071364"
"Darmansjah Darsono","Jl Bantir 10 50651","Kota Solo","15323","105672022-12-052022-12-0769224"
"Darmadi Karjanto Putro","Jl Pinangsia III/15","Jakarta Pusat","17167","101072022-12-042022-12-076864"
"Hioe Isenta and Ivy Lianawati","Jl Raya Alternatif Cibubur 23","Jakarta Pusat","17067","109412022-12-042022-12-07110317"
"Christiana Halim","Jl Mampang Prapatan Raya 18","Jakarta Pusat","17224","110102022-12-042022-12-0763195"
"Muhammad Alatas","Jl Psr Blauran Baru C/3","Kota Pasuruan","16687","100352022-12-052022-12-07127123"
"Ewik Hendri","Jl Jawa V Bl C/24","Jakarta Pusat","16677","110072022-12-042022-12-07106243"
"Christian Nainggolan","Jl Raya Ciracas 4","Jakarta Pusat","15285","102112022-12-042022-12-0759123"
"Muhammad Aksa Mahmud","Jl Raya Semarang-Purwodadi Km 17 Semarang","Kota Solo","15494","109282022-12-052022-12-07126116"
"Edy Kusnadi","Jl Depsos Raya 42 B RT 008/01","Jakarta Selatan","17100","103142022-12-052022-12-078371"
"Benjamin Subrata","Jl Empu Sendok 30","Jakarta Selatan","16045","103432022-12-062022-12-0736298"
"Bob Yanuar","Jl Percetakan Negara II 24","Jakarta Pusat","16675","98192022-12-052022-12-0753140"
"Emil Abeng","Jl Kutisari Raya 12","Kota Pasuruan","16049","100092022-12-062022-12-0797217"
"Bernadette Ruth Irawati","Jl Rempoa Raya 45","Jakarta Selatan","16145","100072022-12-042022-12-0743303"
"BEATRICE EL","Jl Kb Jeruk 10","Jakarta Selatan","17233","100132022-12-052022-12-073051"
"Benjamin Subrata","Jl Empu Sendok 30","Jakarta Selatan","16045","110012022-12-042022-12-0736118"
"Bobby Iman Satrio","Jl Kom L Yos Sudarso 27","Jakarta Pusat","15391","109942022-12-062022-12-075518"
"Christanto Santoso","JL. Kesehatan No. 3","Kota Sorong","17104","101262022-12-042022-12-0756255"
"Execorp Limited","Jl Raden Saleh Ruko Metro Permata Bl A-2/33","Jakarta Pusat","15758","100602022-12-052022-12-0710788"
"Andang Bachtiar","Jl Kedoya Akasia V Bl B/6 RT 006/04","Jakarta Utara","15394","99032022-12-062022-12-071238"
"Andi Achmad Dara","Jl Sumagung III Kav Bulak K/5","Jakarta Utara","16681","107692022-12-042022-12-0714132"
"Muhammad Agus","Jl Balai Rakyat 3 RT 001/01","Jakarta Selatan","16710","104312022-12-062022-12-07125310"
"Hiswara Natawindjaja","Jl Raya Cakung Cilincing Gud Inkopal","Jakarta Barat","17159","108892022-12-062022-12-07112310"
"Edy Susanto","Jl Gaperta Ujung 58","Sumatera Utara","16887","109182022-12-062022-12-0784298"
"Darminto","Jl Sukanagara 21","Kota Bandung","16297","100852022-12-052022-12-0771112"
"Amaluddin Djambak","Jl Raya Kosambi 8","Jakarta Barat","15683","105832022-12-062022-12-078297"
"Benjamin Subrata","Jl Empu Sendok 30","Jakarta Selatan","16045","102862022-12-042022-12-0736183"
"Johan Tandean","Jl Raya Kebayoran Lama Permata Kebayoran Plaza Bl A/12","Jakarta Barat","15719","100542022-12-042022-12-07120308"
"Andi Pravidia Saliman","Jl Angkasa Bl B-7/8","Jakarta Utara","15829","99562022-12-052022-12-0716279"
"Eka Sinto Kasih Tjia","Jl Sri Tanjung Pd Wage Indah F/17-19","Kota Pasuruan","15430","101622022-12-042022-12-0790165"
"Beatrice El","Jl Tambak Anakan 9","Kota Pasuruan","17022","103192022-12-062022-12-072999"
"Muhammad Aksa Mahmud","Jl Raya Semarang-Purwodadi Km 17 Semarang","Kota Solo","15494","107252022-12-042022-12-07126296"
"JENNY WIDJAJA","Jl Hayam Wuruk 120","Jakarta Barat","15841","99092022-12-052022-12-07116289"
"Bengt Carl Gustav Thornberg","Jl Arteri Mangga Dua Raya Pus Perdag Psr Pagi Mangga Dua Bl B/132","Jakarta Selatan","16702","98612022-12-062022-12-073592"
"Evie Raviana","Jl Tmn Duta Mas Bl B-4/2","Jakarta Pusat","15274","97202022-12-052022-12-071053"
"Darmansjah Darsono","Jl Bantir 10 50651","Kota Solo","15323","98432022-12-052022-12-076918"
"Elsa Djauhari","Jl Ngagel Tirtosari 19","Kota Pasuruan","16072","107622022-12-042022-12-0792203"
"Allan Tjahja Tjao","Jl Denai 40","Sumatera Utara","15934","104672022-12-052022-12-071294"
"Eka Sinto Kasih Tjia","Jl Sri Tanjung Pd Wage Indah F/17-19","Kota Pasuruan","15430","110542022-12-062022-12-0790200"
"Benjamin Subrata","Jl Empu Sendok 30","Jakarta Selatan","16045","102812022-12-052022-12-0736142"
"Beny Haryanto","Jl Karbela Brt 9 RT 004/04","Jakarta Selatan","17216","102242022-12-062022-12-0742232"
"Evie Raviana","Jl Tmn Duta Mas Bl B-4/2","Jakarta Pusat","15274","104652022-12-062022-12-07105141"
"Darwin Soegiatto","Jl Industri XXIV 988-989","Kota Solo","15213","102012022-12-052022-12-0777113"
"Darwin Leo","Jl Cikini Raya 8","Jakarta Pusat","16509","109542022-12-052022-12-0775123"
"Bayu Irianto","Jl Soka 24","Kota Bandung","16999","97632022-12-042022-12-0725251"
"Evie Raviana","Jl Tmn Duta Mas Bl B-4/2","Jakarta Pusat","15274","99422022-12-052022-12-0710549"
"Anak Agung Gde Agung","Jl Sisingamangaraja Km 5.5/10","Sumatera Utara","16555","98532022-12-062022-12-089113"
"Muhammad Aksa Mahmud","Jl Raya Semarang-Purwodadi Km 17 Semarang","Kota Solo","15494","105042022-12-072022-12-08126169"
"Christian Sandy Rachmat","Jl Tmn Surya","Jakarta Pusat","15476","101722022-12-062022-12-0861225"
"Evi Wikarsa","Jl Dewi Sartika 357 C","Jakarta Pusat","15415","104992022-12-062022-12-0810384"
"Edy Kosasih","Jl Pd Kelapa Raya Bl BI-4 B-C RT 005/04 Pondok Kelapa","Jakarta Selatan","16647","96572022-12-072022-12-0882227"
"Basuiki Puspoputro","Jl Kb Jati C-14/54","Kota Bandung","17064","103552022-12-072022-12-082472"
"Andhika Anindyaguna Hermanto","Jl Iskandarsyah II 2 Pasaraya Blok M","Jakarta Utara","15174","97102022-12-052022-12-0813210"
"Johanes Herkiamto","Jl Raya Kalimalang 1","Jakarta Selatan","16882","108422022-12-052022-12-08122214"
"Johanes Herkiamto","Jl Raya Kalimalang 1","Jakarta Selatan","16882","96562022-12-072022-12-0812211"
"Bengt Carl Gustav Thornberg","Jl Arteri Mangga Dua Raya Pus Perdag Psr Pagi Mangga Dua Bl B/132","Jakarta Selatan","16702","107542022-12-052022-12-0835255"
"Amalia","Jl Paseban 3 C","Jakarta Barat","16456","99582022-12-062022-12-086312"
"Christiana Niowni","Jl Peta 62","Kota Bandung","17147","100912022-12-052022-12-0864276"
"Darminto","Jl Sukanagara 21","Kota Bandung","16297","109042022-12-062022-12-08713"
"Eiffel Tedja","Jl Kwitang Raya 8 Ged Senatama","Jakarta Pusat","16366","106952022-12-052022-12-088966"
"Christiana Halim","Jl Mampang Prapatan Raya 18","Jakarta Pusat","17224","97572022-12-062022-12-0863254"
"Bernadette Ruth Irawati","Jl Rempoa Raya 45","Jakarta Selatan","16145","110932022-12-062022-12-0843124"
"Benny Tjokrosapoetro","Jl Cideng Tmr 38","Jakarta Selatan","15744","100252022-12-062022-12-0841179"
"Darwin Soegiatto","Jl Industri XXIV 988-989","Kota Solo","15213","107752022-12-052022-12-087711"
"Bayu Prawitasari","Jl Rajawali 24","Sumatera Utara","16282","100242022-12-052022-12-0826113"
"Christanto Santoso","JL. Kesehatan No. 3","Kota Sorong","17104","100772022-12-062022-12-0856123"
"Johan Soedibjo","Jl Probolinggo 5","Jakarta Barat","17273","99882022-12-072022-12-0811882"
"Johana Poedjokerto","Jl KH Zainul Arifin 35","Jakarta Selatan","15151","110182022-12-072022-12-08121172"
"Christian Leuchtenberg","Jl Puri Agung Mal Puri Indah Unit IU/1 C","Jakarta Pusat","17209","110172022-12-052022-12-0858124"
"Ance Anggraeny","Jl Garuda Dlm I Bl B/47","Kota Bandung","16576","106122022-12-062022-12-0811209"
"Bob Yanuar","Jl Percetakan Negara II 24","Jakarta Pusat","16675","105642022-12-072022-12-0853229"
"Johan Tandean","Jl Raya Kebayoran Lama Permata Kebayoran Plaza Bl A/12","Jakarta Barat","15719","107312022-12-052022-12-08120260"
"Benjamin Wong Siong Yuit","Jl Kenyeri","Kota Denpasar","15743","110122022-12-052022-12-083778"
"Bayu Prawitasari","Jl Rajawali 24","Sumatera Utara","16282","108692022-12-062022-12-0826265"
"Edy Kusnadi","Jl Depsos Raya 42 B RT 008/01","Jakarta Selatan","17100","110632022-12-062022-12-0883178"
"Christian Leuchtenberg","Jl Puri Agung Mal Puri Indah Unit IU/1 C","Jakarta Pusat","17209","102482022-12-052022-12-0858282"
"Christian Dieter Scholz","Jl Tmn Sari Raya 5 D","Jakarta Pusat","16817","101212022-12-072022-12-085710"
"Darjoto Setyawan","Jl Stasiun 30 Kel Tanjung Gusta","Sumatera Utara","17130","103002022-12-062022-12-0867195"
"BELLYANAWATY BUDIMAN","Jl Pangkalan","Jakarta Selatan","15508","99342022-12-072022-12-0832208"
"Andre Johannes Mamuaya","Jl Arjuna III/15","Jakarta Selatan","15636","100822022-12-062022-12-0820256"
"Eiffel Tedja","Jl Kwitang Raya 8 Ged Senatama","Jakarta Pusat","16366","103752022-12-062022-12-0889226"
"Beny Haryanto","Jl Karbela Brt 9 RT 004/04","Jakarta Selatan","17216","103732022-12-062022-12-084294"
"Johan Soedibjo","Jl Probolinggo 5","Jakarta Barat","17273","105252022-12-052022-12-081188"
"Ance Anggraeny","Jl Garuda Dlm I Bl B/47","Kota Bandung","16576","106592022-12-072022-12-081183"
"Benjamin Subrata","Jl Empu Sendok 30","Jakarta Selatan","16045","101642022-12-062022-12-083621"
"ELVIN TJANDRA","Jl Tebet Tmr Dalam 7-I/5","Jakarta Pusat","16610","100012022-12-052022-12-0893122"
"Hioe Isenta","Jl Pekayon 4","Jakarta Barat","16966","99102022-12-052022-12-08109225"
"Execorp Limited","Jl Raden Saleh Ruko Metro Permata Bl A-2/33","Jakarta Pusat","15758","109682022-12-062022-12-08107122"
"Basuiki Puspoputro","Jl Kb Jati C-14/54","Kota Bandung","17064","103652022-12-062022-12-0824181"
"Benny Tjokrosapoetro","Jl Cideng Tmr 38","Jakarta Selatan","15744","105052022-12-052022-12-0841224"
"Muhammad Alatas","Jl Psr Blauran Baru C/3","Kota Pasuruan","16687","99392022-12-072022-12-08127232"
"Bayu Prawitasari","Jl Rajawali 24","Sumatera Utara","16282","109472022-12-062022-12-092688"
"BENNY IRSJAD","Jl Dr Setiabudhi 315","Jakarta Selatan","15258","103082022-12-082022-12-0938198"
"Johanes Herkiamto","Jl Raya Kalimalang 1","Jakarta Selatan","16882","96702022-12-072022-12-09122306"
"Aluinanto Sandjojo","Jl Inspeksi Saluran Kalimalang 9 A-B","Jakarta Pusat","16035","97442022-12-072022-12-092236"
"Isenta Hioe","Jl Mandiri 9","Jakarta Barat","17224","97452022-12-072022-12-09114262"
"BELLYANAWATY BUDIMAN","Jl Pangkalan","Jakarta Selatan","15508","110682022-12-062022-12-0932224"
"Benny Setiawan","Jl CiKota Denpasargo 225","Jakarta Selatan","16697","110582022-12-072022-12-0939280"
"Amalia","Jl Paseban 3 C","Jakarta Barat","16456","98032022-12-062022-12-096289"
"Amaluddin Djambak","Jl Raya Kosambi 8","Jakarta Barat","15683","98342022-12-062022-12-098250"
"Evi Hamdani","Jl Senen Raya Proy Senen Bl IV P-4/11","Jakarta Pusat","16417","98462022-12-072022-12-09102113"
"Muhammad Agus","Jl Balai Rakyat 3 RT 001/01","Jakarta Selatan","16710","109652022-12-072022-12-09125153"
"Darwin Soegiatto","Jl Industri XXIV 988-989","Kota Solo","15213","109382022-12-062022-12-0977237"
"Christian Dieter Scholz","Jl Tmn Sari Raya 5 D","Jakarta Pusat","16817","98682022-12-072022-12-095710"
"Christian Sandy Rachmat","Jl Tmn Surya","Jakarta Pusat","15476","98842022-12-082022-12-0961301"
"Ance Anggraeny","Jl Garuda Dlm I Bl B/47","Kota Bandung","16576","108902022-12-082022-12-0911307"
"Alvin Gozali","Jl Kopo Ruko Kopo Permai Bl 6 AR/17","Kota Bandung","16263","108772022-12-072022-12-09378"
"Darmoseputro","Jl Asia Afrika Plaza Senayan","Jakarta Pusat","15472","98982022-12-082022-12-097456"
"Christiana Halim","Jl Mampang Prapatan Raya 18","Jakarta Pusat","17224","108412022-12-082022-12-0963259"
"Isenta Hioe","Jl Mandiri 9","Jakarta Barat","17224","99252022-12-062022-12-091141"
"Anak Agung Gde Agung","Jl Sisingamangaraja Km 5.5/10","Sumatera Utara","16555","108272022-12-082022-12-09935"
"Christiana Halim","Jl Mampang Prapatan Raya 18","Jakarta Pusat","17224","108232022-12-082022-12-096341"
"Aluinanto Sandjojo","Jl Inspeksi Saluran Kalimalang 9 A-B","Jakarta Pusat","16035","99412022-12-072022-12-09286"
"Bimo Surono","Jl Lodan 23","Jakarta Pusat","16487","107612022-12-072022-12-094856"
"Ewik Hendri","Jl Jawa V Bl C/24","Jakarta Pusat","16677","99822022-12-082022-12-09106184"
"Basuiki Puspoputro","Jl Kb Jati C-14/54","Kota Bandung","17064","107142022-12-062022-12-0924208"
"Christian Dieter Scholz","Jl Tmn Sari Raya 5 D","Jakarta Pusat","16817","100042022-12-082022-12-095711"
"Elvina Jonas Jahja","Jl Kayu Putih 7 A 8 Pulo Gadung","Jakarta Pusat","17050","100412022-12-072022-12-099496"
"Daswi Rayawang","Jl Sunan Giri 1 RT 012/15","Jakarta Pusat","17037","100622022-12-062022-12-0979166"
"Edy Kosasih","Jl Pd Kelapa Raya Bl BI-4 B-C RT 005/04 Pondok Kelapa","Jakarta Selatan","16647","100802022-12-072022-12-098264"
"Bayu Irianto","Jl Soka 24","Kota Bandung","16999","105822022-12-082022-12-092512"
"Darmo Suwito Barwin","Jl Jelambar Ilir 2","Jakarta Pusat","15353","105622022-12-082022-12-097319"
"Jenny Elisabeth RG","Jl P Tubagus Angke 11 K-L","Jakarta Barat","15906","101332022-12-062022-12-0911518"
"Darminto","Jl Sukanagara 21","Kota Bandung","16297","105492022-12-082022-12-097150"
"Aluinanto Sandjojo","Jl Inspeksi Saluran Kalimalang 9 A-B","Jakarta Pusat","16035","105472022-12-082022-12-092150"
"Alwijaya Aw","Jl Laks L RE Martadinata 279","Jakarta Barat","16844","101442022-12-072022-12-095125"
"Christian Parlaungan Mulyanto","Jl Cipaku I 43","Jakarta Pusat","16393","101572022-12-082022-12-0960230"
"Belinda Natalia Tanoko","Jl Kutisari Raya 12","Kota Pasuruan","16899","101742022-12-062022-12-093151"
"Benny Tenges","Jl Gn Rahayu 1 A","Kota Bandung","16993","105012022-12-082022-12-0940240"
"Hioe Isenta and Ivy Lianawati","Jl Raya Alternatif Cibubur 23","Jakarta Pusat","17067","104962022-12-062022-12-09110185"
"Andreas Andikha Bunanta","Jl Mampang Prapatan Raya 106 Plaza Basmar","Jakarta Selatan","16591","104852022-12-082022-12-092324"
"Beatrice El","Jl Tambak Anakan 9","Kota Pasuruan","17022","104192022-12-072022-12-092972"
"Darmoseputro","Jl Asia Afrika Plaza Senayan","Jakarta Pusat","15472","102402022-12-082022-12-097464"
"Bayu Irianto","Jl Soka 24","Kota Bandung","16999","103932022-12-062022-12-0925129"
"Andreas Andikha Bunanta","Jl Mampang Prapatan Raya 106 Plaza Basmar","Jakarta Selatan","16591","102822022-12-082022-12-092399"
"Andre Abdi","Jl Mangga Besar XIII RT 12/02","Jakarta Selatan","15173","103472022-12-072022-12-0919282"
"Andi Zainal A. Dulung","Jl Pagesangan IV 41","Kota Pasuruan","16529","103462022-12-072022-12-0917125"
"Darminto","Jl Sukanagara 21","Kota Bandung","16297","99512022-12-092022-12-1071284"
"Beng Phiau","Jl Baskara Sari 92","Kota Pasuruan","17038","97042022-12-092022-12-1034129"
"Johanes Herkiamto","Jl Raya Kalimalang 1","Jakarta Selatan","16882","99052022-12-082022-12-10122150"
"Darwin Silalahi","Jl Banyumanik Raya 77","Kota Solo","17056","96962022-12-082022-12-1076204"
"Evi Hamdani","Jl Senen Raya Proy Senen Bl IV P-4/11","Jakarta Pusat","16417","107072022-12-092022-12-10102120"
"Irwan Hermanto","Jl Albaido I 29-30","Jakarta Barat","15246","106622022-12-092022-12-10113195"
"Hiramsyah Sambudhy Thaib","Jl Tmn Apsari 9 C","Kota Pasuruan","15419","105912022-12-082022-12-10111313"
"Andang Bachtiar","Jl Kedoya Akasia V Bl B/6 RT 006/04","Jakarta Utara","15394","106762022-12-082022-12-1012289"
"Evelyn Luciana Soeyapto","Jl Lodan Raya 1 Bl BE","Jakarta Pusat","15959","105922022-12-072022-12-10100233"
"Hiswara Natawindjaja","Jl Raya Cakung Cilincing Gud Inkopal","Jakarta Barat","17159","110592022-12-082022-12-1011210"
"Darmansjah Darsono","Jl Bantir 10 50651","Kota Solo","15323","105172022-12-082022-12-1069143"
"Darminto Hartono","Jl Setiabudi 186","Kota Bandung","17151","104122022-12-082022-12-1072279"
"Bismarka Kurniawan","Jl Batu 1","Jakarta Pusat","16516","103342022-12-072022-12-10511"
"Evelyn Luciana Soeyapto","Jl Lodan Raya 1 Bl BE","Jakarta Pusat","15959","108402022-12-072022-12-10100266"
"Andi Gunawan Wibowo","Jl H Dilun Raya 113 Kel Ulujami Kec Pesanggrahan","Jakarta Utara","16276","109102022-12-072022-12-101564"
"Bernie Prajoga","Jl Casa 2","Kota Bandung","16858","106042022-12-092022-12-1044114"
"Benjamin Subrata","Jl Empu Sendok 30","Jakarta Selatan","16045","110412022-12-072022-12-1036124"
"Benny Tjokrosapoetro","Jl Cideng Tmr 38","Jakarta Selatan","15744","96652022-12-072022-12-104194"
"Darwin Soegiatto","Jl Industri XXIV 988-989","Kota Solo","15213","105482022-12-072022-12-107710"
"Bayu Irianto","Jl Soka 24","Kota Bandung","16999","108222022-12-082022-12-1025127"
"Christian Sugiarto","Jl Cikini Raya 90 Hias Rias Plaza","Jakarta Pusat","15190","97912022-12-072022-12-1062238"
"Johan Tandean","Jl Raya Kebayoran Lama Permata Kebayoran Plaza Bl A/12","Jakarta Barat","15719","106412022-12-082022-12-1012090"
"Andang Bachtiar","Jl Kedoya Akasia V Bl B/6 RT 006/04","Jakarta Utara","15394","97942022-12-072022-12-1012239"
"Andi Pravidia Saliman","Jl Angkasa Bl B-7/8","Jakarta Utara","15829","100792022-12-092022-12-1016245"
"Darmo Suwito Barwin","Jl Jelambar Ilir 2","Jakarta Pusat","15353","109562022-12-092022-12-1073235"
"Evi Wikarsa","Jl Dewi Sartika 357 C","Jakarta Pusat","15415","110152022-12-082022-12-10103124"
"Darwin Sutanto","Jl Cilincing Raya 43 A","Jakarta Pusat","17010","102602022-12-082022-12-1078181"
"Andi Gunawan Wibowo","Jl H Dilun Raya 113 Kel Ulujami Kec Pesanggrahan","Jakarta Utara","16276","99912022-12-092022-12-1015227"
"Elvina Jonas Jahja","Jl Kayu Putih 7 A 8 Pulo Gadung","Jakarta Pusat","17050","102972022-12-092022-12-1094118"
"Christian Leuchtenberg","Jl Puri Agung Mal Puri Indah Unit IU/1 C","Jakarta Pusat","17209","99552022-12-082022-12-105843"
"Bing Gondosubroto","Jl Prof Dr Latumeten 23","Jakarta Pusat","16339","102262022-12-092022-12-1049267"
"Bob Yanuar","Jl Percetakan Negara II 24","Jakarta Pusat","16675","104412022-12-072022-12-105367"
"Andre S Prijono","12550 Workshop ","Jakarta Selatan","15339","102092022-12-082022-12-1021263"
"Efrem Wardhana","Jl Salemba Raya Psr Kenari AKS 12","Jakarta Pusat","16239","110952022-12-082022-12-108811"
"Hiswara Natawindjaja","Jl Raya Cakung Cilincing Gud Inkopal","Jakarta Barat","17159","105392022-12-092022-12-10112189"
"Bernadette Ruth Irawati","Jl Rempoa Raya 45","Jakarta Selatan","16145","96792022-12-072022-12-104315"
"Johan Arifkaja Adi Lesmana","Jl Kertanegara 4","Jakarta Barat","16588","110942022-12-092022-12-10117224"
"Andre Johannes Mamuaya","Jl Arjuna III/15","Jakarta Selatan","15636","97272022-12-092022-12-1020286"
"Christian Sugiarto","Jl Cikini Raya 90 Hias Rias Plaza","Jakarta Pusat","15190","99202022-12-082022-12-1162243"
"Bintoro Wong","Jl Talang Ujung 40 D","Jakarta Pusat","15341","106712022-12-102022-12-1150266"
"Dany Subrata","Jl Metro Permata Bl A-2/33","Jakarta Pusat","15640","96822022-12-092022-12-1166276"
"Elsa Djauhari","Jl Ngagel Tirtosari 19","Kota Pasuruan","16072","106632022-12-082022-12-1192251"
"Darminto Hartono","Jl Setiabudi 186","Kota Bandung","17151","105192022-12-082022-12-11728"
"Evie Raviana","Jl Tmn Duta Mas Bl B-4/2","Jakarta Pusat","15274","104272022-12-092022-12-111053"
"Bismarka Kurniawan","Jl Batu 1","Jakarta Pusat","16516","96882022-12-082022-12-1151292"
"Bayu Irianto","Jl Soka 24","Kota Bandung","16999","105092022-12-102022-12-1125154"
"Emily Waty Setiawan","Jl Lautze 87","Jakarta Pusat","17176","107062022-12-092022-12-119913"
"Elvina Jonas Jahja","Jl Kayu Putih 7 A 8 Pulo Gadung","Jakarta Pusat","17050","100052022-12-082022-12-1194277"
"Christian Dieter Scholz","Jl Tmn Sari Raya 5 D","Jakarta Pusat","16817","103302022-12-092022-12-1157230"
"Andhika Anindyaguna Hermanto","Jl Iskandarsyah II 2 Pasaraya Blok M","Jakarta Utara","15174","100502022-12-102022-12-1113241"
"Bismarka Kurniawan","Jl Batu 1","Jakarta Pusat","16516","104382022-12-102022-12-115114"
"Amalia Aristiningsih","Jl Gn Sahari 51/12 A","Jakarta Barat","16325","106582022-12-082022-12-117154"
"Christian Nainggolan","Jl Raya Ciracas 4","Jakarta Pusat","15285","103032022-12-102022-12-1159113"
"Hioe Isenta","Jl Pekayon 4","Jakarta Barat","16966","102022022-12-092022-12-11109275"
"Andreas Andikha Bunanta","Jl Mampang Prapatan Raya 106 Plaza Basmar","Jakarta Selatan","16591","104892022-12-092022-12-1123289"
"Muhammad Alatas","Jl Psr Blauran Baru C/3","Kota Pasuruan","16687","107772022-12-102022-12-11127314"
"Execorp Limited","Jl Raden Saleh Ruko Metro Permata Bl A-2/33","Jakarta Pusat","15758","102002022-12-102022-12-1110711"
"Hiramsyah Sambudhy Thaib","Jl Tmn Apsari 9 C","Kota Pasuruan","15419","97002022-12-082022-12-11111172"
"BENNY IRSJAD","Jl Dr Setiabudhi 315","Jakarta Selatan","15258","104712022-12-082022-12-113813"
"Johana Poedjokerto","Jl KH Zainul Arifin 35","Jakarta Selatan","15151","107562022-12-102022-12-1112188"
"Andre Abdi","Jl Mangga Besar XIII RT 12/02","Jakarta Selatan","15173","107512022-12-092022-12-1119223"
"Andi Achmad Dara","Jl Sumagung III Kav Bulak K/5","Jakarta Utara","16681","103622022-12-082022-12-111413"
"Eko Budianto","Jl Raden Saleh 1 B-D","Jakarta Pusat","16110","107432022-12-082022-12-1191274"
"Evelyn Luciana Soeyapto","Jl Lodan Raya 1 Bl BE","Jakarta Pusat","15959","98132022-12-092022-12-11100101"
"Ewik Hendri","Jl Jawa V Bl C/24","Jakarta Pusat","16677","108942022-12-082022-12-11106149"
"Allan Tjahja Tjao","Jl Denai 40","Sumatera Utara","15934","100752022-12-092022-12-111237"
"Bismarka Kurniawan","Jl Batu 1","Jakarta Pusat","16516","103712022-12-102022-12-1151310"
"Evelyn Luciana Soeyapto","Jl Lodan Raya 1 Bl BE","Jakarta Pusat","15959","110322022-12-092022-12-11100229"
"Andi Achmad Dara","Jl Sumagung III Kav Bulak K/5","Jakarta Utara","16681","106062022-12-092022-12-1114124"
"Benjamin Wong Siong Yuit","Jl Kenyeri","Kota Denpasar","15743","102652022-12-092022-12-1137125"
"Fabian Gelael","Jl Prof Surya Sumantri 16","Kota Bandung","16319","105972022-12-092022-12-11108276"
"Bernadette Ruth Irawati","Jl Rempoa Raya 45","Jakarta Selatan","16145","99232022-12-082022-12-114386"
"Darwin Silalahi","Jl Banyumanik Raya 77","Kota Solo","17056","97712022-12-102022-12-117658"
"Allan Tjahja Tjao","Jl Denai 40","Sumatera Utara","15934","97662022-12-102022-12-111159"
"Jenny Elisabeth RG","Jl P Tubagus Angke 11 K-L","Jakarta Barat","15906","105812022-12-082022-12-1111594"
"Beatrice El","Jl Tambak Anakan 9","Kota Pasuruan","17022","105782022-12-102022-12-112985"
"Bayu Irianto","Jl Soka 24","Kota Bandung","16999","106852022-12-092022-12-1125123"
"Darmawansjah Setiawan","Jl Raya Bekasi Km 25/95","Jakarta Pusat","16825","97552022-12-092022-12-1170249"
"BELLYANAWATY BUDIMAN","Jl Pangkalan","Jakarta Selatan","15508","106832022-12-092022-12-1132162"
"Edy Kosasih","Jl Pd Kelapa Raya Bl BI-4 B-C RT 005/04 Pondok Kelapa","Jakarta Selatan","16647","102582022-12-092022-12-118236"
"Hioe Isenta","Jl Pekayon 4","Jakarta Barat","16966","107162022-12-102022-12-11109305"
"Johan Tandean","Jl Raya Kebayoran Lama Permata Kebayoran Plaza Bl A/12","Jakarta Barat","15719","102572022-12-082022-12-1112059"
"Muhammad Aksa Mahmud","Jl Raya Semarang-Purwodadi Km 17 Semarang","Kota Solo","15494","97372022-12-082022-12-11126229"
"Darmadi Karjanto Putro","Jl Pinangsia III/15","Jakarta Pusat","17167","104052022-12-092022-12-116842"
"Darwin Soegiatto","Jl Industri XXIV 988-989","Kota Solo","15213","105512022-12-082022-12-1177113"
"Christian Nainggolan","Jl Raya Ciracas 4","Jakarta Pusat","15285","101382022-12-092022-12-1159300"
"Darmoseputro","Jl Asia Afrika Plaza Senayan","Jakarta Pusat","15472","103292022-12-102022-12-117414"
"Beng Phiau","Jl Baskara Sari 92","Kota Pasuruan","17038","109632022-12-082022-12-1134233"
"Beny Haryanto","Jl Karbela Brt 9 RT 004/04","Jakarta Selatan","17216","102912022-12-082022-12-114296"
"Irwan Hermanto","Jl Albaido I 29-30","Jakarta Barat","15246","101272022-12-092022-12-12113207"
"Muhammad Aksa Mahmud","Jl Raya Semarang-Purwodadi Km 17 Semarang","Kota Solo","15494","104662022-12-112022-12-1212658"
"Anak Agung Gde Agung","Jl Sisingamangaraja Km 5.5/10","Sumatera Utara","16555","104842022-12-112022-12-129241"
"Muhammad Agus","Jl Balai Rakyat 3 RT 001/01","Jakarta Selatan","16710","102742022-12-102022-12-12125118"
"Andre Sukendra Atmadja","Jl Laksda M Nazir 11 U","Jakarta Selatan","16483","102502022-12-102022-12-122266"
"Andre S Prijono","12550 Workshop ","Jakarta Selatan","15339","110842022-12-102022-12-1221210"
"Johan Arifkaja Adi Lesmana","Jl Kertanegara 4","Jakarta Barat","16588","103272022-12-112022-12-12117121"
"Bayu Virgan Triyatno","Jl Kota Denpasarkpapan 29-31","Jakarta Selatan","15536","105232022-12-092022-12-122784"
"Christiana Niowni","Jl Peta 62","Kota Bandung","17147","105422022-12-102022-12-1264114"
"Andre Johannes Mamuaya","Jl Arjuna III/15","Jakarta Selatan","15636","104862022-12-102022-12-122086"
"Irwan Hermanto","Jl Albaido I 29-30","Jakarta Barat","15246","110902022-12-092022-12-12113289"
"Amalia","Jl Paseban 3 C","Jakarta Barat","16456","105722022-12-112022-12-12627"
"Daswi Rayawang","Jl Sunan Giri 1 RT 012/15","Jakarta Pusat","17037","102962022-12-102022-12-1279170"
"Bimo Pramudyo Soekarno","Jl Mutiara I 10","Jakarta Pusat","16667","102802022-12-112022-12-1247264"
"Andiko Ardi Purnomo","Jl Cipinang Cempedak II 14","Jakarta Selatan","16266","105302022-12-092022-12-1218186"
"Evi Yulisma Harahap","Jl Kerinci 19","Jakarta Pusat","16526","97312022-12-102022-12-121048"
"Amalia Aristiningsih","Jl Gn Sahari 51/12 A","Jakarta Barat","16325","102042022-12-112022-12-12756"
"Beata Ida Hartono","Jl Tj Batu 21 J/11","Kota Pasuruan","16975","104522022-12-112022-12-1228116"
"Ance Anggraeny","Jl Garuda Dlm I Bl B/47","Kota Bandung","16576","97522022-12-112022-12-121147"
"Ewik Hendri","Jl Jawa V Bl C/24","Jakarta Pusat","16677","99112022-12-112022-12-12106252"
"Efendi Boedhiman","Jl Pejaten Brt 10 A","Jakarta Selatan","16965","107082022-12-092022-12-128633"
"JENNY WIDJAJA","Jl Hayam Wuruk 120","Jakarta Barat","15841","104212022-12-102022-12-121166"
"Benjamin Subrata","Jl Empu Sendok 30","Jakarta Selatan","16045","98082022-12-102022-12-123610"
"Andi Gunawan Wibowo","Jl H Dilun Raya 113 Kel Ulujami Kec Pesanggrahan","Jakarta Utara","16276","98072022-12-102022-12-1215241"
"Darmoseputro","Jl Asia Afrika Plaza Senayan","Jakarta Pusat","15472","96772022-12-092022-12-1274138"
"Elsa Djauhari","Jl Ngagel Tirtosari 19","Kota Pasuruan","16072","100082022-12-102022-12-1292153"
"Bob Yanuar","Jl RS Fatmawati 15 Golden Plaza Bl I/1-2","Jakarta Pusat","16250","98022022-12-112022-12-1252141"
"Beny Haryanto","Jl Karbela Brt 9 RT 004/04","Jakarta Selatan","17216","99462022-12-102022-12-1242285"
"Andi Pravidia Saliman","Jl Angkasa Bl B-7/8","Jakarta Utara","15829","100022022-12-092022-12-121644"
"Dany Subrata","Jl Metro Permata Bl A-2/33","Jakarta Pusat","15640","101422022-12-092022-12-1266131"
"Muhammad Agus","Jl Balai Rakyat 3 RT 001/01","Jakarta Selatan","16710","100812022-12-102022-12-1212567"
"Andre Johannes Mamuaya","Jl Arjuna III/15","Jakarta Selatan","15636","99372022-12-112022-12-12207"
"Basuiki Puspoputro","Jl Kb Jati C-14/54","Kota Bandung","17064","106092022-12-112022-12-1224210"
"Bismarka Kurniawan","Jl Batu 1","Jakarta Pusat","16516","102792022-12-092022-12-125167"
"Johanes Herkiamto","Jl Raya Kalimalang 1","Jakarta Selatan","16882","96892022-12-092022-12-1212260"
"Darjoto Setyawan","Jl Stasiun 30 Kel Tanjung Gusta","Sumatera Utara","17130","100872022-12-112022-12-126770"
"Darmo Suwito Barwin","Jl Jelambar Ilir 2","Jakarta Pusat","15353","106992022-12-112022-12-1273225"
"Amaluddin Djambak","Jl Raya Kosambi 8","Jakarta Barat","15683","98252022-12-092022-12-128276"
"Darwin Soegiatto","Jl Industri XXIV 988-989","Kota Solo","15213","98792022-12-092022-12-1277229"
"David Alexander Yuwono","Jl Dr Cipto 48 A","Kota Solo","15318","98262022-12-112022-12-1280245"
"Darmansjah Darsono","Jl Bantir 10 50651","Kota Solo","15323","98272022-12-112022-12-1269267"
"Christiana Niowni","Jl Peta 62","Kota Bandung","17147","102562022-12-102022-12-1264227"
"Efrem Wardhana","Jl Salemba Raya Psr Kenari AKS 12","Jakarta Pusat","16239","108592022-12-102022-12-1288233"
"Christian Sandy Rachmat","Jl Tmn Surya","Jakarta Pusat","15476","103322022-12-102022-12-1261156"
"Hioe Isenta and Ivy Lianawati","Jl Raya Alternatif Cibubur 23","Jakarta Pusat","17067","109922022-12-092022-12-1211070"
"Alwi Alatas","Jl Tanjung 2","Kota Solo","17087","111392022-12-122022-12-134249"
"Ben Morice","Jl Kembang Indah Utama Bl J-2 A/16-17","Jakarta Selatan","15951","108262022-12-102022-12-133352"
"Benjamin Subrata","Jl Empu Sendok 30","Jakarta Selatan","16045","108492022-12-112022-12-1336303"
"Isenta Hioe","Jl Mandiri 9","Jakarta Barat","17224","108632022-12-102022-12-13114292"
"Belinda Natalia Tanoko","Jl Kutisari Raya 12","Kota Pasuruan","16899","108962022-12-102022-12-133122"
"BELLYANAWATY BUDIMAN","Jl Pangkalan","Jakarta Selatan","15508","109242022-12-102022-12-133254"
"Bob Yanuar","Jl Percetakan Negara II 24","Jakarta Pusat","16675","109332022-12-102022-12-135345"
"Andang Bachtiar","Jl Kedoya Akasia V Bl B/6 RT 006/04","Jakarta Utara","15394","109512022-12-122022-12-1312186"
"Christiana Niowni","Jl Peta 62","Kota Bandung","17147","111672022-12-122022-12-1364268"
"Amaluddin Djambak","Jl Raya Kosambi 8","Jakarta Barat","15683","109742022-12-112022-12-138247"
"Ance Anggraeny","Jl Garuda Dlm I Bl B/47","Kota Bandung","16576","98422022-12-112022-12-1311174"
"Betty Ang","Jl Kakap III 25","Jakarta Selatan","17260","109752022-12-122022-12-1345269"
"Andre Abdi","Jl Mangga Besar XIII RT 12/02","Jakarta Selatan","15173","109772022-12-122022-12-131910"
"Hioe Isenta","Jl Pekayon 4","Jakarta Barat","16966","100532022-12-122022-12-1310994"
"Elvina Jonas Jahja","Jl Kayu Putih 7 A 8 Pulo Gadung","Jakarta Pusat","17050","98282022-12-102022-12-1394217"
"Emily Waty Setiawan","Jl Lautze 87","Jakarta Pusat","17176","110042022-12-122022-12-1399258"
"Bernadette Ruth Irawati","Jl Rempoa Raya 45","Jakarta Selatan","16145","110052022-12-122022-12-1343122"
"Darwin Soegiatto","Jl Industri XXIV 988-989","Kota Solo","15213","98152022-12-112022-12-1377205"
"Hiramsyah Sambudhy Thaib","Jl Tmn Apsari 9 C","Kota Pasuruan","15419","106222022-12-112022-12-13111129"
"Andre Abdi","Jl Mangga Besar XIII RT 12/02","Jakarta Selatan","15173","106202022-12-122022-12-131918"
"Christanto Santoso","JL. Kesehatan No. 3","Kota Sorong","17104","106112022-12-102022-12-1356110"
"Amaluddin Djambak","Jl Raya Kosambi 8","Jakarta Barat","15683","110302022-12-102022-12-13884"
"Andiko Ardi Purnomo","Jl Cipinang Cempedak II 14","Jakarta Selatan","16266","110362022-12-112022-12-1318289"
"Edy Suwarno","Jl Ciputat Raya 16","Jakarta Selatan","16820","105992022-12-122022-12-1385292"
"Hioe Isenta and Ivy Lianawati","Jl Raya Alternatif Cibubur 23","Jakarta Pusat","17067","110652022-12-112022-12-13110276"
"Beatrice El","Jl Tambak Anakan 9","Kota Pasuruan","17022","110892022-12-112022-12-1329277"
"Darmawansjah Setiawan","Jl Raya Bekasi Km 25/95","Jakarta Pusat","16825","101122022-12-112022-12-1370243"
"Andi Zainal A. Dulung","Jl Pagesangan IV 41","Kota Pasuruan","16529","101132022-12-112022-12-13176"
"Evi Yulisma Harahap","Jl Kerinci 19","Jakarta Pusat","16526","105702022-12-112022-12-1310472"
"Muhammad Alatas","Jl Psr Blauran Baru C/3","Kota Pasuruan","16687","111012022-12-122022-12-13127170"
"Ewik Hendri","Jl Jawa V Bl C/24","Jakarta Pusat","16677","111032022-12-122022-12-13106270"
"Efendi Boedhiman","Jl Pejaten Brt 10 A","Jakarta Selatan","16965","97402022-12-122022-12-1386141"
"Beata Ida Hartono","Jl Tj Batu 21 J/11","Kota Pasuruan","16975","101312022-12-122022-12-1328291"
"Hioe Isenta","Jl Pekayon 4","Jakarta Barat","16966","101352022-12-112022-12-1310919"
"Emily Stephana Djauhari","Jl Tabanas 22 Kompl Bank","Jakarta Pusat","17000","102932022-12-112022-12-1398200"
"Edy Susanto","Jl Gaperta Ujung 58","Sumatera Utara","16887","111082022-12-122022-12-1384295"
"Johan T. Gilbert","Jl Pluit Mas Raya VI A Bl G/9","Jakarta Barat","16577","105402022-12-122022-12-1311966"
"David Alexander Yuwono","Jl Dr Cipto 48 A","Kota Solo","15318","111092022-12-122022-12-1380309"
"Execorp Limited","Jl Raden Saleh Ruko Metro Permata Bl A-2/33","Jakarta Pusat","15758","105212022-12-122022-12-1310738"
"Hioe Isenta","Jl Pekayon 4","Jakarta Barat","16966","111112022-12-122022-12-1310977"
"Edy Kusnadi","Jl Depsos Raya 42 B RT 008/01","Jakarta Selatan","17100","111142022-12-122022-12-1383131"
"Allan Tjahja Tjao","Jl Denai 40","Sumatera Utara","15934","111182022-12-122022-12-131249"
"Christian Parlaungan Mulyanto","Jl Cipaku I 43","Jakarta Pusat","16393","111212022-12-122022-12-1360239"
"Andang Bachtiar","Jl Kedoya Akasia V Bl B/6 RT 006/04","Jakarta Utara","15394","111222022-12-122022-12-131276"
"Andi Pravidia Saliman","Jl Angkasa Bl B-7/8","Jakarta Utara","15829","103042022-12-122022-12-1316124"
"Darmoseputro","Jl Asia Afrika Plaza Senayan","Jakarta Pusat","15472","111232022-12-122022-12-1374114"
"Andre Sukendra Atmadja","Jl Laksda M Nazir 11 U","Jakarta Selatan","16483","111262022-12-122022-12-1322300"
"Execorp Limited","Jl Raden Saleh Ruko Metro Permata Bl A-2/33","Jakarta Pusat","15758","111272022-12-122022-12-1310722"
"Elvina Jonas Jahja","Jl Kayu Putih 7 A 8 Pulo Gadung","Jakarta Pusat","17050","102892022-12-122022-12-139474"
"Bayu Prawitasari","Jl Rajawali 24","Sumatera Utara","16282","101942022-12-122022-12-1326107"
"Amalia Aristiningsih","Jl Gn Sahari 51/12 A","Jakarta Barat","16325","96982022-12-112022-12-137218"
"Bismarka Kurniawan","Jl Batu 1","Jakarta Pusat","16516","111322022-12-122022-12-1351232"
"Andi Pravidia Saliman","Jl Angkasa Bl B-7/8","Jakarta Utara","15829","111342022-12-122022-12-1316209"
"Andang Bachtiar","Jl Kedoya Akasia V Bl B/6 RT 006/04","Jakarta Utara","15394","111402022-12-122022-12-1312158"
"Execorp Limited","Jl Raden Saleh Ruko Metro Permata Bl A-2/33","Jakarta Pusat","15758","102272022-12-122022-12-1310717"
"Evelyn Luciana Soeyapto","Jl Lodan Raya 1 Bl BE","Jakarta Pusat","15959","104182022-12-112022-12-13100178"
"Christanto Santoso","JL. Kesehatan No. 3","Kota Sorong","17104","104112022-12-102022-12-1356224"
"Bimo Pramudyo Soekarno","Jl Mutiara I 10","Jakarta Pusat","16667","111482022-12-122022-12-1347144"
"Andre S Prijono","12550 Workshop ","Jakarta Selatan","15339","104032022-12-122022-12-132181"
"Edy Suwarno","Jl Ciputat Raya 16","Jakarta Selatan","16820","111542022-12-122022-12-138573"
"Fabian Gelael","Jl Prof Surya Sumantri 16","Kota Bandung","16319","103992022-12-122022-12-13108250"
"Anak Agung Gde Agung","Jl Sisingamangaraja Km 5.5/10","Sumatera Utara","16555","103972022-12-112022-12-1398"
"JENNY WIDJAJA","Jl Hayam Wuruk 120","Jakarta Barat","15841","107382022-12-112022-12-13116295"
"Andre Johannes Mamuaya","Jl Arjuna III/15","Jakarta Selatan","15636","111652022-12-122022-12-1320227"
"Amalia","Jl Paseban 3 C","Jakarta Barat","16456","99642022-12-112022-12-136124"
"Amalia Aristiningsih","Jl Gn Sahari 51/12 A","Jakarta Barat","16325","99952022-12-122022-12-1378"
"Christiana Halim","Jl Mampang Prapatan Raya 18","Jakarta Pusat","17224","98352022-12-132022-12-1463281"
"Andang Bachtiar","Jl Kedoya Akasia V Bl B/6 RT 006/04","Jakarta Utara","15394","101772022-12-112022-12-141279"
"Bimo Pramudyo Soekarno","Jl Mutiara I 10","Jakarta Pusat","16667","111132022-12-122022-12-1447184"
"Bengt Carl Gustav Thornberg","Jl Arteri Mangga Dua Raya Pus Perdag Psr Pagi Mangga Dua Bl B/132","Jakarta Selatan","16702","105162022-12-112022-12-143596"
"BENNY IRSJAD","Jl Dr Setiabudhi 315","Jakarta Selatan","15258","111352022-12-122022-12-1438289"
"Eiffel Tedja","Jl Kwitang Raya 8 Ged Senatama","Jakarta Pusat","16366","111122022-12-122022-12-148935"
"Emily Waty Setiawan","Jl Lautze 87","Jakarta Pusat","17176","111382022-12-122022-12-1499130"
"Darmoseputro","Jl Asia Afrika Plaza Senayan","Jakarta Pusat","15472","111102022-12-122022-12-147439"
"Ewik Hendri","Jl Jawa V Bl C/24","Jakarta Pusat","16677","100512022-12-112022-12-14106284"
"Andhika Anindyaguna Hermanto","Jl Iskandarsyah II 2 Pasaraya Blok M","Jakarta Utara","15174","104262022-12-132022-12-1413191"
"Danny Tjiu","Jl Tebet Brt I/2","Jakarta Pusat","16429","101582022-12-132022-12-1465315"
"Andre Abdi","Jl Mangga Besar XIII RT 12/02","Jakarta Selatan","15173","98542022-12-132022-12-1419292"
"Ance Anggraeny","Jl Garuda Dlm I Bl B/47","Kota Bandung","16576","111422022-12-122022-12-141149"
"Andi Achmad Dara","Jl Sumagung III Kav Bulak K/5","Jakarta Utara","16681","102292022-12-112022-12-1414113"
"Emily Stephana Djauhari","Jl Tabanas 22 Kompl Bank","Jakarta Pusat","17000","101532022-12-112022-12-149821"
"Darmoseputro","Jl Asia Afrika Plaza Senayan","Jakarta Pusat","15472","103312022-12-112022-12-1474274"
"Christian Parlaungan Mulyanto","Jl Cipaku I 43","Jakarta Pusat","16393","100372022-12-132022-12-14607"
"Darmoseputro","Jl Asia Afrika Plaza Senayan","Jakarta Pusat","15472","105312022-12-112022-12-147428"
"Darwin Sutanto","Jl Cilincing Raya 43 A","Jakarta Pusat","17010","108032022-12-112022-12-1478222"
"Ance Anggraeny","Jl Garuda Dlm I Bl B/47","Kota Bandung","16576","105362022-12-122022-12-141172"
"Ance Anggraeny","Jl Garuda Dlm I Bl B/47","Kota Bandung","16576","104092022-12-112022-12-1411251"
"Hiswara Natawindjaja","Jl Raya Cakung Cilincing Gud Inkopal","Jakarta Barat","17159","111462022-12-122022-12-14112287"
"Alwijaya Aw","Jl Laks L RE Martadinata 279","Jakarta Barat","16844","101462022-12-122022-12-145272"
"Evie Raviana","Jl Tmn Duta Mas Bl B-4/2","Jakarta Pusat","15274","105432022-12-132022-12-14105292"
"Bob Yanuar","Jl Percetakan Negara II 24","Jakarta Pusat","16675","109492022-12-112022-12-1453314"
"Darwin Sutanto","Jl Cilincing Raya 43 A","Jakarta Pusat","17010","105502022-12-112022-12-1478120"
"Ben Morice","Jl Kembang Indah Utama Bl J-2 A/16-17","Jakarta Selatan","15951","111072022-12-122022-12-1433157"
"Christiana Niowni","Jl Peta 62","Kota Bandung","17147","111502022-12-122022-12-1464162"
"Muddai Madang","Jl Nibung Raya 129","Sumatera Utara","16421","111522022-12-122022-12-14123151"
"Darmawansjah Setiawan","Jl Raya Bekasi Km 25/95","Jakarta Pusat","16825","108382022-12-122022-12-1470204"
"Darminto","Jl Sukanagara 21","Kota Bandung","16297","111532022-12-122022-12-1471171"
"Evelyn Luciana Soeyapto","Jl Lodan Raya 1 Bl BE","Jakarta Pusat","15959","111662022-12-122022-12-14100123"
"Andiko Ardi Purnomo","Jl Cipinang Cempedak II 14","Jakarta Selatan","16266","99492022-12-112022-12-1418247"
"Ananda Soewono","Jl Gorontalo 9","Jakarta Utara","16147","111062022-12-122022-12-1410280"
"Andre Sukendra Atmadja","Jl Laksda M Nazir 11 U","Jakarta Selatan","16483","103982022-12-112022-12-1422199"
"Johan Soedibjo","Jl Probolinggo 5","Jakarta Barat","17273","98802022-12-112022-12-14118281"
"Darjoto Setyawan","Jl Stasiun 30 Kel Tanjung Gusta","Sumatera Utara","17130","111052022-12-122022-12-1467132"
"Darwin Soegiatto","Jl Industri XXIV 988-989","Kota Solo","15213","111572022-12-122022-12-1477276"
"Bayu Irianto","Jl Soka 24","Kota Bandung","16999","111042022-12-122022-12-1425108"
"Benny Tjokrosapoetro","Jl Cideng Tmr 38","Jakarta Selatan","15744","111022022-12-122022-12-144151"
"Bismarka Kurniawan","Jl Batu 1","Jakarta Pusat","16516","97502022-12-122022-12-1451225"
"Christian Nainggolan","Jl Raya Ciracas 4","Jakarta Pusat","15285","111582022-12-122022-12-1459272"
"Christian Parlaungan Mulyanto","Jl Cipaku I 43","Jakarta Pusat","16393","105652022-12-132022-12-1460297"
"Aluinanto Sandjojo","Jl Inspeksi Saluran Kalimalang 9 A-B","Jakarta Pusat","16035","111592022-12-122022-12-142247"
"Benny Tjokrosapoetro","Jl Cideng Tmr 38","Jakarta Selatan","15744","103822022-12-132022-12-144168"
"Darwin Silalahi","Jl Banyumanik Raya 77","Kota Solo","17056","103772022-12-122022-12-1476246"
"Benny Setiawan","Jl CiKota Denpasargo 225","Jakarta Selatan","16697","111602022-12-122022-12-1439145"
"Andi Zainal A. Dulung","Jl Pagesangan IV 41","Kota Pasuruan","16529","110562022-12-112022-12-1417283"
"Bintoro Wong","Jl Talang Ujung 40 D","Jakarta Pusat","15341","111612022-12-122022-12-14508"
"Fabian Gelael","Jl Prof Surya Sumantri 16","Kota Bandung","16319","106052022-12-132022-12-14108246"
"Elsa Djauhari","Jl Ngagel Tirtosari 19","Kota Pasuruan","16072","96552022-12-132022-12-1492118"
"ELVIN TJANDRA","Jl Tebet Tmr Dalam 7-I/5","Jakarta Pusat","16610","111622022-12-122022-12-1493226"
"Andi Pravidia Saliman","Jl Angkasa Bl B-7/8","Jakarta Utara","15829","111632022-12-122022-12-1416242"
"Bayu Prawitasari","Jl Rajawali 24","Sumatera Utara","16282","98212022-12-132022-12-1426224"
"Emily Stephana Djauhari","Jl Tabanas 22 Kompl Bank","Jakarta Pusat","17000","107482022-12-112022-12-1498119"
"Andiko Ardi Purnomo","Jl Cipinang Cempedak II 14","Jakarta Selatan","16266","108862022-12-122022-12-1418134"
"Elvina Jonas Jahja","Jl Kayu Putih 7 A 8 Pulo Gadung","Jakarta Pusat","17050","107502022-12-122022-12-1494133"
"BELLYANAWATY BUDIMAN","Jl Pangkalan","Jakarta Selatan","15508","106482022-12-132022-12-1432184"
"Christiana Halim","Jl Mampang Prapatan Raya 18","Jakarta Pusat","17224","106972022-12-112022-12-1463280"
"Ance Anggraeny","Jl Garuda Dlm I Bl B/47","Kota Bandung","16576","109932022-12-132022-12-141172"
"Ance Anggraeny","Jl Garuda Dlm I Bl B/47","Kota Bandung","16576","101952022-12-132022-12-141171"
"Benny Setiawan","Jl CiKota Denpasargo 225","Jakarta Selatan","16697","111292022-12-122022-12-1439134"
"Darmoseputro","Jl Asia Afrika Plaza Senayan","Jakarta Pusat","15472","99842022-12-132022-12-1474113"
"Bismarka Kurniawan","Jl Batu 1","Jakarta Pusat","16516","111282022-12-122022-12-1451227"
"Ben Morice","Jl Kembang Indah Utama Bl J-2 A/16-17","Jakarta Selatan","15951","101882022-12-122022-12-143342"
"Andi Achmad Dara","Jl Sumagung III Kav Bulak K/5","Jakarta Utara","16681","97052022-12-112022-12-1414159"
"Andi Pravidia Saliman","Jl Angkasa Bl B-7/8","Jakarta Utara","15829","104562022-12-132022-12-141637"
"Elsa Djauhari","Jl Ngagel Tirtosari 19","Kota Pasuruan","16072","104922022-12-132022-12-149276"
"Muhammad Agus","Jl Balai Rakyat 3 RT 001/01","Jakarta Selatan","16710","104532022-12-112022-12-14125131"
"Johan T. Gilbert","Jl Pluit Mas Raya VI A Bl G/9","Jakarta Barat","16577","104982022-12-122022-12-14119219"
"Bob Yanuar","Jl Percetakan Negara II 24","Jakarta Pusat","16675","111302022-12-122022-12-145333"
"Jenny Elisabeth RG","Jl P Tubagus Angke 11 K-L","Jakarta Barat","15906","99192022-12-132022-12-141158"
"Christian Sugiarto","Jl Cikini Raya 90 Hias Rias Plaza","Jakarta Pusat","15190","111252022-12-122022-12-146265"
"Irwan Hermanto","Jl Albaido I 29-30","Jakarta Barat","15246","102102022-12-132022-12-14113184"
"Darwin Silalahi","Jl Banyumanik Raya 77","Kota Solo","17056","111332022-12-122022-12-147653"
"Muddai Madang","Jl Nibung Raya 129","Sumatera Utara","16421","111242022-12-122022-12-141238"
"Evie Raviana","Jl Tmn Duta Mas Bl B-4/2","Jakarta Pusat","15274","111682022-12-122022-12-15105164"
"Johan Arifkaja Adi Lesmana","Jl Kertanegara 4","Jakarta Barat","16588","97072022-12-122022-12-15117148"
"Efendi Boedhiman","Jl Pejaten Brt 10 A","Jakarta Selatan","16965","97252022-12-142022-12-158677"
"Evert Jimmy Lengkong","Jl Jend Urip Sumohardjo 31 E","Jakarta Pusat","17061","97382022-12-122022-12-15101174"
"Edy Kosasih","Jl Pd Kelapa Raya Bl BI-4 B-C RT 005/04 Pondok Kelapa","Jakarta Selatan","16647","97482022-12-142022-12-1582150"
"Evie Raviana","Jl Tmn Duta Mas Bl B-4/2","Jakarta Pusat","15274","97622022-12-142022-12-15105124"
"Allan Tjahja Tjao","Jl Denai 40","Sumatera Utara","15934","97872022-12-142022-12-15133"
"Christian Dieter Scholz","Jl Tmn Sari Raya 5 D","Jakarta Pusat","16817","98322022-12-132022-12-1557246"
"Hioe Isenta and Ivy Lianawati","Jl Raya Alternatif Cibubur 23","Jakarta Pusat","17067","98372022-12-132022-12-15110156"
"Bayu Irianto","Jl Soka 24","Kota Bandung","16999","98582022-12-142022-12-1525148"
"Andi Zainal A. Dulung","Jl Pagesangan IV 41","Kota Pasuruan","16529","98702022-12-132022-12-1517104"
"Muhammad Agus","Jl Balai Rakyat 3 RT 001/01","Jakarta Selatan","16710","98872022-12-142022-12-151258"
"Andi Gunawan Wibowo","Jl H Dilun Raya 113 Kel Ulujami Kec Pesanggrahan","Jakarta Utara","16276","100612022-12-122022-12-1515229"
"Andi Pravidia Saliman","Jl Angkasa Bl B-7/8","Jakarta Utara","15829","100972022-12-122022-12-151617"
"Darwin Soegiatto","Jl Industri XXIV 988-989","Kota Solo","15213","101812022-12-122022-12-157711"
"Andreas Andikha Bunanta","Jl Mampang Prapatan Raya 106 Plaza Basmar","Jakarta Selatan","16591","101862022-12-132022-12-1523317"
"Emily Stephana Djauhari","Jl Tabanas 22 Kompl Bank","Jakarta Pusat","17000","101872022-12-142022-12-159885"
"Evert Jimmy Lengkong","Jl Jend Urip Sumohardjo 31 E","Jakarta Pusat","17061","102752022-12-142022-12-1510157"
"Muhammad Aksa Mahmud","Jl Raya Semarang-Purwodadi Km 17 Semarang","Kota Solo","15494","103092022-12-122022-12-15126193"
"Andi Pravidia Saliman","Jl Angkasa Bl B-7/8","Jakarta Utara","15829","103422022-12-142022-12-1516170"
"BEATRICE EL","Jl Kb Jeruk 10","Jakarta Selatan","17233","103482022-12-142022-12-153067"
"Alwi Alatas","Jl Tanjung 2","Kota Solo","17087","103522022-12-122022-12-15449"
"Darmawansjah Setiawan","Jl Raya Bekasi Km 25/95","Jakarta Pusat","16825","103902022-12-132022-12-1570263"
"Amalia Aristiningsih","Jl Gn Sahari 51/12 A","Jakarta Barat","16325","104202022-12-122022-12-157233"
"JENNY WIDJAJA","Jl Hayam Wuruk 120","Jakarta Barat","15841","105852022-12-122022-12-15116281"
"Darwin Silalahi","Jl Banyumanik Raya 77","Kota Solo","17056","106982022-12-122022-12-1576120"
"Isenta Hioe","Jl Mandiri 9","Jakarta Barat","17224","107112022-12-132022-12-15114220"
"David Alexander Yuwono","Jl Dr Cipto 48 A","Kota Solo","15318","107362022-12-142022-12-158078"
"Andang Bachtiar","Jl Kedoya Akasia V Bl B/6 RT 006/04","Jakarta Utara","15394","108332022-12-142022-12-151217"
"Efrem Wardhana","Jl Salemba Raya Psr Kenari AKS 12","Jakarta Pusat","16239","108622022-12-122022-12-15883"
"Amaluddin Djambak","Jl Raya Kosambi 8","Jakarta Barat","15683","108642022-12-132022-12-15889"
"Bayu Irianto","Jl Soka 24","Kota Bandung","16999","108752022-12-122022-12-1525160"
"Darminto","Jl Sukanagara 21","Kota Bandung","16297","108872022-12-122022-12-1571226"
"Emil Abeng","Jl Kutisari Raya 12","Kota Pasuruan","16049","109012022-12-122022-12-1597163"
"Mugijanto Sugijono","Jl Dahlia Bl E/6 Kompl Tmn Modern","Jakarta Selatan","15432","109352022-12-122022-12-15124182"
"Darmansjah Darsono","Jl Bantir 10 50651","Kota Solo","15323","109372022-12-122022-12-1569123"
"Benny Tjokrosapoetro","Jl Cideng Tmr 38","Jakarta Selatan","15744","109602022-12-132022-12-1541289"
"Bengt Carl Gustav Thornberg","Jl Arteri Mangga Dua Raya Pus Perdag Psr Pagi Mangga Dua Bl B/132","Jakarta Selatan","16702","109692022-12-142022-12-1535187"
"Beata Ida Hartono","Jl Tj Batu 21 J/11","Kota Pasuruan","16975","109732022-12-132022-12-152833"
"Andre Sukendra Atmadja","Jl Laksda M Nazir 11 U","Jakarta Selatan","16483","109812022-12-132022-12-1522278"
"Ewik Hendri","Jl Jawa V Bl C/24","Jakarta Pusat","16677","109832022-12-132022-12-15106186"
"Amalia Aristiningsih","Jl Gn Sahari 51/12 A","Jakarta Barat","16325","109952022-12-142022-12-157253"
"Andre Johannes Mamuaya","Jl Arjuna III/15","Jakarta Selatan","15636","109992022-12-132022-12-1520120"
"Evie Raviana","Jl Tmn Duta Mas Bl B-4/2","Jakarta Pusat","15274","110192022-12-142022-12-15105119"
"Darmadi Karjanto Putro","Jl Pinangsia III/15","Jakarta Pusat","17167","110332022-12-142022-12-1568246"
"Anak Agung Gde Agung","Jl Sisingamangaraja Km 5.5/10","Sumatera Utara","16555","110342022-12-122022-12-1596"
"Darwin Sutanto","Jl Cilincing Raya 43 A","Jakarta Pusat","17010","110442022-12-132022-12-1578251"
"Effendy Husin","Jl Ampera Raya Kav I/5 Ged Satmarindo Lt 2","Jakarta Pusat","16277","110532022-12-132022-12-158756"
"Edy Susanto","Jl Gaperta Ujung 58","Sumatera Utara","16887","111002022-12-122022-12-158441"
"ELVIN TJANDRA","Jl Tebet Tmr Dalam 7-I/5","Jakarta Pusat","16610","111152022-12-122022-12-159376"
"Muddai Madang","Jl Nibung Raya 129","Sumatera Utara","16421","111162022-12-122022-12-15123251"
"Evi Hamdani","Jl Senen Raya Proy Senen Bl IV P-4/11","Jakarta Pusat","16417","111172022-12-122022-12-15102125"
"BENNY IRSJAD","Jl Dr Setiabudhi 315","Jakarta Selatan","15258","111192022-12-122022-12-153892"
"Darmoseputro","Jl Asia Afrika Plaza Senayan","Jakarta Pusat","15472","111202022-12-122022-12-157464"
"Muhammad Aksa Mahmud","Jl Raya Semarang-Purwodadi Km 17 Semarang","Kota Solo","15494","111312022-12-122022-12-15126159"
"Bobby Andhika","Jl Panti Asuhan 2","Jakarta Pusat","15502","111362022-12-122022-12-1554253"
"Betty Ang","Jl Kakap III 25","Jakarta Selatan","17260","111372022-12-122022-12-1545266"
"Johan Arifkaja Adi Lesmana","Jl Kertanegara 4","Jakarta Barat","16588","111412022-12-122022-12-15117179"
"Darmoseputro","Jl Asia Afrika Plaza Senayan","Jakarta Pusat","15472","111432022-12-122022-12-1574232"
"Execorp Limited","Jl Raden Saleh Ruko Metro Permata Bl A-2/33","Jakarta Pusat","15758","111442022-12-122022-12-15107162"
"David Kristian","Jl Gedeh 30-A","Sumatera Utara","15313","111452022-12-122022-12-15813"
"Andhika Anindyaguna Hermanto","Jl Iskandarsyah II 2 Pasaraya Blok M","Jakarta Utara","15174","111472022-12-122022-12-1513284"
"Edy Kosasih","Jl Pd Kelapa Raya Bl BI-4 B-C RT 005/04 Pondok Kelapa","Jakarta Selatan","16647","111492022-12-122022-12-1582206"
"Andre Sukendra Atmadja","Jl Laksda M Nazir 11 U","Jakarta Selatan","16483","111512022-12-122022-12-1522229"
"Bintoro Wong","Jl Talang Ujung 40 D","Jakarta Pusat","15341","111552022-12-122022-12-15508"
"Elvira Pudjiwati","Jl Raya Pasar Minggu Bl B/12","Jakarta Pusat","16563","111562022-12-122022-12-1595228"
"Execorp Limited","Jl Raden Saleh Ruko Metro Permata Bl A-2/33","Jakarta Pusat","15758","111642022-12-122022-12-15107249"
"Efendi Boedhiman","Jl Pejaten Brt 10 A","Jakarta Selatan","16965","108882022-12-152022-12-1686246"
"Andre Johannes Mamuaya","Jl Arjuna III/15","Jakarta Selatan","15636","97672022-12-152022-12-162055"
"Benjamin Subrata","Jl Empu Sendok 30","Jakarta Selatan","16045","101372022-12-152022-12-1636186"
"BELLYANAWATY BUDIMAN","Jl Pangkalan","Jakarta Selatan","15508","105462022-12-142022-12-1632234"
"Bintoro Wong","Jl Talang Ujung 40 D","Jakarta Pusat","15341","101472022-12-132022-12-1650118"
"BELLYANAWATY BUDIMAN","Jl Pangkalan","Jakarta Selatan","15508","99782022-12-132022-12-1632220"
"Bernie Prajoga","Jl Casa 2","Kota Bandung","16858","109442022-12-152022-12-1644209"
"Emily Waty Setiawan","Jl Lautze 87","Jakarta Pusat","17176","99442022-12-142022-12-169993"
"Muhammad Alatas","Jl Psr Blauran Baru C/3","Kota Pasuruan","16687","99942022-12-132022-12-1612732"
"Christian Sugiarto","Jl Cikini Raya 90 Hias Rias Plaza","Jakarta Pusat","15190","103912022-12-152022-12-1662178"
"Muddai Madang","Jl Nibung Raya 129","Sumatera Utara","16421","103562022-12-132022-12-16123251"
"Fabian Gelael","Jl Prof Surya Sumantri 16","Kota Bandung","16319","107092022-12-142022-12-16108154"
"BEATRICE EL","Jl Kb Jeruk 10","Jakarta Selatan","17233","97092022-12-142022-12-1630119"
"Alwijaya Aw","Jl Laks L RE Martadinata 279","Jakarta Barat","16844","104222022-12-132022-12-165239"
"Andre S Prijono","12550 Workshop ","Jakarta Selatan","15339","100212022-12-152022-12-162156"
"Johanes Herkiamto","Jl Raya Kalimalang 1","Jakarta Selatan","16882","107582022-12-142022-12-16122311"
"Beng Phiau","Jl Baskara Sari 92","Kota Pasuruan","17038","102192022-12-142022-12-1634300"
"Bimo Surono","Jl Lodan 23","Jakarta Pusat","16487","100312022-12-132022-12-164860"
"Darminto","Jl Sukanagara 21","Kota Bandung","16297","99242022-12-142022-12-1671307"
"Andre Abdi","Jl Mangga Besar XIII RT 12/02","Jakarta Selatan","15173","106672022-12-152022-12-1619113"
"Betty Ang","Jl Kakap III 25","Jakarta Selatan","17260","103202022-12-152022-12-164581"
"JENNY WIDJAJA","Jl Hayam Wuruk 120","Jakarta Barat","15841","96582022-12-152022-12-16116266"
"Evelyn Luciana Soeyapto","Jl Lodan Raya 1 Bl BE","Jakarta Pusat","15959","99752022-12-152022-12-16100274"
"Bing Gondosubroto","Jl Prof Dr Latumeten 23","Jakarta Pusat","16339","100562022-12-152022-12-1649189"
"Andre Johannes Mamuaya","Jl Arjuna III/15","Jakarta Selatan","15636","100582022-12-132022-12-1620237"
"Christiana Niowni","Jl Peta 62","Kota Bandung","17147","108742022-12-132022-12-1664187"
"Efrem Wardhana","Jl Salemba Raya Psr Kenari AKS 12","Jakarta Pusat","16239","104642022-12-142022-12-1688285"
"Bimo Surono","Jl Lodan 23","Jakarta Pusat","16487","101982022-12-152022-12-164848"
"Jenny Elisabeth RG","Jl P Tubagus Angke 11 K-L","Jakarta Barat","15906","106292022-12-132022-12-16115249"
"Benjamin Wong Siong Yuit","Jl Kenyeri","Kota Denpasar","15743","97922022-12-152022-12-1637227"
"Andiko Ardi Purnomo","Jl Cipinang Cempedak II 14","Jakarta Selatan","16266","108812022-12-142022-12-16188"
"Christiana Halim","Jl Mampang Prapatan Raya 18","Jakarta Pusat","17224","106152022-12-142022-12-1663257"
"Ance Anggraeny","Jl Garuda Dlm I Bl B/47","Kota Bandung","16576","98852022-12-152022-12-1611193"
"Belinda Natalia Tanoko","Jl Kutisari Raya 12","Kota Pasuruan","16899","97862022-12-152022-12-1631124"
"Fabian Gelael","Jl Prof Surya Sumantri 16","Kota Bandung","16319","110462022-12-132022-12-16108120"
"Muhammad Alatas","Jl Psr Blauran Baru C/3","Kota Pasuruan","16687","104972022-12-132022-12-16127206"
"Alwi Alatas","Jl Tanjung 2","Kota Solo","17087","105002022-12-132022-12-164179"
"Basuiki Puspoputro","Jl Kb Jati C-14/54","Kota Bandung","17064","105032022-12-132022-12-162483"
"Ewik Hendri","Jl Jawa V Bl C/24","Jakarta Pusat","16677","101712022-12-152022-12-16106128"
"Hiswara Natawindjaja","Jl Raya Cakung Cilincing Gud Inkopal","Jakarta Barat","17159","101702022-12-152022-12-1611210"
"Bayu Prawitasari","Jl Rajawali 24","Sumatera Utara","16282","99082022-12-142022-12-162656"
"Andiko Ardi Purnomo","Jl Cipinang Cempedak II 14","Jakarta Selatan","16266","100992022-12-142022-12-1618304"
"Emily Stephana Djauhari","Jl Tabanas 22 Kompl Bank","Jakarta Pusat","17000","110832022-12-132022-12-1698233"
"Darmadi Karjanto Putro","Jl Pinangsia III/15","Jakarta Pusat","17167","105152022-12-142022-12-16686"
"Alwijaya Aw","Jl Laks L RE Martadinata 279","Jakarta Barat","16844","105792022-12-142022-12-16562"
"Alvin Gozali","Jl Kopo Ruko Kopo Permai Bl 6 AR/17","Kota Bandung","16263","109142022-12-132022-12-16368"
"Dany Subrata","Jl Metro Permata Bl A-2/33","Jakarta Pusat","15640","109342022-12-162022-12-176678"
"Benny Setiawan","Jl CiKota Denpasargo 225","Jakarta Selatan","16697","107932022-12-162022-12-173973"
"Darmansjah Darsono","Jl Bantir 10 50651","Kota Solo","15323","103012022-12-142022-12-1769140"
"Darmoseputro","Jl Asia Afrika Plaza Senayan","Jakarta Pusat","15472","97122022-12-162022-12-1774299"
"David Alexander Yuwono","Jl Dr Cipto 48 A","Kota Solo","15318","108762022-12-142022-12-1780162"
"David Kristian","Jl Gedeh 30-A","Sumatera Utara","15313","104392022-12-162022-12-1781215"
"Muhammad Aksa Mahmud","Jl Raya Semarang-Purwodadi Km 17 Semarang","Kota Solo","15494","97472022-12-152022-12-1712634"
"Christian Sandy Rachmat","Jl Tmn Surya","Jakarta Pusat","15476","104452022-12-142022-12-1761311"
"Efrem Wardhana","Jl Salemba Raya Psr Kenari AKS 12","Jakarta Pusat","16239","98092022-12-162022-12-1788233"
"Benjamin Subrata","Jl Empu Sendok 30","Jakarta Selatan","16045","103852022-12-152022-12-173691"
"Bing Gondosubroto","Jl Prof Dr Latumeten 23","Jakarta Pusat","16339","100492022-12-152022-12-174935"
"Edy Suwarno","Jl Ciputat Raya 16","Jakarta Selatan","16820","97652022-12-142022-12-1785157"
"Beny Haryanto","Jl Karbela Brt 9 RT 004/04","Jakarta Selatan","17216","110822022-12-162022-12-1742300"
"BEATRICE EL","Jl Kb Jeruk 10","Jakarta Selatan","17233","106522022-12-142022-12-17303"
"Irwan Hermanto","Jl Albaido I 29-30","Jakarta Barat","15246","110502022-12-152022-12-17113190"
"Elsa Djauhari","Jl Ngagel Tirtosari 19","Kota Pasuruan","16072","108542022-12-162022-12-17929"
"Emily Stephana Djauhari","Jl Tabanas 22 Kompl Bank","Jakarta Pusat","17000","97542022-12-152022-12-1798197"
"Belinda Natalia Tanoko","Jl Kutisari Raya 12","Kota Pasuruan","16899","99632022-12-152022-12-17316"
"Bing Gondosubroto","Jl Prof Dr Latumeten 23","Jakarta Pusat","16339","99042022-12-162022-12-174938"
"BENNY IRSJAD","Jl Dr Setiabudhi 315","Jakarta Selatan","15258","100632022-12-142022-12-1738113"
"Muhammad Alatas","Jl Psr Blauran Baru C/3","Kota Pasuruan","16687","101592022-12-152022-12-17127123"
"Evie Raviana","Jl Tmn Duta Mas Bl B-4/2","Jakarta Pusat","15274","101562022-12-142022-12-171054"
"ELVIN TJANDRA","Jl Tebet Tmr Dalam 7-I/5","Jakarta Pusat","16610","101222022-12-152022-12-1793276"
"Elsa Djauhari","Jl Ngagel Tirtosari 19","Kota Pasuruan","16072","98552022-12-152022-12-17923"
"Darmawansjah Setiawan","Jl Raya Bekasi Km 25/95","Jakarta Pusat","16825","109002022-12-162022-12-1770318"
"Andre Abdi","Jl Mangga Besar XIII RT 12/02","Jakarta Selatan","15173","107892022-12-142022-12-1719181"
"Bimo Pramudyo Soekarno","Jl Mutiara I 10","Jakarta Pusat","16667","108512022-12-152022-12-174732"
"Evi Wikarsa","Jl Dewi Sartika 357 C","Jakarta Pusat","15415","110612022-12-152022-12-1710396"
"Elsa Djauhari","Jl Ngagel Tirtosari 19","Kota Pasuruan","16072","104742022-12-142022-12-1792103"
"Danny Tjiu","Jl Tebet Brt I/2","Jakarta Pusat","16429","97242022-12-152022-12-1765113"
"Hioe Isenta and Ivy Lianawati","Jl Raya Alternatif Cibubur 23","Jakarta Pusat","17067","97722022-12-142022-12-17110263"
"Andi Pravidia Saliman","Jl Angkasa Bl B-7/8","Jakarta Utara","15829","101492022-12-152022-12-1716300"
"Anak Agung Gde Agung","Jl Sisingamangaraja Km 5.5/10","Sumatera Utara","16555","96872022-12-152022-12-179177"
"Darwin Soegiatto","Jl Industri XXIV 988-989","Kota Solo","15213","109502022-12-142022-12-1777154"
"Andang Bachtiar","Jl Kedoya Akasia V Bl B/6 RT 006/04","Jakarta Utara","15394","107422022-12-152022-12-1712275"
"Johan Soedibjo","Jl Probolinggo 5","Jakarta Barat","17273","109232022-12-142022-12-1711836"
"Darwin Leo","Jl Cikini Raya 8","Jakarta Pusat","16509","107302022-12-152022-12-1775224"
"Elvira Pudjiwati","Jl Raya Pasar Minggu Bl B/12","Jakarta Pusat","16563","107292022-12-142022-12-1795188"
"BENNY IRSJAD","Jl Dr Setiabudhi 315","Jakarta Selatan","15258","102772022-12-162022-12-173889"
"Bimo Pramudyo Soekarno","Jl Mutiara I 10","Jakarta Pusat","16667","99452022-12-142022-12-174756"
"Ananda Soewono","Jl Gorontalo 9","Jakarta Utara","16147","97112022-12-162022-12-1710176"
"Anak Agung Gde Agung","Jl Sisingamangaraja Km 5.5/10","Sumatera Utara","16555","99892022-12-152022-12-179237"
"Efendi Boedhiman","Jl Pejaten Brt 10 A","Jakarta Selatan","16965","107182022-12-152022-12-1786261"
"Eka Sinto Kasih Tjia","Jl Sri Tanjung Pd Wage Indah F/17-19","Kota Pasuruan","15430","108122022-12-162022-12-1790122"
"Hiramsyah Sambudhy Thaib","Jl Tmn Apsari 9 C","Kota Pasuruan","15419","108142022-12-162022-12-17111110"
"Eiffel Tedja","Jl Kwitang Raya 8 Ged Senatama","Jakarta Pusat","16366","103442022-12-152022-12-1789133"
"Andreas Andikha Bunanta","Jl Mampang Prapatan Raya 106 Plaza Basmar","Jakarta Selatan","16591","107152022-12-152022-12-1723262"
"Bayu Virgan Triyatno","Jl Kota Denpasarkpapan 29-31","Jakarta Selatan","15536","107042022-12-152022-12-1727246"
"Isenta Hioe","Jl Mandiri 9","Jakarta Barat","17224","98862022-12-162022-12-17114134"
"Evelyn Luciana Soeyapto","Jl Lodan Raya 1 Bl BE","Jakarta Pusat","15959","97612022-12-162022-12-17100146"
"Christian Sandy Rachmat","Jl Tmn Surya","Jakarta Pusat","15476","99262022-12-142022-12-1761257"
"Christiana Niowni","Jl Peta 62","Kota Bandung","17147","99692022-12-152022-12-1764190"
"Andre Sukendra Atmadja","Jl Laksda M Nazir 11 U","Jakarta Selatan","16483","104832022-12-152022-12-1822188"
"Edy Susanto","Jl Gaperta Ujung 58","Sumatera Utara","16887","109642022-12-152022-12-1884213"
"Alvin Gozali","Jl Kopo Ruko Kopo Permai Bl 6 AR/17","Kota Bandung","16263","101752022-12-162022-12-18312"
"Belinda Natalia Tanoko","Jl Kutisari Raya 12","Kota Pasuruan","16899","104232022-12-172022-12-1831122"
"Daswi Rayawang","Jl Sunan Giri 1 RT 012/15","Jakarta Pusat","17037","104242022-12-172022-12-1879181"
"Christian Nainggolan","Jl Raya Ciracas 4","Jakarta Pusat","15285","96722022-12-162022-12-1859139"
"Andi Gunawan Wibowo","Jl H Dilun Raya 113 Kel Ulujami Kec Pesanggrahan","Jakarta Utara","16276","110912022-12-172022-12-181525"
"BHAYANG SURYADIMADJA","Jl Gondangdia Lama 24","Jakarta Pusat","16116","100732022-12-152022-12-184637"
"Evi Yulisma Harahap","Jl Kerinci 19","Jakarta Pusat","16526","102782022-12-152022-12-1810442"
"Beng Phiau","Jl Baskara Sari 92","Kota Pasuruan","17038","108982022-12-162022-12-1834261"
"Andre S Prijono","12550 Workshop ","Jakarta Selatan","15339","102732022-12-152022-12-1821128"
"Alwi Alatas","Jl Tanjung 2","Kota Solo","17087","106192022-12-152022-12-184239"
"Fabian Gelael","Jl Prof Surya Sumantri 16","Kota Bandung","16319","108712022-12-162022-12-18108107"
"Andhika Anindyaguna Hermanto","Jl Iskandarsyah II 2 Pasaraya Blok M","Jakarta Utara","15174","109052022-12-162022-12-181363"
"Ewik Hendri","Jl Jawa V Bl C/24","Jakarta Pusat","16677","103282022-12-152022-12-18106174"
"Edy Susanto","Jl Gaperta Ujung 58","Sumatera Utara","16887","106372022-12-172022-12-1884135"
"ELVIN TJANDRA","Jl Tebet Tmr Dalam 7-I/5","Jakarta Pusat","16610","110062022-12-162022-12-1893224"
"Benny Tjokrosapoetro","Jl Cideng Tmr 38","Jakarta Selatan","15744","98692022-12-172022-12-1841137"
"David Kristian","Jl Gedeh 30-A","Sumatera Utara","15313","101202022-12-152022-12-1881123"
"Darmawansjah Setiawan","Jl Raya Bekasi Km 25/95","Jakarta Pusat","16825","100382022-12-152022-12-187010"
"Andre Johannes Mamuaya","Jl Arjuna III/15","Jakarta Selatan","15636","108282022-12-152022-12-182066"
"Andre Abdi","Jl Mangga Besar XIII RT 12/02","Jakarta Selatan","15173","102082022-12-172022-12-1819217"
"Benny Setiawan","Jl CiKota Denpasargo 225","Jakarta Selatan","16697","109712022-12-152022-12-1839252"
"Danny Tjiu","Jl Tebet Brt I/2","Jakarta Pusat","16429","106752022-12-162022-12-1865227"
"Benny Tjokrosapoetro","Jl Cideng Tmr 38","Jakarta Selatan","15744","103762022-12-162022-12-1841227"
"ELVIN TJANDRA","Jl Tebet Tmr Dalam 7-I/5","Jakarta Pusat","16610","106682022-12-152022-12-1893113"
"Evi Wikarsa","Jl Dewi Sartika 357 C","Jakarta Pusat","15415","104902022-12-162022-12-18103232"
"Darmawansjah Setiawan","Jl Raya Bekasi Km 25/95","Jakarta Pusat","16825","106282022-12-172022-12-1870284"
"Benny Tjokrosapoetro","Jl Cideng Tmr 38","Jakarta Selatan","15744","97342022-12-172022-12-1841186"
"Johan Arifkaja Adi Lesmana","Jl Kertanegara 4","Jakarta Barat","16588","98672022-12-152022-12-1811790"
"Execorp Limited","Jl Raden Saleh Ruko Metro Permata Bl A-2/33","Jakarta Pusat","15758","109322022-12-152022-12-1810759"
"Benny Tjokrosapoetro","Jl Cideng Tmr 38","Jakarta Selatan","15744","108022022-12-152022-12-184164"
"Johan Tandean","Jl Raya Kebayoran Lama Permata Kebayoran Plaza Bl A/12","Jakarta Barat","15719","96852022-12-162022-12-181202"
"Daswi Rayawang","Jl Sunan Giri 1 RT 012/15","Jakarta Pusat","17037","104542022-12-162022-12-1879118"
"Beatrice El","Jl Tambak Anakan 9","Kota Pasuruan","17022","99382022-12-162022-12-1829214"
"Ance Anggraeny","Jl Garuda Dlm I Bl B/47","Kota Bandung","16576","102032022-12-152022-12-1811272"
"Ben Morice","Jl Kembang Indah Utama Bl J-2 A/16-17","Jakarta Selatan","15951","108502022-12-172022-12-183388"
"Alwi Alatas","Jl Tanjung 2","Kota Solo","17087","104582022-12-172022-12-184266"
"Effendy Husin","Jl Ampera Raya Kav I/5 Ged Satmarindo Lt 2","Jakarta Pusat","16277","108932022-12-162022-12-1887185"
"Christian Parlaungan Mulyanto","Jl Cipaku I 43","Jakarta Pusat","16393","96842022-12-162022-12-186059"
"Bayu Irianto","Jl Soka 24","Kota Bandung","16999","107172022-12-152022-12-1825138"
"Benjamin Wong Siong Yuit","Jl Kenyeri","Kota Denpasar","15743","106452022-12-172022-12-183761"
"Hioe Isenta","Jl Pekayon 4","Jakarta Barat","16966","110572022-12-162022-12-18109247"
"BEATRICE EL","Jl Kb Jeruk 10","Jakarta Selatan","17233","105452022-12-172022-12-183067"
"Alwijaya Aw","Jl Laks L RE Martadinata 279","Jakarta Barat","16844","103542022-12-152022-12-18564"
"Alwi Alatas","Jl Tanjung 2","Kota Solo","17087","101972022-12-172022-12-194129"
"David Alexander Yuwono","Jl Dr Cipto 48 A","Kota Solo","15318","99602022-12-182022-12-198018"
"Johan Arifkaja Adi Lesmana","Jl Kertanegara 4","Jakarta Barat","16588","109522022-12-182022-12-19117186"
"Darmoseputro","Jl Asia Afrika Plaza Senayan","Jakarta Pusat","15472","109482022-12-162022-12-197462"
"Darmansjah Darsono","Jl Bantir 10 50651","Kota Solo","15323","103382022-12-162022-12-1969259"
"Ewik Hendri","Jl Jawa V Bl C/24","Jakarta Pusat","16677","99402022-12-162022-12-191064"
"Benjamin Wong Siong Yuit","Jl Kenyeri","Kota Denpasar","15743","102252022-12-162022-12-1937236"
"Beata Ida Hartono","Jl Tj Batu 21 J/11","Kota Pasuruan","16975","104302022-12-172022-12-192856"
"Elvira Pudjiwati","Jl Raya Pasar Minggu Bl B/12","Jakarta Pusat","16563","104432022-12-162022-12-1995267"
"Andre Sukendra Atmadja","Jl Laksda M Nazir 11 U","Jakarta Selatan","16483","104492022-12-172022-12-1922225"
"Alvin Gozali","Jl Kopo Ruko Kopo Permai Bl 6 AR/17","Kota Bandung","16263","104502022-12-162022-12-193309"
"Hioe Isenta and Ivy Lianawati","Jl Raya Alternatif Cibubur 23","Jakarta Pusat","17067","103172022-12-162022-12-1911067"
"Andiko Ardi Purnomo","Jl Cipinang Cempedak II 14","Jakarta Selatan","16266","104602022-12-162022-12-191852"
"Emily Waty Setiawan","Jl Lautze 87","Jakarta Pusat","17176","103722022-12-172022-12-1999113"
"Benjamin Subrata","Jl Empu Sendok 30","Jakarta Selatan","16045","97222022-12-172022-12-1936103"
"Edy Susanto","Jl Gaperta Ujung 58","Sumatera Utara","16887","97332022-12-162022-12-1984124"
"Evelyn Luciana Soeyapto","Jl Lodan Raya 1 Bl BE","Jakarta Pusat","15959","97422022-12-182022-12-19100162"
"Emily Stephana Djauhari","Jl Tabanas 22 Kompl Bank","Jakarta Pusat","17000","108552022-12-182022-12-199883"
"Muhammad Aksa Mahmud","Jl Raya Semarang-Purwodadi Km 17 Semarang","Kota Solo","15494","105272022-12-162022-12-19126172"
"Beny Haryanto","Jl Karbela Brt 9 RT 004/04","Jakarta Selatan","17216","96912022-12-182022-12-1942144"
"Bayu Irianto","Jl Soka 24","Kota Bandung","16999","105602022-12-172022-12-192569"
"Ance Anggraeny","Jl Garuda Dlm I Bl B/47","Kota Bandung","16576","101162022-12-172022-12-1911101"
"David Alexander Yuwono","Jl Dr Cipto 48 A","Kota Solo","15318","101032022-12-182022-12-1980253"
"David Alexander Yuwono","Jl Dr Cipto 48 A","Kota Solo","15318","108472022-12-182022-12-1980181"
"Amaluddin Djambak","Jl Raya Kosambi 8","Jakarta Barat","15683","101022022-12-172022-12-19832"
"Evert Jimmy Lengkong","Jl Jend Urip Sumohardjo 31 E","Jakarta Pusat","17061","100962022-12-162022-12-1910162"
"Darwin Sutanto","Jl Cilincing Raya 43 A","Jakarta Pusat","17010","100952022-12-182022-12-1978142"
"Hiswara Natawindjaja","Jl Raya Cakung Cilincing Gud Inkopal","Jakarta Barat","17159","106072022-12-172022-12-19112190"
"BEATRICE EL","Jl Kb Jeruk 10","Jakarta Selatan","17233","108442022-12-172022-12-1930199"
"Christanto Santoso","JL. Kesehatan No. 3","Kota Sorong","17104","100712022-12-182022-12-1956238"
"Darwin Silalahi","Jl Banyumanik Raya 77","Kota Solo","17056","110222022-12-182022-12-1976284"
"Darminto Hartono","Jl Setiabudi 186","Kota Bandung","17151","106532022-12-182022-12-1972289"
"Benny Setiawan","Jl CiKota Denpasargo 225","Jakarta Selatan","16697","103532022-12-162022-12-193955"
"Andi Gunawan Wibowo","Jl H Dilun Raya 113 Kel Ulujami Kec Pesanggrahan","Jakarta Utara","16276","98972022-12-182022-12-1915227"
"Johan Tandean","Jl Raya Kebayoran Lama Permata Kebayoran Plaza Bl A/12","Jakarta Barat","15719","109972022-12-182022-12-19120239"
"Andang Bachtiar","Jl Kedoya Akasia V Bl B/6 RT 006/04","Jakarta Utara","15394","98242022-12-182022-12-1912141"
"Andi Pravidia Saliman","Jl Angkasa Bl B-7/8","Jakarta Utara","15829","99972022-12-172022-12-1916260"
"Mugijanto Sugijono","Jl Dahlia Bl E/6 Kompl Tmn Modern","Jakarta Selatan","15432","99272022-12-162022-12-19124178"
"Basuiki Puspoputro","Jl Kb Jati C-14/54","Kota Bandung","17064","102352022-12-172022-12-1924173"
"Hioe Isenta and Ivy Lianawati","Jl Raya Alternatif Cibubur 23","Jakarta Pusat","17067","98482022-12-162022-12-1911039"
"Elvina Jonas Jahja","Jl Kayu Putih 7 A 8 Pulo Gadung","Jakarta Pusat","17050","107682022-12-182022-12-199433"
"Aluinanto Sandjojo","Jl Inspeksi Saluran Kalimalang 9 A-B","Jakarta Pusat","16035","102692022-12-172022-12-202189"
"Christian Leuchtenberg","Jl Puri Agung Mal Puri Indah Unit IU/1 C","Jakarta Pusat","17209","101172022-12-182022-12-2058147"
"Betty Ang","Jl Kakap III 25","Jakarta Selatan","17260","106892022-12-172022-12-2045265"
"Benny Tjokrosapoetro","Jl Cideng Tmr 38","Jakarta Selatan","15744","102992022-12-172022-12-2041268"
"Irwan Hermanto","Jl Albaido I 29-30","Jakarta Barat","15246","97702022-12-172022-12-2011353"
"Muhammad Agus","Jl Balai Rakyat 3 RT 001/01","Jakarta Selatan","16710","105552022-12-192022-12-2012574"
"Evi Wikarsa","Jl Dewi Sartika 357 C","Jakarta Pusat","15415","103682022-12-172022-12-20103297"
"Aluinanto Sandjojo","Jl Inspeksi Saluran Kalimalang 9 A-B","Jakarta Pusat","16035","97802022-12-182022-12-202226"
"Beng Phiau","Jl Baskara Sari 92","Kota Pasuruan","17038","106002022-12-182022-12-203465"
"Benny Tenges","Jl Gn Rahayu 1 A","Kota Bandung","16993","96762022-12-172022-12-2040150"
"Andi Achmad Dara","Jl Sumagung III Kav Bulak K/5","Jakarta Utara","16681","100932022-12-172022-12-2014311"
"Evelyn Luciana Soeyapto","Jl Lodan Raya 1 Bl BE","Jakarta Pusat","15959","107552022-12-182022-12-20100288"
"Bob Yanuar","Jl Percetakan Negara II 24","Jakarta Pusat","16675","100832022-12-172022-12-2053129"
"Bing Gondosubroto","Jl Prof Dr Latumeten 23","Jakarta Pusat","16339","97432022-12-182022-12-204960"
"Andi Achmad Dara","Jl Sumagung III Kav Bulak K/5","Jakarta Utara","16681","106142022-12-172022-12-2014186"
"Bimo Surono","Jl Lodan 23","Jakarta Pusat","16487","101892022-12-192022-12-2048222"
"Darminto Hartono","Jl Setiabudi 186","Kota Bandung","17151","105202022-12-172022-12-2072237"
"Evi Wikarsa","Jl Dewi Sartika 357 C","Jakarta Pusat","15415","98512022-12-192022-12-20103111"
"Amalia","Jl Paseban 3 C","Jakarta Barat","16456","109852022-12-182022-12-206174"
"Alwijaya Aw","Jl Laks L RE Martadinata 279","Jakarta Barat","16844","107782022-12-182022-12-205127"
"Evi Wikarsa","Jl Dewi Sartika 357 C","Jakarta Pusat","15415","98332022-12-192022-12-20103214"
"Benny Tenges","Jl Gn Rahayu 1 A","Kota Bandung","16993","102372022-12-182022-12-204011"
"Benjamin Wong Siong Yuit","Jl Kenyeri","Kota Denpasar","15743","99832022-12-192022-12-203733"
"Andi Gunawan Wibowo","Jl H Dilun Raya 113 Kel Ulujami Kec Pesanggrahan","Jakarta Utara","16276","105752022-12-182022-12-201510"
"Beatrice El","Jl Tambak Anakan 9","Kota Pasuruan","17022","96542022-12-172022-12-2029113"
"Beatrice El","Jl Tambak Anakan 9","Kota Pasuruan","17022","104172022-12-182022-12-202933"
"Christian Leuchtenberg","Jl Puri Agung Mal Puri Indah Unit IU/1 C","Jakarta Pusat","17209","106312022-12-172022-12-2058227"
"JENNY WIDJAJA","Jl Hayam Wuruk 120","Jakarta Barat","15841","101612022-12-192022-12-20116264"
"Emi Sukiati Lasimon","Jl Letjen Haryono MT Kav 62 Wisma Korindo","Jakarta Pusat","16450","106362022-12-192022-12-2096122"
"Irwan Hermanto","Jl Albaido I 29-30","Jakarta Barat","15246","97182022-12-172022-12-20113247"
"Eiffel Tedja","Jl Kwitang Raya 8 Ged Senatama","Jakarta Pusat","16366","106392022-12-192022-12-208964"
"Darjoto Setyawan","Jl Stasiun 30 Kel Tanjung Gusta","Sumatera Utara","17130","99172022-12-172022-12-2067124"
"BHAYANG SURYADIMADJA","Jl Gondangdia Lama 24","Jakarta Pusat","16116","96732022-12-192022-12-2046243"
"Darmo Suwito Barwin","Jl Jelambar Ilir 2","Jakarta Pusat","15353","101662022-12-192022-12-207349"
"Christiana Niowni","Jl Peta 62","Kota Bandung","17147","105802022-12-172022-12-206462"
"Irwan Hermanto","Jl Albaido I 29-30","Jakarta Barat","15246","110522022-12-192022-12-2011373"
"Evi Hamdani","Jl Senen Raya Proy Senen Bl IV P-4/11","Jakarta Pusat","16417","100572022-12-182022-12-20102168"
"Darwin Sutanto","Jl Cilincing Raya 43 A","Jakarta Pusat","17010","101182022-12-182022-12-20789"
"Muhammad Aksa Mahmud","Jl Raya Semarang-Purwodadi Km 17 Semarang","Kota Solo","15494","106552022-12-172022-12-20126143"
"Christanto Santoso","JL. Kesehatan No. 3","Kota Sorong","17104","106572022-12-172022-12-2056113"
"Mugijanto Sugijono","Jl Dahlia Bl E/6 Kompl Tmn Modern","Jakarta Selatan","15432","107642022-12-192022-12-20124151"
"Darjoto Setyawan","Jl Stasiun 30 Kel Tanjung Gusta","Sumatera Utara","17130","102302022-12-182022-12-2067255"
"Andre Abdi","Jl Mangga Besar XIII RT 12/02","Jakarta Selatan","15173","105862022-12-172022-12-2019123"
"Jenny Elisabeth RG","Jl P Tubagus Angke 11 K-L","Jakarta Barat","15906","109722022-12-192022-12-2011525"
"Betty Ang","Jl Kakap III 25","Jakarta Selatan","17260","106702022-12-172022-12-2045186"
"Andreas Andikha Bunanta","Jl Mampang Prapatan Raya 106 Plaza Basmar","Jakarta Selatan","16591","100432022-12-172022-12-2023103"
"Christian Sandy Rachmat","Jl Tmn Surya","Jakarta Pusat","15476","103792022-12-172022-12-2061173"
"Danny Tjiu","Jl Tebet Brt I/2","Jakarta Pusat","16429","101522022-12-172022-12-206588"
"Beata Ida Hartono","Jl Tj Batu 21 J/11","Kota Pasuruan","16975","99662022-12-192022-12-202856"
"Muhammad Aksa Mahmud","Jl Raya Semarang-Purwodadi Km 17 Semarang","Kota Solo","15494","100182022-12-192022-12-20126121"
"David Kristian","Jl Gedeh 30-A","Sumatera Utara","15313","102132022-12-192022-12-2081199"
"Ewik Hendri","Jl Jawa V Bl C/24","Jakarta Pusat","16677","100202022-12-192022-12-20106210"
"Edy Kusnadi","Jl Depsos Raya 42 B RT 008/01","Jakarta Selatan","17100","103072022-12-192022-12-2083112"
"Muhammad Agus","Jl Balai Rakyat 3 RT 001/01","Jakarta Selatan","16710","106612022-12-182022-12-2012527"
"Efendi Boedhiman","Jl Pejaten Brt 10 A","Jakarta Selatan","16965","100322022-12-182022-12-208655"
"Evelyn Luciana Soeyapto","Jl Lodan Raya 1 Bl BE","Jakarta Pusat","15959","105892022-12-182022-12-2010015"
"Bimo Surono","Jl Lodan 23","Jakarta Pusat","16487","105332022-12-182022-12-2048114"
"BHAYANG SURYADIMADJA","Jl Gondangdia Lama 24","Jakarta Pusat","16116","99962022-12-192022-12-214631"
"Efrem Wardhana","Jl Salemba Raya Psr Kenari AKS 12","Jakarta Pusat","16239","106032022-12-182022-12-218832"
"Alwijaya Aw","Jl Laks L RE Martadinata 279","Jakarta Barat","16844","101362022-12-202022-12-215243"
"Amalia Aristiningsih","Jl Gn Sahari 51/12 A","Jakarta Barat","16325","97752022-12-182022-12-217225"
"Evi Hamdani","Jl Senen Raya Proy Senen Bl IV P-4/11","Jakarta Pusat","16417","104462022-12-182022-12-21102276"
"Edy Kosasih","Jl Pd Kelapa Raya Bl BI-4 B-C RT 005/04 Pondok Kelapa","Jakarta Selatan","16647","108822022-12-192022-12-2182129"
"Emily Waty Setiawan","Jl Lautze 87","Jakarta Pusat","17176","110162022-12-192022-12-2199233"
"Bayu Irianto","Jl Soka 24","Kota Bandung","16999","106082022-12-202022-12-2125303"
"Bayu Irianto","Jl Soka 24","Kota Bandung","16999","103782022-12-192022-12-2125201"
"Darwin Silalahi","Jl Banyumanik Raya 77","Kota Solo","17056","110212022-12-192022-12-2176111"
"David Kristian","Jl Gedeh 30-A","Sumatera Utara","15313","105412022-12-192022-12-218111"
"Evi Hamdani","Jl Senen Raya Proy Senen Bl IV P-4/11","Jakarta Pusat","16417","103692022-12-202022-12-2110285"
"Darmadi Karjanto Putro","Jl Pinangsia III/15","Jakarta Pusat","17167","110752022-12-202022-12-2168306"
"Andreas Andikha Bunanta","Jl Mampang Prapatan Raya 106 Plaza Basmar","Jakarta Selatan","16591","100402022-12-202022-12-2123116"
"Bing Gondosubroto","Jl Prof Dr Latumeten 23","Jakarta Pusat","16339","100742022-12-192022-12-2149157"
"Bayu Irianto","Jl Soka 24","Kota Bandung","16999","110312022-12-192022-12-212551"
"Darwin Silalahi","Jl Banyumanik Raya 77","Kota Solo","17056","97962022-12-192022-12-2176144"
"Benjamin Wong Siong Yuit","Jl Kenyeri","Kota Denpasar","15743","103602022-12-202022-12-213721"
"Bernadette Ruth Irawati","Jl Rempoa Raya 45","Jakarta Selatan","16145","103962022-12-202022-12-2143220"
"Darmo Suwito Barwin","Jl Jelambar Ilir 2","Jakarta Pusat","15353","103492022-12-202022-12-217395"
"Andi Achmad Dara","Jl Sumagung III Kav Bulak K/5","Jakarta Utara","16681","99922022-12-182022-12-211456"
"Darminto","Jl Sukanagara 21","Kota Bandung","16297","99742022-12-182022-12-217146"
"Andhika Anindyaguna Hermanto","Jl Iskandarsyah II 2 Pasaraya Blok M","Jakarta Utara","15174","105292022-12-182022-12-211378"
"Christian Dieter Scholz","Jl Tmn Sari Raya 5 D","Jakarta Pusat","16817","97392022-12-202022-12-2157197"
"Elvina Jonas Jahja","Jl Kayu Putih 7 A 8 Pulo Gadung","Jakarta Pusat","17050","100722022-12-192022-12-2194147"
"Bayu Prawitasari","Jl Rajawali 24","Sumatera Utara","16282","103702022-12-182022-12-2126184"
"Darmoseputro","Jl Asia Afrika Plaza Senayan","Jakarta Pusat","15472","98902022-12-192022-12-217422"
"Andi Pravidia Saliman","Jl Angkasa Bl B-7/8","Jakarta Utara","15829","108522022-12-202022-12-211631"
"Emily Waty Setiawan","Jl Lautze 87","Jakarta Pusat","17176","103132022-12-182022-12-2199155"
"Bimo Surono","Jl Lodan 23","Jakarta Pusat","16487","107662022-12-202022-12-214818"
"Darmadi Karjanto Putro","Jl Pinangsia III/15","Jakarta Pusat","17167","99222022-12-182022-12-2168289"
"Darminto Hartono","Jl Setiabudi 186","Kota Bandung","17151","101732022-12-192022-12-2172124"
"Beatrice El","Jl Tambak Anakan 9","Kota Pasuruan","17022","99712022-12-202022-12-212948"
"Johana Poedjokerto","Jl KH Zainul Arifin 35","Jakarta Selatan","15151","109212022-12-202022-12-211213"
"Daswi Rayawang","Jl Sunan Giri 1 RT 012/15","Jakarta Pusat","17037","108612022-12-192022-12-2179233"
"Christiana Niowni","Jl Peta 62","Kota Bandung","17147","98302022-12-182022-12-2164109"
"BELLYANAWATY BUDIMAN","Jl Pangkalan","Jakarta Selatan","15508","96612022-12-192022-12-2132247"
"Benjamin Subrata","Jl Empu Sendok 30","Jakarta Selatan","16045","102612022-12-182022-12-2136136"
"Fabian Gelael","Jl Prof Surya Sumantri 16","Kota Bandung","16319","108152022-12-202022-12-22108217"
"Elsa Djauhari","Jl Ngagel Tirtosari 19","Kota Pasuruan","16072","97822022-12-192022-12-229256"
"Bayu Virgan Triyatno","Jl Kota Denpasarkpapan 29-31","Jakarta Selatan","15536","105742022-12-192022-12-222764"
"Christian Leuchtenberg","Jl Puri Agung Mal Puri Indah Unit IU/1 C","Jakarta Pusat","17209","101042022-12-202022-12-225856"
"Darminto Hartono","Jl Setiabudi 186","Kota Bandung","17151","110862022-12-202022-12-2272225"
"Andi Achmad Dara","Jl Sumagung III Kav Bulak K/5","Jakarta Utara","16681","105072022-12-212022-12-221487"
"Christian Sugiarto","Jl Cikini Raya 90 Hias Rias Plaza","Jakarta Pusat","15190","105932022-12-202022-12-226279"
"Bengt Carl Gustav Thornberg","Jl Arteri Mangga Dua Raya Pus Perdag Psr Pagi Mangga Dua Bl B/132","Jakarta Selatan","16702","105952022-12-192022-12-2235241"
"Darmawansjah Setiawan","Jl Raya Bekasi Km 25/95","Jakarta Pusat","16825","101822022-12-192022-12-2270260"
"Evi Hamdani","Jl Senen Raya Proy Senen Bl IV P-4/11","Jakarta Pusat","16417","104932022-12-192022-12-22102253"
"Darwin Sutanto","Jl Cilincing Raya 43 A","Jakarta Pusat","17010","98722022-12-202022-12-2278105"
"Eka Sinto Kasih Tjia","Jl Sri Tanjung Pd Wage Indah F/17-19","Kota Pasuruan","15430","106162022-12-192022-12-2290157"
"Evi Hamdani","Jl Senen Raya Proy Senen Bl IV P-4/11","Jakarta Pusat","16417","103942022-12-202022-12-22102265"
"Bob Yanuar","Jl Percetakan Negara II 24","Jakarta Pusat","16675","104792022-12-192022-12-2253182"
"Christian Sugiarto","Jl Cikini Raya 90 Hias Rias Plaza","Jakarta Pusat","15190","108802022-12-202022-12-2262275"
"Eka Sinto Kasih Tjia","Jl Sri Tanjung Pd Wage Indah F/17-19","Kota Pasuruan","15430","106382022-12-202022-12-2290257"
"Elvina Jonas Jahja","Jl Kayu Putih 7 A 8 Pulo Gadung","Jakarta Pusat","17050","106442022-12-202022-12-2294234"
"Darwin Sutanto","Jl Cilincing Raya 43 A","Jakarta Pusat","17010","98772022-12-202022-12-2278201"
"Johan T. Gilbert","Jl Pluit Mas Raya VI A Bl G/9","Jakarta Barat","16577","104612022-12-202022-12-22119232"
"Beata Ida Hartono","Jl Tj Batu 21 J/11","Kota Pasuruan","16975","107732022-12-212022-12-2228279"
"Beatrice El","Jl Tambak Anakan 9","Kota Pasuruan","17022","103102022-12-202022-12-2229289"
"Bayu Virgan Triyatno","Jl Kota Denpasarkpapan 29-31","Jakarta Selatan","15536","106602022-12-192022-12-2227241"
"Emi Sukiati Lasimon","Jl Letjen Haryono MT Kav 62 Wisma Korindo","Jakarta Pusat","16450","98962022-12-192022-12-2296216"
"Hiswara Natawindjaja","Jl Raya Cakung Cilincing Gud Inkopal","Jakarta Barat","17159","104472022-12-192022-12-2211244"
"BHAYANG SURYADIMADJA","Jl Gondangdia Lama 24","Jakarta Pusat","16116","102492022-12-202022-12-2246118"
"Benny Setiawan","Jl CiKota Denpasargo 225","Jakarta Selatan","16697","104442022-12-192022-12-2239176"
"Efrem Wardhana","Jl Salemba Raya Psr Kenari AKS 12","Jakarta Pusat","16239","106872022-12-202022-12-228869"
"Ananda Soewono","Jl Gorontalo 9","Jakarta Utara","16147","102182022-12-202022-12-221062"
"Johan Soedibjo","Jl Probolinggo 5","Jakarta Barat","17273","103502022-12-212022-12-2211812"
"Bismarka Kurniawan","Jl Batu 1","Jakarta Pusat","16516","104252022-12-202022-12-2251205"
"Eka Sinto Kasih Tjia","Jl Sri Tanjung Pd Wage Indah F/17-19","Kota Pasuruan","15430","100102022-12-212022-12-2290298"
"Hiramsyah Sambudhy Thaib","Jl Tmn Apsari 9 C","Kota Pasuruan","15419","99992022-12-212022-12-2211111"
"Effendy Husin","Jl Ampera Raya Kav I/5 Ged Satmarindo Lt 2","Jakarta Pusat","16277","102322022-12-192022-12-2287160"
"Hioe Isenta and Ivy Lianawati","Jl Raya Alternatif Cibubur 23","Jakarta Pusat","17067","99362022-12-192022-12-22110256"
"Andre Sukendra Atmadja","Jl Laksda M Nazir 11 U","Jakarta Selatan","16483","108132022-12-192022-12-2222261"
"Amalia Aristiningsih","Jl Gn Sahari 51/12 A","Jakarta Barat","16325","107222022-12-202022-12-2276"
"Muhammad Alatas","Jl Psr Blauran Baru C/3","Kota Pasuruan","16687","99852022-12-192022-12-22127284"
"Emi Sukiati Lasimon","Jl Letjen Haryono MT Kav 62 Wisma Korindo","Jakarta Pusat","16450","109892022-12-192022-12-2296120"
"Isenta Hioe","Jl Mandiri 9","Jakarta Barat","17224","108012022-12-202022-12-22114259"
"Betty Ang","Jl Kakap III 25","Jakarta Selatan","17260","99792022-12-192022-12-2245302"
"Bobby Andhika","Jl Panti Asuhan 2","Jakarta Pusat","15502","99542022-12-192022-12-2254124"
"Eko Budianto","Jl Raden Saleh 1 B-D","Jakarta Pusat","16110","97732022-12-212022-12-2291100"
"Darwin Leo","Jl Cikini Raya 8","Jakarta Pusat","16509","109032022-12-212022-12-2275183"
"Ance Anggraeny","Jl Garuda Dlm I Bl B/47","Kota Bandung","16576","105282022-12-212022-12-2211106"
"Belinda Natalia Tanoko","Jl Kutisari Raya 12","Kota Pasuruan","16899","101252022-12-212022-12-223112"
"Darmansjah Darsono","Jl Bantir 10 50651","Kota Solo","15323","107852022-12-202022-12-2269118"
"Emi Sukiati Lasimon","Jl Letjen Haryono MT Kav 62 Wisma Korindo","Jakarta Pusat","16450","98502022-12-192022-12-229686"
"BELLYANAWATY BUDIMAN","Jl Pangkalan","Jakarta Selatan","15508","101232022-12-202022-12-2232129"
"Beatrice El","Jl Tambak Anakan 9","Kota Pasuruan","17022","97762022-12-202022-12-2329289"
"Christian Sugiarto","Jl Cikini Raya 90 Hias Rias Plaza","Jakarta Pusat","15190","101552022-12-212022-12-2362293"
"Beata Ida Hartono","Jl Tj Batu 21 J/11","Kota Pasuruan","16975","105882022-12-212022-12-232825"
"Johanes Herkiamto","Jl Raya Kalimalang 1","Jakarta Selatan","16882","102952022-12-222022-12-2312264"
"David Alexander Yuwono","Jl Dr Cipto 48 A","Kota Solo","15318","103162022-12-222022-12-238060"
"Christiana Niowni","Jl Peta 62","Kota Bandung","17147","102832022-12-202022-12-2364239"
"Emil Abeng","Jl Kutisari Raya 12","Kota Pasuruan","16049","105842022-12-212022-12-2397184"
"Edy Susanto","Jl Gaperta Ujung 58","Sumatera Utara","16887","109592022-12-202022-12-238472"
"Muhammad Agus","Jl Balai Rakyat 3 RT 001/01","Jakarta Selatan","16710","108952022-12-222022-12-23125124"
"Johan T. Gilbert","Jl Pluit Mas Raya VI A Bl G/9","Jakarta Barat","16577","110552022-12-222022-12-23119133"
"Bob Yanuar","Jl Percetakan Negara II 24","Jakarta Pusat","16675","106272022-12-202022-12-2353275"
"David Alexander Yuwono","Jl Dr Cipto 48 A","Kota Solo","15318","107282022-12-222022-12-2380189"
"Darwin Leo","Jl Cikini Raya 8","Jakarta Pusat","16509","98622022-12-222022-12-2375295"
"Darminto","Jl Sukanagara 21","Kota Bandung","16297","99502022-12-202022-12-237182"
"Jenny Elisabeth RG","Jl P Tubagus Angke 11 K-L","Jakarta Barat","15906","100692022-12-212022-12-23115213"
"Betty Ang","Jl Kakap III 25","Jakarta Selatan","17260","99812022-12-222022-12-234558"
"Johana Poedjokerto","Jl KH Zainul Arifin 35","Jakarta Selatan","15151","109202022-12-202022-12-23121284"
"Johan T. Gilbert","Jl Pluit Mas Raya VI A Bl G/9","Jakarta Barat","16577","97772022-12-222022-12-2311912"
"Bimo Surono","Jl Lodan 23","Jakarta Pusat","16487","106232022-12-202022-12-2348254"
"Muhammad Agus","Jl Balai Rakyat 3 RT 001/01","Jakarta Selatan","16710","101912022-12-212022-12-2312543"
"Belinda Natalia Tanoko","Jl Kutisari Raya 12","Kota Pasuruan","16899","110742022-12-212022-12-23317"
"Eiffel Tedja","Jl Kwitang Raya 8 Ged Senatama","Jakarta Pusat","16366","101152022-12-212022-12-2389224"
"Evi Hamdani","Jl Senen Raya Proy Senen Bl IV P-4/11","Jakarta Pusat","16417","105692022-12-212022-12-23102184"
"Darwin Sutanto","Jl Cilincing Raya 43 A","Jakarta Pusat","17010","102552022-12-212022-12-2378171"
"Andiko Ardi Purnomo","Jl Cipinang Cempedak II 14","Jakarta Selatan","16266","106172022-12-202022-12-2318158"
"Evie Raviana","Jl Tmn Duta Mas Bl B-4/2","Jakarta Pusat","15274","109252022-12-222022-12-23105224"
"Efrem Wardhana","Jl Salemba Raya Psr Kenari AKS 12","Jakarta Pusat","16239","107452022-12-212022-12-2388296"
"Evie Raviana","Jl Tmn Duta Mas Bl B-4/2","Jakarta Pusat","15274","98442022-12-212022-12-23105271"
"Execorp Limited","Jl Raden Saleh Ruko Metro Permata Bl A-2/33","Jakarta Pusat","15758","100782022-12-212022-12-23107256"
"Irwan Hermanto","Jl Albaido I 29-30","Jakarta Barat","15246","103742022-12-212022-12-23113280"
"Christian Dieter Scholz","Jl Tmn Sari Raya 5 D","Jakarta Pusat","16817","106912022-12-202022-12-2357247"
"Execorp Limited","Jl Raden Saleh Ruko Metro Permata Bl A-2/33","Jakarta Pusat","15758","109582022-12-222022-12-23107286"
"Andi Zainal A. Dulung","Jl Pagesangan IV 41","Kota Pasuruan","16529","108372022-12-222022-12-2317190"
"BELLYANAWATY BUDIMAN","Jl Pangkalan","Jakarta Selatan","15508","100272022-12-202022-12-2332290"
"Danny Tjiu","Jl Tebet Brt I/2","Jakarta Pusat","16429","110022022-12-202022-12-2365246"
"Isenta Hioe","Jl Mandiri 9","Jakarta Barat","17224","104912022-12-202022-12-23114167"
"Beng Phiau","Jl Baskara Sari 92","Kota Pasuruan","17038","103262022-12-212022-12-2334245"
"Eka Sinto Kasih Tjia","Jl Sri Tanjung Pd Wage Indah F/17-19","Kota Pasuruan","15430","100362022-12-212022-12-2390237"
"Isenta Hioe","Jl Mandiri 9","Jakarta Barat","17224","98942022-12-222022-12-23114254"
"Darwin Sutanto","Jl Cilincing Raya 43 A","Jakarta Pusat","17010","102122022-12-212022-12-23788"
"Christanto Santoso","JL. Kesehatan No. 3","Kota Sorong","17104","110002022-12-202022-12-2356128"
"Ewik Hendri","Jl Jawa V Bl C/24","Jakarta Pusat","16677","110132022-12-202022-12-23106129"
"Bayu Irianto","Jl Soka 24","Kota Bandung","16999","108312022-12-202022-12-2325269"
"Bintoro Wong","Jl Talang Ujung 40 D","Jakarta Pusat","15341","105612022-12-222022-12-235064"
"Johan Soedibjo","Jl Probolinggo 5","Jakarta Barat","17273","100982022-12-202022-12-23118116"
"Darwin Soegiatto","Jl Industri XXIV 988-989","Kota Solo","15213","107522022-12-222022-12-237767"
"Christian Sandy Rachmat","Jl Tmn Surya","Jakarta Pusat","15476","109962022-12-222022-12-2361184"
"Hiramsyah Sambudhy Thaib","Jl Tmn Apsari 9 C","Kota Pasuruan","15419","107632022-12-222022-12-23111305"
"Bintoro Wong","Jl Talang Ujung 40 D","Jakarta Pusat","15341","103632022-12-202022-12-2350175"
"Beata Ida Hartono","Jl Tj Batu 21 J/11","Kota Pasuruan","16975","110142022-12-222022-12-2328205"
"Hioe Isenta and Ivy Lianawati","Jl Raya Alternatif Cibubur 23","Jakarta Pusat","17067","105532022-12-232022-12-24110183"
"Bobby Andhika","Jl Panti Asuhan 2","Jakarta Pusat","15502","108732022-12-212022-12-2454157"
"Darwin Sutanto","Jl Cilincing Raya 43 A","Jakarta Pusat","17010","98922022-12-222022-12-2478281"
"Evelyn Luciana Soeyapto","Jl Lodan Raya 1 Bl BE","Jakarta Pusat","15959","104012022-12-232022-12-24100178"
"Darjoto Setyawan","Jl Stasiun 30 Kel Tanjung Gusta","Sumatera Utara","17130","102462022-12-222022-12-246776"
"ELVIN TJANDRA","Jl Tebet Tmr Dalam 7-I/5","Jakarta Pusat","16610","97132022-12-232022-12-249330"
"Amaluddin Djambak","Jl Raya Kosambi 8","Jakarta Barat","15683","104102022-12-212022-12-248256"
"Christian Sandy Rachmat","Jl Tmn Surya","Jakarta Pusat","15476","104342022-12-212022-12-246148"
"Elvira Pudjiwati","Jl Raya Pasar Minggu Bl B/12","Jakarta Pusat","16563","102142022-12-212022-12-2495302"
"Darmadi Karjanto Putro","Jl Pinangsia III/15","Jakarta Pusat","17167","103252022-12-222022-12-2468155"
"Christian Nainggolan","Jl Raya Ciracas 4","Jakarta Pusat","15285","103122022-12-232022-12-2459113"
"Efendi Boedhiman","Jl Pejaten Brt 10 A","Jakarta Selatan","16965","104782022-12-212022-12-24866"
"Hioe Isenta and Ivy Lianawati","Jl Raya Alternatif Cibubur 23","Jakarta Pusat","17067","101902022-12-232022-12-24110181"
"Elvina Jonas Jahja","Jl Kayu Putih 7 A 8 Pulo Gadung","Jakarta Pusat","17050","104882022-12-232022-12-2494225"
"Jenny Elisabeth RG","Jl P Tubagus Angke 11 K-L","Jakarta Barat","15906","105352022-12-222022-12-2411581"
"Eka Sinto Kasih Tjia","Jl Sri Tanjung Pd Wage Indah F/17-19","Kota Pasuruan","15430","101482022-12-212022-12-24906"
"Elsa Djauhari","Jl Ngagel Tirtosari 19","Kota Pasuruan","16072","103952022-12-222022-12-24921"
"Ance Anggraeny","Jl Garuda Dlm I Bl B/47","Kota Bandung","16576","101282022-12-212022-12-2411224"
"Darmo Suwito Barwin","Jl Jelambar Ilir 2","Jakarta Pusat","15353","101242022-12-232022-12-247313"
"Christian Sandy Rachmat","Jl Tmn Surya","Jakarta Pusat","15476","105772022-12-232022-12-246156"
"Andiko Ardi Purnomo","Jl Cipinang Cempedak II 14","Jakarta Selatan","16266","97082022-12-222022-12-2418118"
"Jenny Elisabeth RG","Jl P Tubagus Angke 11 K-L","Jakarta Barat","15906","105962022-12-212022-12-24115246"
"Muhammad Agus","Jl Balai Rakyat 3 RT 001/01","Jakarta Selatan","16710","100942022-12-212022-12-2412594"
"Johan T. Gilbert","Jl Pluit Mas Raya VI A Bl G/9","Jakarta Barat","16577","97832022-12-212022-12-24119139"
"Efrem Wardhana","Jl Salemba Raya Psr Kenari AKS 12","Jakarta Pusat","16239","97882022-12-212022-12-2488251"
"Emi Sukiati Lasimon","Jl Letjen Haryono MT Kav 62 Wisma Korindo","Jakarta Pusat","16450","106302022-12-232022-12-249664"
"Elsa Djauhari","Jl Ngagel Tirtosari 19","Kota Pasuruan","16072","97982022-12-222022-12-249210"
"Muhammad Alatas","Jl Psr Blauran Baru C/3","Kota Pasuruan","16687","100682022-12-232022-12-24127149"
"Bismarka Kurniawan","Jl Batu 1","Jakarta Pusat","16516","98042022-12-232022-12-2451184"
"Darminto Hartono","Jl Setiabudi 186","Kota Bandung","17151","106692022-12-232022-12-2472310"
"BHAYANG SURYADIMADJA","Jl Gondangdia Lama 24","Jakarta Pusat","16116","110112022-12-212022-12-2446120"
"Benny Tjokrosapoetro","Jl Cideng Tmr 38","Jakarta Selatan","15744","106792022-12-222022-12-2441129"
"Bob Yanuar","Jl Percetakan Negara II 24","Jakarta Pusat","16675","103802022-12-232022-12-2453151"
"Amaluddin Djambak","Jl Raya Kosambi 8","Jakarta Barat","15683","103812022-12-212022-12-248243"
"Efrem Wardhana","Jl Salemba Raya Psr Kenari AKS 12","Jakarta Pusat","16239","106932022-12-212022-12-2488318"
"Andre Sukendra Atmadja","Jl Laksda M Nazir 11 U","Jakarta Selatan","16483","98182022-12-222022-12-242294"
"Elsa Djauhari","Jl Ngagel Tirtosari 19","Kota Pasuruan","16072","100162022-12-212022-12-2492189"
"Andre Sukendra Atmadja","Jl Laksda M Nazir 11 U","Jakarta Selatan","16483","98292022-12-222022-12-2422193"
"Darminto","Jl Sukanagara 21","Kota Bandung","16297","98312022-12-222022-12-2471129"
"Johan T. Gilbert","Jl Pluit Mas Raya VI A Bl G/9","Jakarta Barat","16577","103842022-12-222022-12-241193"
"David Kristian","Jl Gedeh 30-A","Sumatera Utara","15313","99722022-12-232022-12-2481110"
"Johan Soedibjo","Jl Probolinggo 5","Jakarta Barat","17273","107712022-12-212022-12-24118304"
"Allan Tjahja Tjao","Jl Denai 40","Sumatera Utara","15934","109612022-12-222022-12-241199"
"Evie Raviana","Jl Tmn Duta Mas Bl B-4/2","Jakarta Pusat","15274","107802022-12-232022-12-24105295"
"Amalia Aristiningsih","Jl Gn Sahari 51/12 A","Jakarta Barat","16325","99482022-12-212022-12-247226"
"Darwin Soegiatto","Jl Industri XXIV 988-989","Kota Solo","15213","99432022-12-232022-12-247767"
"Christian Sugiarto","Jl Cikini Raya 90 Hias Rias Plaza","Jakarta Pusat","15190","109402022-12-232022-12-2462224"
"Andre Abdi","Jl Mangga Besar XIII RT 12/02","Jakarta Selatan","15173","98652022-12-212022-12-2419124"
"Hiswara Natawindjaja","Jl Raya Cakung Cilincing Gud Inkopal","Jakarta Barat","17159","99182022-12-232022-12-24112304"
"Johana Poedjokerto","Jl KH Zainul Arifin 35","Jakarta Selatan","15151","99002022-12-232022-12-2412141"
"Bobby Iman Satrio","Jl Kom L Yos Sudarso 27","Jakarta Pusat","15391","98602022-12-242022-12-25551"
"Beata Ida Hartono","Jl Tj Batu 21 J/11","Kota Pasuruan","16975","109572022-12-242022-12-2528224"
"Andi Zainal A. Dulung","Jl Pagesangan IV 41","Kota Pasuruan","16529","109622022-12-242022-12-2517208"
"Amalia Aristiningsih","Jl Gn Sahari 51/12 A","Jakarta Barat","16325","99652022-12-242022-12-25756"
"Johan Tandean","Jl Raya Kebayoran Lama Permata Kebayoran Plaza Bl A/12","Jakarta Barat","15719","109792022-12-222022-12-251202"
"Efendi Boedhiman","Jl Pejaten Brt 10 A","Jakarta Selatan","16965","96682022-12-232022-12-2586172"
"Christian Nainggolan","Jl Raya Ciracas 4","Jakarta Pusat","15285","107202022-12-232022-12-2559232"
"Darwin Leo","Jl Cikini Raya 8","Jakarta Pusat","16509","106922022-12-232022-12-257564"
"Basuiki Puspoputro","Jl Kb Jati C-14/54","Kota Bandung","17064","106842022-12-242022-12-2524266"
"Effendy Husin","Jl Ampera Raya Kav I/5 Ged Satmarindo Lt 2","Jakarta Pusat","16277","98122022-12-242022-12-2587177"
"Darjoto Setyawan","Jl Stasiun 30 Kel Tanjung Gusta","Sumatera Utara","17130","106512022-12-242022-12-2567130"
"Evi Wikarsa","Jl Dewi Sartika 357 C","Jakarta Pusat","15415","100652022-12-242022-12-25103239"
"Andi Achmad Dara","Jl Sumagung III Kav Bulak K/5","Jakarta Utara","16681","108652022-12-232022-12-2514192"
"Christanto Santoso","JL. Kesehatan No. 3","Kota Sorong","17104","98012022-12-242022-12-2556145"
"Daswi Rayawang","Jl Sunan Giri 1 RT 012/15","Jakarta Pusat","17037","106252022-12-222022-12-257964"
"Darwin Silalahi","Jl Banyumanik Raya 77","Kota Solo","17056","106212022-12-232022-12-257610"
"Bob Yanuar","Jl Percetakan Negara II 24","Jakarta Pusat","16675","110382022-12-232022-12-2553301"
"Danny Tjiu","Jl Tebet Brt I/2","Jakarta Pusat","16429","109172022-12-232022-12-2565165"
"Evi Yulisma Harahap","Jl Kerinci 19","Jakarta Pusat","16526","110512022-12-242022-12-25104173"
"Amaluddin Djambak","Jl Raya Kosambi 8","Jakarta Barat","15683","109162022-12-232022-12-25899"
"Darmoseputro","Jl Asia Afrika Plaza Senayan","Jakarta Pusat","15472","101062022-12-232022-12-2574244"
"BEATRICE EL","Jl Kb Jeruk 10","Jakarta Selatan","17233","101412022-12-222022-12-253082"
"Bimo Surono","Jl Lodan 23","Jakarta Pusat","16487","101542022-12-242022-12-2548135"
"Beny Haryanto","Jl Karbela Brt 9 RT 004/04","Jakarta Selatan","17216","101632022-12-242022-12-254256"
"Anak Agung Gde Agung","Jl Sisingamangaraja Km 5.5/10","Sumatera Utara","16555","97562022-12-242022-12-25917"
"Darwin Silalahi","Jl Banyumanik Raya 77","Kota Solo","17056","101802022-12-232022-12-2576198"
"Bob Yanuar","Jl RS Fatmawati 15 Golden Plaza Bl I/1-2","Jakarta Pusat","16250","101832022-12-222022-12-2552252"
"BHAYANG SURYADIMADJA","Jl Gondangdia Lama 24","Jakarta Pusat","16116","109112022-12-222022-12-2546120"
"Bintoro Wong","Jl Talang Ujung 40 D","Jakarta Pusat","15341","104802022-12-232022-12-2550317"
"Beny Haryanto","Jl Karbela Brt 9 RT 004/04","Jakarta Selatan","17216","96752022-12-242022-12-2542224"
"Isenta Hioe","Jl Mandiri 9","Jakarta Barat","17224","104622022-12-232022-12-2511464"
"Johan Arifkaja Adi Lesmana","Jl Kertanegara 4","Jakarta Barat","16588","98812022-12-242022-12-251176"
"Darwin Soegiatto","Jl Industri XXIV 988-989","Kota Solo","15213","98782022-12-242022-12-2577124"
"Johan Soedibjo","Jl Probolinggo 5","Jakarta Barat","17273","109082022-12-242022-12-25118124"
"Andiko Ardi Purnomo","Jl Cipinang Cempedak II 14","Jakarta Selatan","16266","99322022-12-222022-12-2518174"
"Bengt Carl Gustav Thornberg","Jl Arteri Mangga Dua Raya Pus Perdag Psr Pagi Mangga Dua Bl B/132","Jakarta Selatan","16702","96942022-12-242022-12-2535208"
"Hioe Isenta","Jl Pekayon 4","Jakarta Barat","16966","109392022-12-242022-12-2510914"
"Edy Kusnadi","Jl Depsos Raya 42 B RT 008/01","Jakarta Selatan","17100","102702022-12-242022-12-268363"
"BELLYANAWATY BUDIMAN","Jl Pangkalan","Jakarta Selatan","15508","102662022-12-242022-12-2632202"
"Darmoseputro","Jl Asia Afrika Plaza Senayan","Jakarta Pusat","15472","102342022-12-242022-12-26744"
"Emil Abeng","Jl Kutisari Raya 12","Kota Pasuruan","16049","104152022-12-232022-12-2697165"
"Darmo Suwito Barwin","Jl Jelambar Ilir 2","Jakarta Pusat","15353","104322022-12-242022-12-2673269"
"Evert Jimmy Lengkong","Jl Jend Urip Sumohardjo 31 E","Jakarta Pusat","17061","104632022-12-252022-12-26101228"
"Ananda Soewono","Jl Gorontalo 9","Jakarta Utara","16147","104702022-12-252022-12-261082"
"Christiana Niowni","Jl Peta 62","Kota Bandung","17147","101512022-12-252022-12-266492"
"Evie Raviana","Jl Tmn Duta Mas Bl B-4/2","Jakarta Pusat","15274","101322022-12-242022-12-26105184"
"Emily Waty Setiawan","Jl Lautze 87","Jakarta Pusat","17176","105582022-12-232022-12-2699129"
"Bayu Prawitasari","Jl Rajawali 24","Sumatera Utara","16282","106642022-12-242022-12-2626228"
"Andiko Ardi Purnomo","Jl Cipinang Cempedak II 14","Jakarta Selatan","16266","106732022-12-232022-12-261827"
"Bobby Iman Satrio","Jl Kom L Yos Sudarso 27","Jakarta Pusat","15391","106742022-12-242022-12-2655193"
"Fabian Gelael","Jl Prof Surya Sumantri 16","Kota Bandung","16319","100342022-12-242022-12-26108302"
"Bismarka Kurniawan","Jl Batu 1","Jakarta Pusat","16516","100332022-12-242022-12-2651239"
"Efendi Boedhiman","Jl Pejaten Brt 10 A","Jakarta Selatan","16965","97032022-12-252022-12-2686100"
"Edy Kusnadi","Jl Depsos Raya 42 B RT 008/01","Jakarta Selatan","17100","99762022-12-252022-12-268360"
"Beng Phiau","Jl Baskara Sari 92","Kota Pasuruan","17038","107492022-12-232022-12-263487"
"Darjoto Setyawan","Jl Stasiun 30 Kel Tanjung Gusta","Sumatera Utara","17130","107672022-12-232022-12-2667144"
"ELVIN TJANDRA","Jl Tebet Tmr Dalam 7-I/5","Jakarta Pusat","16610","107912022-12-252022-12-2693237"
"Emily Waty Setiawan","Jl Lautze 87","Jakarta Pusat","17176","108062022-12-242022-12-2699228"
"Andre S Prijono","12550 Workshop ","Jakarta Selatan","15339","108092022-12-232022-12-2621188"
"Bobby Andhika","Jl Panti Asuhan 2","Jakarta Pusat","15502","108172022-12-252022-12-2654174"
"Christian Sandy Rachmat","Jl Tmn Surya","Jakarta Pusat","15476","108252022-12-242022-12-2661284"
"BHAYANG SURYADIMADJA","Jl Gondangdia Lama 24","Jakarta Pusat","16116","108572022-12-242022-12-2646197"
"Johan Arifkaja Adi Lesmana","Jl Kertanegara 4","Jakarta Barat","16588","108672022-12-252022-12-26117160"
"Darwin Sutanto","Jl Cilincing Raya 43 A","Jakarta Pusat","17010","109022022-12-242022-12-2678231"
"Johan Soedibjo","Jl Probolinggo 5","Jakarta Barat","17273","109192022-12-252022-12-26118200"
"Darwin Silalahi","Jl Banyumanik Raya 77","Kota Solo","17056","98632022-12-232022-12-2676233"
"Christiana Halim","Jl Mampang Prapatan Raya 18","Jakarta Pusat","17224","98522022-12-252022-12-2663158"
"Darminto Hartono","Jl Setiabudi 186","Kota Bandung","17151","98392022-12-232022-12-2672293"
"Betty Ang","Jl Kakap III 25","Jakarta Selatan","17260","109822022-12-232022-12-2645108"
"Bing Gondosubroto","Jl Prof Dr Latumeten 23","Jakarta Pusat","16339","96832022-12-252022-12-2649103"
"Betty Ang","Jl Kakap III 25","Jakarta Selatan","17260","109882022-12-242022-12-2645124"
"Bob Yanuar","Jl RS Fatmawati 15 Golden Plaza Bl I/1-2","Jakarta Pusat","16250","98052022-12-242022-12-2652272"
"Christian Nainggolan","Jl Raya Ciracas 4","Jakarta Pusat","15285","110272022-12-232022-12-265950"
"Bimo Pramudyo Soekarno","Jl Mutiara I 10","Jakarta Pusat","16667","97992022-12-232022-12-2647181"
"Evert Jimmy Lengkong","Jl Jend Urip Sumohardjo 31 E","Jakarta Pusat","17061","96812022-12-242022-12-2610167"
"Benny Tenges","Jl Gn Rahayu 1 A","Kota Bandung","16993","97782022-12-252022-12-2640124"
"Execorp Limited","Jl Raden Saleh Ruko Metro Permata Bl A-2/33","Jakarta Pusat","15758","110622022-12-232022-12-26107266"
"Hioe Isenta","Jl Pekayon 4","Jakarta Barat","16966","110792022-12-232022-12-26109193"
"David Alexander Yuwono","Jl Dr Cipto 48 A","Kota Solo","15318","110922022-12-242022-12-2680282"
"Bayu Irianto","Jl Soka 24","Kota Bandung","16999","97212022-12-252022-12-2625215"
"Elvina Jonas Jahja","Jl Kayu Putih 7 A 8 Pulo Gadung","Jakarta Pusat","17050","103222022-12-232022-12-2694129"
"Bernie Prajoga","Jl Casa 2","Kota Bandung","16858","103242022-12-242022-12-2644125"
"Christian Nainggolan","Jl Raya Ciracas 4","Jakarta Pusat","15285","103052022-12-252022-12-2659204"
"Muddai Madang","Jl Nibung Raya 129","Sumatera Utara","16421","103412022-12-242022-12-26123133"
"Bimo Surono","Jl Lodan 23","Jakarta Pusat","16487","97152022-12-252022-12-2648226"
"Andre Johannes Mamuaya","Jl Arjuna III/15","Jakarta Selatan","15636","102882022-12-232022-12-2620224"
"Andi Pravidia Saliman","Jl Angkasa Bl B-7/8","Jakarta Utara","15829","102762022-12-232022-12-26166"
"Edy Kusnadi","Jl Depsos Raya 42 B RT 008/01","Jakarta Selatan","17100","107972022-12-242022-12-278340"
"Muhammad Agus","Jl Balai Rakyat 3 RT 001/01","Jakarta Selatan","16710","103882022-12-262022-12-27125174"
"Bayu Irianto","Jl Soka 24","Kota Bandung","16999","101672022-12-242022-12-2725155"
"Andre Johannes Mamuaya","Jl Arjuna III/15","Jakarta Selatan","15636","105122022-12-252022-12-2720127"
"Darmoseputro","Jl Asia Afrika Plaza Senayan","Jakarta Pusat","15472","96592022-12-242022-12-2774285"
"ELVIN TJANDRA","Jl Tebet Tmr Dalam 7-I/5","Jakarta Pusat","16610","101682022-12-262022-12-279397"
"Darmawansjah Setiawan","Jl Raya Bekasi Km 25/95","Jakarta Pusat","16825","110882022-12-252022-12-2770282"
"Andre Sukendra Atmadja","Jl Laksda M Nazir 11 U","Jakarta Selatan","16483","101782022-12-252022-12-2722124"
"Beata Ida Hartono","Jl Tj Batu 21 J/11","Kota Pasuruan","16975","110982022-12-252022-12-272839"
"Hioe Isenta","Jl Pekayon 4","Jakarta Barat","16966","101852022-12-252022-12-27109224"
"BELLYANAWATY BUDIMAN","Jl Pangkalan","Jakarta Selatan","15508","107832022-12-252022-12-2732201"
"Jenny Elisabeth RG","Jl P Tubagus Angke 11 K-L","Jakarta Barat","15906","104822022-12-252022-12-27115250"
"Andiko Ardi Purnomo","Jl Cipinang Cempedak II 14","Jakarta Selatan","16266","104692022-12-262022-12-2718284"
"Andhika Anindyaguna Hermanto","Jl Iskandarsyah II 2 Pasaraya Blok M","Jakarta Utara","15174","104752022-12-242022-12-2713113"
"Benny Setiawan","Jl CiKota Denpasargo 225","Jakarta Selatan","16697","96862022-12-262022-12-2739305"
"Hioe Isenta and Ivy Lianawati","Jl Raya Alternatif Cibubur 23","Jakarta Pusat","17067","107602022-12-242022-12-271103"
"Jenny Elisabeth RG","Jl P Tubagus Angke 11 K-L","Jakarta Barat","15906","99702022-12-262022-12-27115256"
"Mugijanto Sugijono","Jl Dahlia Bl E/6 Kompl Tmn Modern","Jakarta Selatan","15432","107462022-12-242022-12-2712421"
"David Alexander Yuwono","Jl Dr Cipto 48 A","Kota Solo","15318","109782022-12-242022-12-2780274"
"Bobby Andhika","Jl Panti Asuhan 2","Jakarta Pusat","15502","108662022-12-242022-12-2754248"
"Elsa Djauhari","Jl Ngagel Tirtosari 19","Kota Pasuruan","16072","107352022-12-252022-12-2792314"
"Benny Tjokrosapoetro","Jl Cideng Tmr 38","Jakarta Selatan","15744","99802022-12-252022-12-2741123"
"Bismarka Kurniawan","Jl Batu 1","Jakarta Pusat","16516","98912022-12-242022-12-2751134"
"Alwi Alatas","Jl Tanjung 2","Kota Solo","17087","108992022-12-252022-12-274224"
"Alwijaya Aw","Jl Laks L RE Martadinata 279","Jakarta Barat","16844","100142022-12-262022-12-27517"
"Bernie Prajoga","Jl Casa 2","Kota Bandung","16858","109422022-12-262022-12-2744261"
"Bayu Virgan Triyatno","Jl Kota Denpasarkpapan 29-31","Jakarta Selatan","15536","106822022-12-252022-12-272792"
"Bobby Iman Satrio","Jl Kom L Yos Sudarso 27","Jakarta Pusat","15391","110082022-12-242022-12-2755174"
"Andhika Anindyaguna Hermanto","Jl Iskandarsyah II 2 Pasaraya Blok M","Jakarta Utara","15174","109432022-12-242022-12-2713306"
"Emily Stephana Djauhari","Jl Tabanas 22 Kompl Bank","Jakarta Pusat","17000","99292022-12-262022-12-279814"
"Evi Hamdani","Jl Senen Raya Proy Senen Bl IV P-4/11","Jakarta Pusat","16417","104022022-12-252022-12-27102142"
"Darmoseputro","Jl Asia Afrika Plaza Senayan","Jakarta Pusat","15472","98562022-12-252022-12-2774200"
"Ewik Hendri","Jl Jawa V Bl C/24","Jakarta Pusat","16677","104372022-12-262022-12-27106204"
"Beny Haryanto","Jl Karbela Brt 9 RT 004/04","Jakarta Selatan","17216","106012022-12-252022-12-2742269"
"Alwijaya Aw","Jl Laks L RE Martadinata 279","Jakarta Barat","16844","103612022-12-262022-12-27514"
"Ben Morice","Jl Kembang Indah Utama Bl J-2 A/16-17","Jakarta Selatan","15951","101052022-12-252022-12-27333"
"Eiffel Tedja","Jl Kwitang Raya 8 Ged Senatama","Jakarta Pusat","16366","105732022-12-262022-12-2789289"
"Ewik Hendri","Jl Jawa V Bl C/24","Jakarta Pusat","16677","101102022-12-252022-12-2710670"
"Edy Suwarno","Jl Ciputat Raya 16","Jakarta Selatan","16820","108292022-12-242022-12-2785239"
"Darmoseputro","Jl Asia Afrika Plaza Senayan","Jakarta Pusat","15472","98662022-12-262022-12-2774221"
"Bayu Irianto","Jl Soka 24","Kota Bandung","16999","110692022-12-242022-12-27258"
"Basuiki Puspoputro","Jl Kb Jati C-14/54","Kota Bandung","17064","104572022-12-252022-12-2724113"
"Anak Agung Gde Agung","Jl Sisingamangaraja Km 5.5/10","Sumatera Utara","16555","105242022-12-262022-12-279142"
"Bimo Pramudyo Soekarno","Jl Mutiara I 10","Jakarta Pusat","16667","106342022-12-252022-12-2847123"
"Ance Anggraeny","Jl Garuda Dlm I Bl B/47","Kota Bandung","16576","108912022-12-272022-12-2811255"
"Anak Agung Gde Agung","Jl Sisingamangaraja Km 5.5/10","Sumatera Utara","16555","105222022-12-272022-12-289135"
"Bayu Irianto","Jl Soka 24","Kota Bandung","16999","107342022-12-272022-12-2825241"
"ELVIN TJANDRA","Jl Tebet Tmr Dalam 7-I/5","Jakarta Pusat","16610","98162022-12-252022-12-2893115"
"Bob Yanuar","Jl RS Fatmawati 15 Golden Plaza Bl I/1-2","Jakarta Pusat","16250","104592022-12-252022-12-2852158"
"Hioe Isenta and Ivy Lianawati","Jl Raya Alternatif Cibubur 23","Jakarta Pusat","17067","99572022-12-252022-12-2811066"
"Muddai Madang","Jl Nibung Raya 129","Sumatera Utara","16421","102522022-12-272022-12-28123221"
"Andre Abdi","Jl Mangga Besar XIII RT 12/02","Jakarta Selatan","15173","98142022-12-272022-12-281988"
"Hiswara Natawindjaja","Jl Raya Cakung Cilincing Gud Inkopal","Jakarta Barat","17159","97172022-12-252022-12-28112252"
"Christian Leuchtenberg","Jl Puri Agung Mal Puri Indah Unit IU/1 C","Jakarta Pusat","17209","105102022-12-252022-12-2858157"
"Execorp Limited","Jl Raden Saleh Ruko Metro Permata Bl A-2/33","Jakarta Pusat","15758","110352022-12-262022-12-2810739"
"Bengt Carl Gustav Thornberg","Jl Arteri Mangga Dua Raya Pus Perdag Psr Pagi Mangga Dua Bl B/132","Jakarta Selatan","16702","101082022-12-272022-12-2835184"
"Alvin Gozali","Jl Kopo Ruko Kopo Permai Bl 6 AR/17","Kota Bandung","16263","101502022-12-252022-12-283306"
"Benny Tenges","Jl Gn Rahayu 1 A","Kota Bandung","16993","104082022-12-252022-12-2840198"
"Benny Tenges","Jl Gn Rahayu 1 A","Kota Bandung","16993","101692022-12-272022-12-284017"
"Fabian Gelael","Jl Prof Surya Sumantri 16","Kota Bandung","16319","103582022-12-262022-12-28108142"
"Christian Leuchtenberg","Jl Puri Agung Mal Puri Indah Unit IU/1 C","Jakarta Pusat","17209","108852022-12-252022-12-2858296"
"Eko Budianto","Jl Raden Saleh 1 B-D","Jakarta Pusat","16110","98362022-12-262022-12-289161"
"Emil Abeng","Jl Kutisari Raya 12","Kota Pasuruan","16049","100442022-12-272022-12-2897231"
"Bing Gondosubroto","Jl Prof Dr Latumeten 23","Jakarta Pusat","16339","110962022-12-252022-12-28496"
"Hioe Isenta","Jl Pekayon 4","Jakarta Barat","16966","96952022-12-262022-12-28109130"
"Elvina Jonas Jahja","Jl Kayu Putih 7 A 8 Pulo Gadung","Jakarta Pusat","17050","100522022-12-262022-12-2894287"
"Christian Sugiarto","Jl Cikini Raya 90 Hias Rias Plaza","Jakarta Pusat","15190","108112022-12-252022-12-2862225"
"Christian Dieter Scholz","Jl Tmn Sari Raya 5 D","Jakarta Pusat","16817","99302022-12-252022-12-285767"
"Darminto","Jl Sukanagara 21","Kota Bandung","16297","105342022-12-252022-12-2871123"
"Benny Setiawan","Jl CiKota Denpasargo 225","Jakarta Selatan","16697","97842022-12-272022-12-2839186"
"Bayu Irianto","Jl Soka 24","Kota Bandung","16999","107822022-12-272022-12-2825288"
"Darminto","Jl Sukanagara 21","Kota Bandung","16297","101392022-12-272022-12-2871179"
"Bayu Virgan Triyatno","Jl Kota Denpasarkpapan 29-31","Jakarta Selatan","15536","99592022-12-262022-12-2827295"
"Belinda Natalia Tanoko","Jl Kutisari Raya 12","Kota Pasuruan","16899","108432022-12-272022-12-2831111"
"Christiana Niowni","Jl Peta 62","Kota Bandung","17147","103592022-12-252022-12-2864229"
"Andreas Andikha Bunanta","Jl Mampang Prapatan Raya 106 Plaza Basmar","Jakarta Selatan","16591","106542022-12-272022-12-2823172"
"Basuiki Puspoputro","Jl Kb Jati C-14/54","Kota Bandung","17064","108482022-12-272022-12-282461"
"Darwin Silalahi","Jl Banyumanik Raya 77","Kota Solo","17056","106462022-12-262022-12-2876227"
"Hiswara Natawindjaja","Jl Raya Cakung Cilincing Gud Inkopal","Jakarta Barat","17159","104072022-12-262022-12-28112210"
"Emil Abeng","Jl Kutisari Raya 12","Kota Pasuruan","16049","102172022-12-272022-12-289778"
"Johan Tandean","Jl Raya Kebayoran Lama Permata Kebayoran Plaza Bl A/12","Jakarta Barat","15719","107652022-12-272022-12-2812018"
"Beny Haryanto","Jl Karbela Brt 9 RT 004/04","Jakarta Selatan","17216","105442022-12-262022-12-2842172"
"Hiswara Natawindjaja","Jl Raya Cakung Cilincing Gud Inkopal","Jakarta Barat","17159","98472022-12-262022-12-28112231"
"Darjoto Setyawan","Jl Stasiun 30 Kel Tanjung Gusta","Sumatera Utara","17130","98742022-12-252022-12-2867305"
"Muddai Madang","Jl Nibung Raya 129","Sumatera Utara","16421","99062022-12-272022-12-28123124"
"Johan T. Gilbert","Jl Pluit Mas Raya VI A Bl G/9","Jakarta Barat","16577","107882022-12-272022-12-28119122"
"Darjoto Setyawan","Jl Stasiun 30 Kel Tanjung Gusta","Sumatera Utara","17130","108042022-12-272022-12-2867306"
"Edy Kosasih","Jl Pd Kelapa Raya Bl BI-4 B-C RT 005/04 Pondok Kelapa","Jakarta Selatan","16647","97492022-12-282022-12-29828"
"Andreas Andikha Bunanta","Jl Mampang Prapatan Raya 106 Plaza Basmar","Jakarta Selatan","16591","100892022-12-272022-12-2923150"
"Darmawansjah Setiawan","Jl Raya Bekasi Km 25/95","Jakarta Pusat","16825","101402022-12-262022-12-2970291"
"Bayu Irianto","Jl Soka 24","Kota Bandung","16999","101932022-12-282022-12-2925304"
"Ben Morice","Jl Kembang Indah Utama Bl J-2 A/16-17","Jakarta Selatan","15951","104482022-12-272022-12-2933195"
"Christiana Halim","Jl Mampang Prapatan Raya 18","Jakarta Pusat","17224","99152022-12-282022-12-29631"
"Hioe Isenta and Ivy Lianawati","Jl Raya Alternatif Cibubur 23","Jakarta Pusat","17067","107742022-12-282022-12-29110243"
"Danny Tjiu","Jl Tebet Brt I/2","Jakarta Pusat","16429","98452022-12-282022-12-2965108"
"Andi Zainal A. Dulung","Jl Pagesangan IV 41","Kota Pasuruan","16529","99312022-12-282022-12-2917309"
"Andre Sukendra Atmadja","Jl Laksda M Nazir 11 U","Jakarta Selatan","16483","108602022-12-262022-12-292222"
"Andre S Prijono","12550 Workshop ","Jakarta Selatan","15339","110482022-12-272022-12-292110"
"Bimo Pramudyo Soekarno","Jl Mutiara I 10","Jakarta Pusat","16667","108242022-12-262022-12-2947265"
"Edy Kosasih","Jl Pd Kelapa Raya Bl BI-4 B-C RT 005/04 Pondok Kelapa","Jakarta Selatan","16647","98712022-12-272022-12-2982217"
"Fabian Gelael","Jl Prof Surya Sumantri 16","Kota Bandung","16319","110492022-12-272022-12-29108317"
"Johan Arifkaja Adi Lesmana","Jl Kertanegara 4","Jakarta Barat","16588","98382022-12-262022-12-29117137"
"Amalia","Jl Paseban 3 C","Jakarta Barat","16456","98642022-12-272022-12-29691"
"Bob Yanuar","Jl RS Fatmawati 15 Golden Plaza Bl I/1-2","Jakarta Pusat","16250","103112022-12-282022-12-295287"
"Johan Soedibjo","Jl Probolinggo 5","Jakarta Barat","17273","102722022-12-272022-12-29118224"
"Evi Wikarsa","Jl Dewi Sartika 357 C","Jakarta Pusat","15415","109842022-12-262022-12-29103183"
"Irwan Hermanto","Jl Albaido I 29-30","Jakarta Barat","15246","109072022-12-262022-12-29113203"
"Dany Subrata","Jl Metro Permata Bl A-2/33","Jakarta Pusat","15640","109862022-12-272022-12-2966168"
"Allan Tjahja Tjao","Jl Denai 40","Sumatera Utara","15934","101432022-12-272022-12-291113"
"Bengt Carl Gustav Thornberg","Jl Arteri Mangga Dua Raya Pus Perdag Psr Pagi Mangga Dua Bl B/132","Jakarta Selatan","16702","108832022-12-272022-12-2935245"
"Bismarka Kurniawan","Jl Batu 1","Jakarta Pusat","16516","99212022-12-262022-12-2951227"
"Amalia Aristiningsih","Jl Gn Sahari 51/12 A","Jakarta Barat","16325","97022022-12-272022-12-297174"
"Evie Raviana","Jl Tmn Duta Mas Bl B-4/2","Jakarta Pusat","15274","105262022-12-262022-12-29105135"
"Alwi Alatas","Jl Tanjung 2","Kota Solo","17087","98882022-12-272022-12-294158"
"Elsa Djauhari","Jl Ngagel Tirtosari 19","Kota Pasuruan","16072","107022022-12-282022-12-2992286"
"Mugijanto Sugijono","Jl Dahlia Bl E/6 Kompl Tmn Modern","Jakarta Selatan","15432","104552022-12-282022-12-29124286"
"Darmoseputro","Jl Asia Afrika Plaza Senayan","Jakarta Pusat","15472","101342022-12-272022-12-297464"
"Efrem Wardhana","Jl Salemba Raya Psr Kenari AKS 12","Jakarta Pusat","16239","110712022-12-272022-12-2988290"
"Efrem Wardhana","Jl Salemba Raya Psr Kenari AKS 12","Jakarta Pusat","16239","100422022-12-262022-12-2988280"
"Hiswara Natawindjaja","Jl Raya Cakung Cilincing Gud Inkopal","Jakarta Barat","17159","98112022-12-262022-12-29112252"
"Bimo Pramudyo Soekarno","Jl Mutiara I 10","Jakarta Pusat","16667","106662022-12-262022-12-2947270"
"Johan Arifkaja Adi Lesmana","Jl Kertanegara 4","Jakarta Barat","16588","100452022-12-282022-12-29117197"
"Bayu Virgan Triyatno","Jl Kota Denpasarkpapan 29-31","Jakarta Selatan","15536","102632022-12-282022-12-292780"
"Emil Abeng","Jl Kutisari Raya 12","Kota Pasuruan","16049","102332022-12-282022-12-2997298"
"Edy Suwarno","Jl Ciputat Raya 16","Jakarta Selatan","16820","109462022-12-262022-12-29858"
"Christiana Niowni","Jl Peta 62","Kota Bandung","17147","102542022-12-262022-12-2964263"
"Basuiki Puspoputro","Jl Kb Jati C-14/54","Kota Bandung","17064","103022022-12-262022-12-292413"
"Amaluddin Djambak","Jl Raya Kosambi 8","Jakarta Barat","15683","103062022-12-262022-12-29843"
"Christian Sugiarto","Jl Cikini Raya 90 Hias Rias Plaza","Jakarta Pusat","15190","106322022-12-282022-12-2962311"
"Betty Ang","Jl Kakap III 25","Jakarta Selatan","17260","110802022-12-262022-12-294545"
"Edy Kusnadi","Jl Depsos Raya 42 B RT 008/01","Jakarta Selatan","17100","102512022-12-262022-12-2983284"
"Johan Arifkaja Adi Lesmana","Jl Kertanegara 4","Jakarta Barat","16588","96622022-12-272022-12-2911752"
"Ben Morice","Jl Kembang Indah Utama Bl J-2 A/16-17","Jakarta Selatan","15951","97902022-12-282022-12-293313"
"Johan T. Gilbert","Jl Pluit Mas Raya VI A Bl G/9","Jakarta Barat","16577","97602022-12-262022-12-29119186"
"Christiana Niowni","Jl Peta 62","Kota Bandung","17147","97592022-12-282022-12-2964184"
"Johana Poedjokerto","Jl KH Zainul Arifin 35","Jakarta Selatan","15151","104682022-12-272022-12-29121165"
"BELLYANAWATY BUDIMAN","Jl Pangkalan","Jakarta Selatan","15508","100762022-12-272022-12-2932121"
"Allan Tjahja Tjao","Jl Denai 40","Sumatera Utara","15934","97532022-12-262022-12-291224"
"Ben Morice","Jl Kembang Indah Utama Bl J-2 A/16-17","Jakarta Selatan","15951","97512022-12-272022-12-2933290"
"Darwin Leo","Jl Cikini Raya 8","Jakarta Pusat","16509","110772022-12-262022-12-2975224"
"Evie Raviana","Jl Tmn Duta Mas Bl B-4/2","Jakarta Pusat","15274","98062022-12-292022-12-30105184"
"Christian Sugiarto","Jl Cikini Raya 90 Hias Rias Plaza","Jakarta Pusat","15190","108212022-12-292022-12-306212"
"Evi Wikarsa","Jl Dewi Sartika 357 C","Jakarta Pusat","15415","96712022-12-272022-12-30103231"
"Johan Tandean","Jl Raya Kebayoran Lama Permata Kebayoran Plaza Bl A/12","Jakarta Barat","15719","108192022-12-272022-12-3012053"
"Bobby Andhika","Jl Panti Asuhan 2","Jakarta Pusat","15502","99532022-12-282022-12-305411"
"Evi Wikarsa","Jl Dewi Sartika 357 C","Jakarta Pusat","15415","107952022-12-282022-12-30103113"
"Johanes Herkiamto","Jl Raya Kalimalang 1","Jakarta Selatan","16882","107942022-12-282022-12-3012285"
"JENNY WIDJAJA","Jl Hayam Wuruk 120","Jakarta Barat","15841","107842022-12-282022-12-3011679"
"Ben Morice","Jl Kembang Indah Utama Bl J-2 A/16-17","Jakarta Selatan","15951","109702022-12-282022-12-3033261"
"Andiko Ardi Purnomo","Jl Cipinang Cempedak II 14","Jakarta Selatan","16266","99732022-12-292022-12-3018176"
"Ance Anggraeny","Jl Garuda Dlm I Bl B/47","Kota Bandung","16576","107472022-12-272022-12-30116"
"Bob Yanuar","Jl RS Fatmawati 15 Golden Plaza Bl I/1-2","Jakarta Pusat","16250","107442022-12-272022-12-305213"
"Ance Anggraeny","Jl Garuda Dlm I Bl B/47","Kota Bandung","16576","107372022-12-272022-12-30116"
"Christian Sugiarto","Jl Cikini Raya 90 Hias Rias Plaza","Jakarta Pusat","15190","102432022-12-282022-12-3062275"
"Darjoto Setyawan","Jl Stasiun 30 Kel Tanjung Gusta","Sumatera Utara","17130","107272022-12-272022-12-3067215"
"Edy Kosasih","Jl Pd Kelapa Raya Bl BI-4 B-C RT 005/04 Pondok Kelapa","Jakarta Selatan","16647","107102022-12-282022-12-3082198"
"Evi Yulisma Harahap","Jl Kerinci 19","Jakarta Pusat","16526","98232022-12-282022-12-30104275"
"Emil Abeng","Jl Kutisari Raya 12","Kota Pasuruan","16049","100282022-12-282022-12-3097184"
"Edy Kosasih","Jl Pd Kelapa Raya Bl BI-4 B-C RT 005/04 Pondok Kelapa","Jakarta Selatan","16647","106772022-12-272022-12-3082227"
"BENNY IRSJAD","Jl Dr Setiabudhi 315","Jakarta Selatan","15258","96632022-12-282022-12-303892"
"Darmadi Karjanto Putro","Jl Pinangsia III/15","Jakarta Pusat","17167","106432022-12-282022-12-3068120"
"Christian Nainggolan","Jl Raya Ciracas 4","Jakarta Pusat","15285","106182022-12-272022-12-3059143"
"Belinda Natalia Tanoko","Jl Kutisari Raya 12","Kota Pasuruan","16899","100862022-12-282022-12-3031193"
"Bing Gondosubroto","Jl Prof Dr Latumeten 23","Jakarta Pusat","16339","110422022-12-282022-12-3049151"
"Darwin Soegiatto","Jl Industri XXIV 988-989","Kota Solo","15213","96782022-12-292022-12-307756"
"Edy Suwarno","Jl Ciputat Raya 16","Jakarta Selatan","16820","101142022-12-292022-12-308541"
"Johanes Herkiamto","Jl Raya Kalimalang 1","Jakarta Selatan","16882","110602022-12-272022-12-30122201"
"Alwijaya Aw","Jl Laks L RE Martadinata 279","Jakarta Barat","16844","110642022-12-272022-12-305224"
"Christanto Santoso","JL. Kesehatan No. 3","Kota Sorong","17104","110662022-12-272022-12-3056278"
"Andre S Prijono","12550 Workshop ","Jakarta Selatan","15339","104942022-12-282022-12-3021103"
"Daswi Rayawang","Jl Sunan Giri 1 RT 012/15","Jakarta Pusat","17037","97462022-12-292022-12-3079303"
"Amalia","Jl Paseban 3 C","Jakarta Barat","16456","104872022-12-282022-12-30683"
"Jenny Elisabeth RG","Jl P Tubagus Angke 11 K-L","Jakarta Barat","15906","97412022-12-292022-12-3011593"
"Johana Poedjokerto","Jl KH Zainul Arifin 35","Jakarta Selatan","15151","97232022-12-292022-12-30121227"
"Beny Haryanto","Jl Karbela Brt 9 RT 004/04","Jakarta Selatan","17216","101962022-12-292022-12-3042276"
"Elvina Jonas Jahja","Jl Kayu Putih 7 A 8 Pulo Gadung","Jakarta Pusat","17050","96742022-12-282022-12-309411"
"Fabian Gelael","Jl Prof Surya Sumantri 16","Kota Bandung","16319","101992022-12-292022-12-30108123"
"Alwi Alatas","Jl Tanjung 2","Kota Solo","17087","102052022-12-282022-12-304156"
"Darmansjah Darsono","Jl Bantir 10 50651","Kota Solo","15323","102062022-12-282022-12-306932"
"Darminto Hartono","Jl Setiabudi 186","Kota Bandung","17151","104512022-12-282022-12-3072209"
"Bayu Virgan Triyatno","Jl Kota Denpasarkpapan 29-31","Jakarta Selatan","15536","102622022-12-272022-12-3027134"
"BENNY IRSJAD","Jl Dr Setiabudhi 315","Jakarta Selatan","15258","104362022-12-282022-12-303866"
"Christian Parlaungan Mulyanto","Jl Cipaku I 43","Jakarta Pusat","16393","102712022-12-292022-12-3060199"
"Andre Abdi","Jl Mangga Besar XIII RT 12/02","Jakarta Selatan","15173","103362022-12-272022-12-3019206"
"Efendi Boedhiman","Jl Pejaten Brt 10 A","Jakarta Selatan","16965","104162022-12-292022-12-3086130"
"Andreas Andikha Bunanta","Jl Mampang Prapatan Raya 106 Plaza Basmar","Jakarta Selatan","16591","98832022-12-282022-12-30238"
"Benny Setiawan","Jl CiKota Denpasargo 225","Jakarta Selatan","16697","96922022-12-282022-12-3039284"
"Bing Gondosubroto","Jl Prof Dr Latumeten 23","Jakarta Pusat","16339","108462022-12-292022-12-30494"
"Darmadi Karjanto Putro","Jl Pinangsia III/15","Jakarta Pusat","17167","105872022-12-302022-12-31683"
"Mugijanto Sugijono","Jl Dahlia Bl E/6 Kompl Tmn Modern","Jakarta Selatan","15432","109672022-12-282022-12-31124157"
"Effendy Husin","Jl Ampera Raya Kav I/5 Ged Satmarindo Lt 2","Jakarta Pusat","16277","109122022-12-292022-12-31879"
"David Kristian","Jl Gedeh 30-A","Sumatera Utara","15313","109662022-12-302022-12-3181177"
"Muhammad Alatas","Jl Psr Blauran Baru C/3","Kota Pasuruan","16687","105982022-12-302022-12-31127307"
"Andre Sukendra Atmadja","Jl Laksda M Nazir 11 U","Jakarta Selatan","16483","100922022-12-292022-12-312287"
"Andi Gunawan Wibowo","Jl H Dilun Raya 113 Kel Ulujami Kec Pesanggrahan","Jakarta Utara","16276","110452022-12-302022-12-31153"
"Evi Wikarsa","Jl Dewi Sartika 357 C","Jakarta Pusat","15415","107762022-12-302022-12-3110363"
"BENNY IRSJAD","Jl Dr Setiabudhi 315","Jakarta Selatan","15258","104352022-12-282022-12-3138250"
"Darwin Silalahi","Jl Banyumanik Raya 77","Kota Solo","17056","106332022-12-282022-12-317699"
"Isenta Hioe","Jl Mandiri 9","Jakarta Barat","17224","102842022-12-302022-12-31114116"
"Evi Yulisma Harahap","Jl Kerinci 19","Jakarta Pusat","16526","104002022-12-302022-12-31104276"
"Amalia","Jl Paseban 3 C","Jakarta Barat","16456","100672022-12-292022-12-316232"
"ELVIN TJANDRA","Jl Tebet Tmr Dalam 7-I/5","Jakarta Pusat","16610","104282022-12-302022-12-3193197"
"Irwan Hermanto","Jl Albaido I 29-30","Jakarta Barat","15246","103512022-12-282022-12-31113124"
"Amalia","Jl Paseban 3 C","Jakarta Barat","16456","109272022-12-292022-12-316226"
"David Alexander Yuwono","Jl Dr Cipto 48 A","Kota Solo","15318","108452022-12-302022-12-3180308"
"Beng Phiau","Jl Baskara Sari 92","Kota Pasuruan","17038","103392022-12-292022-12-3134302"
"Execorp Limited","Jl Raden Saleh Ruko Metro Permata Bl A-2/33","Jakarta Pusat","15758","108342022-12-282022-12-31107186"
"Darminto","Jl Sukanagara 21","Kota Bandung","16297","102672022-12-282022-12-317135"
"Betty Ang","Jl Kakap III 25","Jakarta Selatan","17260","104132022-12-302022-12-3145316"
"Effendy Husin","Jl Ampera Raya Kav I/5 Ged Satmarindo Lt 2","Jakarta Pusat","16277","106962022-12-282022-12-318764"
"Johan Soedibjo","Jl Probolinggo 5","Jakarta Barat","17273","96662022-12-282022-12-31118271"
"Andi Gunawan Wibowo","Jl H Dilun Raya 113 Kel Ulujami Kec Pesanggrahan","Jakarta Utara","16276","96672022-12-302022-12-3115112"
"Johan Arifkaja Adi Lesmana","Jl Kertanegara 4","Jakarta Barat","16588","107212022-12-302022-12-31117190"
"Emily Stephana Djauhari","Jl Tabanas 22 Kompl Bank","Jakarta Pusat","17000","109912022-12-302022-12-319875"
"David Kristian","Jl Gedeh 30-A","Sumatera Utara","15313","102922022-12-302022-12-3181289"
"Eka Sinto Kasih Tjia","Jl Sri Tanjung Pd Wage Indah F/17-19","Kota Pasuruan","15430","104042022-12-282022-12-31903"
"BELLYANAWATY BUDIMAN","Jl Pangkalan","Jakarta Selatan","15508","108792022-12-282022-12-313224"
"Christian Leuchtenberg","Jl Puri Agung Mal Puri Indah Unit IU/1 C","Jakarta Pusat","17209","104762022-12-282022-12-3158149"
"Darmoseputro","Jl Asia Afrika Plaza Senayan","Jakarta Pusat","15472","107962022-12-292022-12-3174148"
"Andhika Anindyaguna Hermanto","Jl Iskandarsyah II 2 Pasaraya Blok M","Jakarta Utara","15174","104772022-12-282022-12-311357"
"Darwin Soegiatto","Jl Industri XXIV 988-989","Kota Solo","15213","97352022-12-292022-12-317785"
"Execorp Limited","Jl Raden Saleh Ruko Metro Permata Bl A-2/33","Jakarta Pusat","15758","97012022-12-292022-12-31107136"
"Benny Tenges","Jl Gn Rahayu 1 A","Kota Bandung","16993","101922022-12-302022-12-3140225"
"Efrem Wardhana","Jl Salemba Raya Psr Kenari AKS 12","Jakarta Pusat","16239","105062022-12-282022-12-3188246"
"Emily Stephana Djauhari","Jl Tabanas 22 Kompl Bank","Jakarta Pusat","17000","109802022-12-302022-12-3198296"
"Bimo Surono","Jl Lodan 23","Jakarta Pusat","16487","110852022-12-302022-12-314821"
"Christanto Santoso","JL. Kesehatan No. 3","Kota Sorong","17104","107592022-12-302022-12-3156157"
"Bob Yanuar","Jl RS Fatmawati 15 Golden Plaza Bl I/1-2","Jakarta Pusat","16250","105112022-12-282022-12-315211"
"Johan Arifkaja Adi Lesmana","Jl Kertanegara 4","Jakarta Barat","16588","110812022-12-282022-12-3111792"
"Mugijanto Sugijono","Jl Dahlia Bl E/6 Kompl Tmn Modern","Jakarta Selatan","15432","110732022-12-292022-12-31124226"
"Allan Tjahja Tjao","Jl Denai 40","Sumatera Utara","15934","101192022-12-282022-12-31111"
"Andi Zainal A. Dulung","Jl Pagesangan IV 41","Kota Pasuruan","16529","98762022-12-282022-12-311790"
